{"type":"FeatureCollection","name":"regions","crs_note":"coordinates are source-image pixels of assets/maps/source/base_map.webp (x right, y down); see docs/COORDINATES.md","features":[{"type":"Feature","properties":{"id":"REG_LC","name":"Laurel City","kind":"city","desc":"Larger west city on the Laurel River: downtown towers, rail yard, SR 400 / SR 9 freeways.","area_km2":2.23},"geometry":{"type":"Polygon","coordinates":[[[0.0,0.0],[0.0,667.0],[600.0,667.0],[600.0,470.0],[590.0,380.0],[560.0,300.0],[480.0,230.0],[440.0,110.0],[420.0,0.0],[0.0,0.0]]]}},{"type":"Feature","properties":{"id":"REG_LAUREL_GAP","name":"Laurel Gap corridor","kind":"transition","desc":"Rural transition along US 19 between Laurel City and Hollow Ridge: farms, Bald Ridge, Laurel Gap.","area_km2":1.47},"geometry":{"type":"Polygon","coordinates":[[[420.0,0.0],[440.0,110.0],[480.0,230.0],[560.0,300.0],[590.0,380.0],[600.0,470.0],[600.0,667.0],[840.0,667.0],[860.0,380.0],[900.0,300.0],[930.0,210.0],[930.0,0.0],[420.0,0.0]]]}},{"type":"Feature","properties":{"id":"REG_HR","name":"Hollow Ridge","kind":"town","desc":"Old Appalachian town grown along US 19 (Main St), Falls Creek, and the Georgia Northern depot.","area_km2":0.5},"geometry":{"type":"Polygon","coordinates":[[[930.0,190.0],[900.0,300.0],[930.0,430.0],[1080.0,470.0],[1230.0,440.0],[1230.0,300.0],[1180.0,190.0],[930.0,190.0]]]}},{"type":"Feature","properties":{"id":"REG_HIGHLANDS_N","name":"North highlands (Stony Knob)","kind":"wilderness","desc":"Central Appalachian high country: Falls Creek gorge, Stony Knob massif.","area_km2":0.53},"geometry":{"type":"Polygon","coordinates":[[[930.0,0.0],[930.0,190.0],[1180.0,190.0],[1230.0,300.0],[1300.0,240.0],[1330.0,160.0],[1340.0,0.0],[930.0,0.0]]]}},{"type":"Feature","properties":{"id":"REG_HIGHLANDS_S","name":"South Fork highlands","kind":"wilderness","desc":"South Fork gorge, Hollow Creek, Dockery farm, forested ridges.","area_km2":0.89},"geometry":{"type":"Polygon","coordinates":[[[840.0,667.0],[1460.0,667.0],[1420.0,420.0],[1300.0,400.0],[1230.0,440.0],[1080.0,470.0],[930.0,430.0],[900.0,300.0],[860.0,380.0],[840.0,667.0]]]}},{"type":"Feature","properties":{"id":"REG_TANNER_VALLEY","name":"Tanner Valley corridor","kind":"transition","desc":"Rural transition between Hollow Ridge and Tannersville: Harmony Grove, Tanner Pike, the Tanner meanders.","area_km2":0.53},"geometry":{"type":"Polygon","coordinates":[[[1340.0,0.0],[1330.0,160.0],[1300.0,240.0],[1230.0,300.0],[1230.0,440.0],[1300.0,400.0],[1420.0,420.0],[1450.0,300.0],[1480.0,200.0],[1560.0,120.0],[1560.0,0.0],[1340.0,0.0]]]}},{"type":"Feature","properties":{"id":"REG_TV","name":"Tannersville","kind":"city","desc":"Larger east city at the Tanner / North Branch confluence: downtown, arena, rail yard, SR 60 / US 76.","area_km2":2.19},"geometry":{"type":"Polygon","coordinates":[[[1560.0,0.0],[1560.0,120.0],[1480.0,200.0],[1450.0,300.0],[1420.0,420.0],[1460.0,667.0],[2000.0,667.0],[2000.0,0.0],[1560.0,0.0]]]}}]}
