{"type":"FeatureCollection","name":"settlements","crs_note":"coordinates are source-image pixels of assets/maps/source/base_map.webp (x right, y down); see docs/COORDINATES.md","features":[{"type":"Feature","properties":{"id":"SET_LC","name":"Laurel City","kind":"city","population_1974":38000,"region":"REG_LC"},"geometry":{"type":"Point","coordinates":[285.0,285.0]}},{"type":"Feature","properties":{"id":"SET_HR","name":"Hollow Ridge","kind":"town","population_1974":2100,"region":"REG_HR"},"geometry":{"type":"Point","coordinates":[1050.0,330.0]}},{"type":"Feature","properties":{"id":"SET_TV","name":"Tannersville","kind":"city","population_1974":31000,"region":"REG_TV"},"geometry":{"type":"Point","coordinates":[1720.0,250.0]}},{"type":"Feature","properties":{"id":"SET_HARMONY","name":"Harmony Grove","kind":"hamlet","population_1974":140,"region":"REG_TANNER_VALLEY"},"geometry":{"type":"Point","coordinates":[1395.0,225.0]}},{"type":"Feature","properties":{"id":"SET_PICKENS","name":"Pickens Crossroads","kind":"hamlet","population_1974":90,"region":"REG_LAUREL_GAP"},"geometry":{"type":"Point","coordinates":[800.0,140.0]}},{"type":"Feature","properties":{"id":"SET_DOCKERY","name":"Dockery","kind":"hamlet","population_1974":60,"region":"REG_HIGHLANDS_S"},"geometry":{"type":"Point","coordinates":[880.0,610.0]}},{"type":"Feature","properties":{"id":"SET_MILL","name":"Laurel Mill","kind":"hamlet","population_1974":120,"region":"REG_LAUREL_GAP"},"geometry":{"type":"Point","coordinates":[665.0,340.0]}}]}
