{"type":"FeatureCollection","name":"landmarks","crs_note":"coordinates are source-image pixels of assets/maps/source/base_map.webp (x right, y down); see docs/COORDINATES.md","features":[{"type":"Feature","properties":{"id":"LM_LC_COLISEUM","name":"Laurel City Civic Coliseum","kind":"arena","settlement":"laurel_city","radius_px":14.0,"building":true},"geometry":{"type":"Point","coordinates":[152.0,229.0]}},{"type":"Feature","properties":{"id":"LM_TV_ARENA","name":"Tannersville Memorial Arena","kind":"arena","settlement":"tannersville","radius_px":14.0,"building":true},"geometry":{"type":"Point","coordinates":[1864.0,302.0]}},{"type":"Feature","properties":{"id":"LM_HR_CHURCH","name":"Hollow Ridge First Baptist Church","kind":"church","settlement":"hollow_ridge","size_px":[8.0,17.0],"rotation_deg":-4.0,"building":true},"geometry":{"type":"Point","coordinates":[1066.0,360.0]}},{"type":"Feature","properties":{"id":"LM_HR_SCHOOL","name":"Hollow Ridge School","kind":"civic","settlement":"hollow_ridge","size_px":[21.0,13.0],"rotation_deg":22.0,"building":true},"geometry":{"type":"Point","coordinates":[1076.0,250.0]}},{"type":"Feature","properties":{"id":"LM_HR_DEPOT","name":"Hollow Ridge Depot","kind":"poi","settlement":"hollow_ridge"},"geometry":{"type":"Point","coordinates":[1060.0,392.0]}},{"type":"Feature","properties":{"id":"LM_HR_FALLS","name":"Hollow Falls","kind":"waterfall","settlement":"hollow_ridge"},"geometry":{"type":"Point","coordinates":[1128.0,262.0]}},{"type":"Feature","properties":{"id":"LM_FALLS_CREEK_CASCADES","name":"Falls Creek Cascades","kind":"waterfall"},"geometry":{"type":"Point","coordinates":[1043.0,60.0]}},{"type":"Feature","properties":{"id":"LM_SOUTH_FORK_GORGE","name":"South Fork Gorge","kind":"natural"},"geometry":{"type":"Point","coordinates":[955.0,540.0]}},{"type":"Feature","properties":{"id":"LM_PICKENS_FARM","name":"Pickens Farm","kind":"farm"},"geometry":{"type":"Point","coordinates":[790.0,130.0]}},{"type":"Feature","properties":{"id":"LM_DOCKERY_FARM","name":"Dockery Farm","kind":"farm"},"geometry":{"type":"Point","coordinates":[945.0,630.0]}},{"type":"Feature","properties":{"id":"LM_LAUREL_GAP","name":"Laurel Gap","kind":"pass"},"geometry":{"type":"Point","coordinates":[848.0,380.0]}},{"type":"Feature","properties":{"id":"LM_STONY_KNOB","name":"Stony Knob","kind":"summit"},"geometry":{"type":"Point","coordinates":[1200.0,110.0]}},{"type":"Feature","properties":{"id":"LM_BALD_RIDGE","name":"Bald Ridge","kind":"summit"},"geometry":{"type":"Point","coordinates":[820.0,290.0]}},{"type":"Feature","properties":{"id":"LM_HEMLOCK_MTN","name":"Hemlock Mountain","kind":"summit"},"geometry":{"type":"Point","coordinates":[1450.0,530.0]}},{"type":"Feature","properties":{"id":"LM_LC_YARD","name":"Laurel City Rail Yard","kind":"rail_yard"},"geometry":{"type":"Point","coordinates":[95.0,410.0]}},{"type":"Feature","properties":{"id":"LM_TV_YARD","name":"Tannersville Rail Yard","kind":"rail_yard"},"geometry":{"type":"Point","coordinates":[1840.0,480.0]}},{"type":"Feature","properties":{"id":"LM_SR400_INTERCHANGE","name":"SR 400 / US 19 Interchange","kind":"interchange"},"geometry":{"type":"Point","coordinates":[300.0,395.0]}},{"type":"Feature","properties":{"id":"LM_US76_INTERCHANGE","name":"US 76 / SR 60 Interchange","kind":"interchange"},"geometry":{"type":"Point","coordinates":[1872.0,158.0]}}]}
