{"type":"FeatureCollection","name":"water_bodies","crs_note":"coordinates are source-image pixels of assets/maps/source/base_map.webp (x right, y down); see docs/COORDINATES.md","features":[{"type":"Feature","properties":{"id":"WTR_B001","kind":"river_channel","waterway":"WTR_R06","area_px":31565.2},"geometry":{"type":"Polygon","coordinates":[[[1393.04,131.96],[1392.7,137.54],[1394.19,142.79],[1398.96,150.68],[1402.18,154.89],[1405.59,158.34],[1405.88,159.62],[1412.74,162.87],[1416.71,164.13],[1417.63,165.62],[1420.34,164.92],[1423.34,166.15],[1423.99,166.65],[1425.88,171.12],[1426.62,171.12],[1429.23,168.76],[1433.78,170.41],[1436.38,173.62],[1438.86,174.87],[1441.07,174.88],[1442.38,175.62],[1445.74,175.19],[1447.64,176.14],[1451.38,179.37],[1467.37,181.69],[1469.13,182.87],[1471.1,182.41],[1476.8,183.25],[1479.41,184.26],[1479.38,186.12],[1479.88,186.62],[1481.82,185.24],[1492.66,189.5],[1496.09,189.84],[1501.95,189.33],[1503.85,191.35],[1504.38,192.62],[1505.88,193.87],[1507.62,193.62],[1510.44,191.3],[1511.94,192.09],[1513.36,193.53],[1513.9,194.94],[1513.07,203.61],[1513.09,214.75],[1513.71,219.16],[1515.07,222.51],[1518.52,226.98],[1525.89,234.15],[1528.76,236.18],[1536.33,240.24],[1544.95,248.28],[1550.08,252.4],[1551.06,254.77],[1550.13,256.13],[1550.13,259.12],[1551.73,265.42],[1553.69,268.8],[1557.91,274.34],[1559.98,279.22],[1562.48,282.75],[1568.01,286.45],[1570.38,290.62],[1572.38,292.62],[1575.12,292.87],[1576.5,292.36],[1579.77,294.9],[1585.81,300.8],[1590.82,303.45],[1593.39,305.63],[1595.89,306.88],[1599.62,306.87],[1600.23,306.01],[1600.95,305.94],[1605.84,307.58],[1609.11,309.35],[1610.07,310.16],[1610.28,311.02],[1606.38,314.63],[1606.38,315.37],[1609.62,317.13],[1612.88,319.87],[1616.62,320.19],[1619.38,323.62],[1622.69,324.23],[1625.39,327.63],[1627.38,328.62],[1630.3,328.99],[1634.38,333.62],[1637.62,335.13],[1640.38,338.12],[1643.84,336.69],[1644.43,337.8],[1642.63,340.13],[1642.63,341.12],[1645.62,341.37],[1648.67,339.56],[1650.38,341.12],[1652.75,341.24],[1657.88,345.87],[1659.15,345.9],[1660.89,346.88],[1662.12,346.87],[1663.91,345.89],[1666.14,345.92],[1667.89,347.41],[1669.89,350.88],[1671.88,351.87],[1673.2,351.92],[1676.38,353.62],[1679.76,353.31],[1680.58,354.36],[1681.07,356.63],[1680.63,358.87],[1681.37,358.62],[1681.96,356.55],[1683.78,355.41],[1684.88,355.87],[1687.18,355.9],[1691.88,357.87],[1694.15,357.9],[1695.88,358.87],[1700.12,358.87],[1701.85,357.9],[1703.09,357.89],[1704.88,358.87],[1706.63,359.18],[1708.38,361.12],[1709.12,361.12],[1712.33,359.17],[1713.49,359.14],[1715.8,361.32],[1716.13,363.12],[1717.38,364.62],[1719.12,364.89],[1720.88,365.87],[1725.03,365.88],[1726.88,366.87],[1728.12,366.87],[1732.25,363.24],[1733.5,363.14],[1737.38,366.62],[1742.19,367.94],[1745.38,370.37],[1750.62,369.42],[1754.63,371.87],[1755.37,371.87],[1755.87,368.63],[1754.57,366.28],[1756.62,364.48],[1760.12,365.96],[1760.1,367.11],[1758.98,368.49],[1757.38,369.13],[1760.87,372.87],[1762.88,373.87],[1764.2,373.92],[1767.88,375.87],[1779.06,375.89],[1781.38,377.37],[1782.9,377.4],[1785.88,378.87],[1788.07,378.88],[1789.38,379.62],[1790.62,379.62],[1793.64,378.48],[1796.38,380.62],[1798.87,380.41],[1801.88,382.12],[1802.87,381.62],[1803.17,380.37],[1804.23,379.56],[1806.37,380.87],[1806.62,380.62],[1806.88,370.97],[1807.87,369.12],[1807.88,361.97],[1808.87,360.12],[1808.95,358.32],[1811.93,356.53],[1814.65,356.17],[1815.25,356.85],[1814.92,360.11],[1815.13,366.12],[1815.56,367.53],[1814.12,369.89],[1814.12,386.11],[1814.88,387.12],[1815.62,387.37],[1817.83,385.92],[1818.98,385.88],[1821.38,387.62],[1822.62,387.62],[1824.39,386.15],[1826.03,385.91],[1829.38,388.62],[1831.12,388.87],[1834.26,386.23],[1835.49,386.14],[1840.88,391.87],[1844.15,391.9],[1851.88,394.87],[1854.15,394.9],[1855.88,395.87],[1858.64,395.44],[1861.38,397.62],[1865.88,399.87],[1870.04,399.88],[1871.13,400.37],[1873.55,400.16],[1875.38,401.62],[1880.38,403.62],[1881.62,403.62],[1884.33,401.18],[1886.0,400.9],[1890.59,403.11],[1892.83,405.34],[1893.38,407.37],[1895.59,408.12],[1896.84,409.34],[1898.38,412.63],[1900.38,414.62],[1901.68,415.19],[1903.38,417.12],[1905.01,417.51],[1906.57,419.09],[1906.88,420.62],[1908.59,421.13],[1909.8,422.34],[1909.85,423.62],[1909.13,424.88],[1909.13,428.12],[1911.35,431.35],[1911.63,433.62],[1912.84,435.44],[1912.38,438.62],[1913.87,440.54],[1913.8,441.69],[1912.38,443.38],[1912.38,444.62],[1918.85,450.36],[1920.8,453.27],[1920.83,454.64],[1919.38,456.38],[1919.38,457.62],[1920.38,459.62],[1924.63,464.62],[1927.12,464.89],[1930.1,466.14],[1933.7,470.79],[1941.31,478.47],[1942.61,480.47],[1942.38,484.62],[1947.85,490.35],[1949.06,492.75],[1949.11,496.09],[1947.92,498.54],[1946.62,499.86],[1945.38,500.38],[1944.13,501.88],[1944.13,503.12],[1945.12,504.97],[1945.13,510.12],[1947.1,513.0],[1946.82,514.67],[1944.38,517.38],[1944.38,518.62],[1950.38,523.62],[1951.64,524.16],[1953.63,526.62],[1955.69,527.19],[1960.38,531.62],[1962.87,532.37],[1962.87,531.63],[1961.12,529.4],[1961.2,528.31],[1962.62,526.62],[1962.87,524.88],[1962.12,523.88],[1959.87,523.33],[1958.89,522.03],[1958.9,520.85],[1959.87,519.12],[1959.39,513.16],[1960.15,511.36],[1961.81,509.95],[1965.15,509.9],[1974.4,514.59],[1983.59,515.78],[1985.74,516.96],[1991.07,521.33],[1995.16,525.58],[1996.82,536.21],[1997.45,536.95],[1999.25,537.48],[2000.95,536.57],[2001.48,534.73],[1999.88,519.58],[1999.87,510.13],[1998.29,509.79],[1994.62,506.38],[1992.32,505.79],[1991.38,504.59],[1991.12,502.88],[1989.62,501.38],[1987.64,500.38],[1986.38,500.38],[1983.73,502.36],[1983.05,502.32],[1979.12,498.13],[1976.62,496.63],[1974.67,496.38],[1973.05,494.12],[1973.29,493.51],[1974.37,493.12],[1973.87,492.13],[1972.12,491.13],[1970.32,490.79],[1967.87,488.13],[1967.13,488.09],[1963.37,484.75],[1963.3,484.15],[1964.37,482.62],[1963.62,480.38],[1962.62,479.63],[1961.1,479.56],[1958.66,475.19],[1959.37,474.12],[1959.39,469.19],[1960.37,467.62],[1959.87,465.13],[1959.12,464.13],[1957.12,463.13],[1955.88,463.13],[1954.09,464.1],[1952.37,463.83],[1951.11,462.6],[1948.37,457.88],[1946.31,458.5],[1944.02,456.44],[1943.78,454.89],[1944.37,453.87],[1944.12,450.38],[1942.6,448.77],[1941.37,443.13],[1940.48,441.73],[1941.12,439.88],[1939.2,439.49],[1934.47,434.2],[1933.47,432.34],[1932.72,422.19],[1934.89,412.69],[1935.36,412.27],[1940.13,413.87],[1951.93,414.62],[1953.38,415.37],[1955.12,415.02],[1960.67,416.13],[1968.87,423.02],[1975.53,427.74],[1977.26,429.61],[1977.13,431.12],[1978.38,433.62],[1979.38,434.62],[1981.12,434.87],[1982.28,434.5],[1986.8,437.21],[1990.17,438.41],[1990.85,439.38],[1990.87,440.53],[1989.88,442.37],[1990.64,442.88],[1993.87,442.87],[1996.89,439.65],[1997.9,439.39],[1999.87,439.87],[2000.25,439.07],[2004.2,437.9],[2007.59,435.16],[2009.68,431.31],[2010.14,426.99],[2008.9,422.8],[2006.16,419.41],[2002.33,417.32],[1999.98,416.85],[1999.87,408.13],[1998.83,408.08],[1996.62,406.63],[1995.1,406.6],[1992.12,405.13],[1990.83,405.08],[1988.62,403.63],[1985.38,403.6],[1983.62,402.38],[1982.38,402.38],[1981.07,403.12],[1978.86,403.08],[1975.62,400.38],[1972.29,399.79],[1967.12,395.13],[1961.91,395.11],[1959.41,393.89],[1956.62,391.09],[1956.43,390.28],[1957.12,388.63],[1956.37,388.13],[1954.88,388.13],[1951.15,390.11],[1948.47,390.58],[1945.12,388.13],[1942.88,388.11],[1940.63,387.13],[1939.88,387.63],[1939.8,389.66],[1938.61,390.83],[1935.48,390.86],[1933.81,389.99],[1932.56,388.56],[1934.37,386.12],[1934.12,384.63],[1930.88,385.11],[1927.89,384.35],[1926.42,382.64],[1926.37,380.88],[1925.04,380.55],[1921.62,377.38],[1920.32,376.81],[1918.62,374.88],[1916.92,374.77],[1915.9,373.38],[1916.38,372.2],[1918.37,372.12],[1917.62,369.38],[1914.87,365.38],[1912.18,366.43],[1910.14,363.59],[1910.2,362.34],[1911.27,361.23],[1913.12,360.62],[1913.37,358.38],[1912.37,357.63],[1910.31,358.47],[1909.4,357.61],[1909.12,356.38],[1906.12,355.13],[1903.76,355.06],[1901.52,352.78],[1900.95,351.5],[1901.55,350.88],[1903.88,351.87],[1909.37,351.87],[1910.12,351.37],[1908.14,348.55],[1908.15,347.38],[1908.87,346.12],[1908.2,342.5],[1909.35,341.41],[1911.12,341.12],[1911.87,340.12],[1912.12,338.38],[1909.13,335.62],[1907.94,333.25],[1907.88,329.5],[1912.39,323.81],[1914.87,319.12],[1915.5,314.19],[1915.38,307.98],[1916.08,306.46],[1918.47,304.13],[1921.06,303.89],[1922.38,304.62],[1923.37,304.62],[1923.87,303.87],[1924.17,301.36],[1926.27,299.24],[1929.12,298.87],[1931.62,297.37],[1932.15,290.42],[1936.17,286.92],[1943.81,286.24],[1946.02,286.34],[1947.59,287.11],[1948.6,288.14],[1948.88,289.37],[1951.23,289.75],[1956.88,296.12],[1960.77,296.31],[1961.51,297.39],[1960.63,299.38],[1961.13,300.87],[1962.92,301.42],[1965.38,303.37],[1967.87,302.63],[1968.49,303.43],[1967.88,304.88],[1968.13,305.62],[1970.12,305.87],[1973.59,303.12],[1974.69,303.2],[1977.38,305.37],[1979.62,305.37],[1980.37,304.62],[1980.77,302.76],[1981.86,301.92],[1983.17,301.92],[1990.64,307.16],[1993.38,310.62],[1994.67,311.17],[1999.38,315.62],[1999.87,315.62],[1999.87,296.38],[1998.88,297.38],[1997.63,300.13],[1997.8,302.63],[1996.38,303.88],[1995.23,303.71],[1991.12,298.88],[1989.36,298.6],[1987.12,297.13],[1985.88,297.13],[1984.09,298.11],[1981.88,298.13],[1980.46,298.88],[1979.3,298.83],[1976.87,297.63],[1975.04,298.12],[1966.48,297.84],[1965.13,296.44],[1965.18,295.33],[1966.37,293.62],[1966.12,292.88],[1964.31,291.81],[1959.88,286.89],[1959.89,284.98],[1960.3,284.4],[1968.92,280.36],[1977.14,280.67],[1979.88,282.87],[1982.87,282.87],[1983.62,282.37],[1983.68,280.08],[1984.88,279.67],[1986.37,280.37],[1987.37,279.62],[1987.37,278.36],[1992.36,275.38],[1994.85,275.41],[1996.1,276.89],[1996.38,279.37],[1997.62,279.62],[1999.87,278.12],[1999.94,275.51],[2001.52,274.41],[2002.25,273.25],[2002.19,270.6],[1999.87,268.13],[1997.88,268.13],[1995.44,268.87],[1991.63,268.88],[1990.8,270.33],[1984.05,274.49],[1981.03,275.53],[1969.89,275.12],[1961.54,275.86],[1960.12,275.13],[1953.88,275.13],[1952.1,276.57],[1943.58,278.68],[1939.5,278.63],[1932.0,277.39],[1930.43,275.91],[1930.12,274.63],[1927.35,274.34],[1924.12,272.13],[1922.38,272.38],[1921.13,273.88],[1921.11,276.09],[1920.13,277.88],[1920.13,279.12],[1921.11,280.91],[1921.1,282.63],[1918.04,288.59],[1914.64,292.61],[1913.13,292.63],[1911.38,293.63],[1911.53,295.59],[1907.97,298.73],[1905.04,303.24],[1902.74,305.75],[1900.13,306.13],[1899.13,307.13],[1899.13,312.12],[1900.35,314.35],[1900.58,315.98],[1899.88,317.59],[1898.79,318.46],[1895.88,317.63],[1895.85,319.62],[1894.63,321.38],[1894.92,324.14],[1892.86,327.33],[1891.45,331.19],[1890.96,335.34],[1891.13,339.12],[1892.74,347.62],[1894.31,352.86],[1893.38,353.63],[1895.6,355.06],[1899.45,359.64],[1901.07,366.11],[1901.02,369.73],[1899.76,372.39],[1898.25,374.2],[1884.13,373.5],[1879.35,372.59],[1874.4,369.89],[1872.87,368.38],[1871.75,368.36],[1864.98,365.16],[1855.13,362.25],[1841.44,359.87],[1837.12,357.13],[1834.08,357.11],[1827.6,354.99],[1824.12,352.13],[1820.67,352.13],[1816.5,350.9],[1807.82,350.93],[1796.32,347.94],[1795.12,347.13],[1792.23,347.36],[1783.91,346.5],[1778.67,346.88],[1777.14,346.38],[1775.16,347.5],[1768.44,343.9],[1766.87,341.88],[1765.63,341.13],[1764.88,341.63],[1765.1,346.15],[1763.38,350.38],[1763.86,352.52],[1763.66,354.87],[1760.64,356.33],[1759.2,355.59],[1758.06,353.74],[1758.42,351.36],[1759.62,349.87],[1759.62,349.13],[1758.5,347.61],[1759.37,345.87],[1759.37,344.88],[1758.07,344.55],[1756.62,342.88],[1754.09,343.6],[1747.88,342.13],[1746.75,342.64],[1735.33,339.39],[1723.67,338.16],[1723.2,337.52],[1723.87,336.38],[1722.12,335.13],[1719.13,335.38],[1719.02,336.9],[1718.36,337.25],[1712.04,334.27],[1702.63,332.31],[1691.93,328.12],[1680.62,325.47],[1680.12,324.63],[1678.07,325.08],[1672.91,324.12],[1670.12,322.13],[1666.63,322.38],[1665.07,325.34],[1664.4,325.59],[1663.23,323.13],[1665.87,319.37],[1665.87,318.63],[1663.38,318.88],[1662.03,320.39],[1661.41,320.46],[1657.22,316.72],[1656.62,315.13],[1653.4,313.88],[1651.12,312.13],[1649.46,312.1],[1642.45,309.91],[1639.62,307.38],[1634.41,304.88],[1632.37,302.38],[1630.3,302.5],[1628.37,300.38],[1624.13,299.13],[1620.99,302.63],[1615.08,303.74],[1611.86,303.52],[1608.85,302.17],[1607.55,300.67],[1607.55,300.07],[1611.64,296.86],[1613.62,294.62],[1613.62,293.63],[1607.88,288.62],[1604.62,284.38],[1601.31,284.78],[1599.12,282.88],[1596.82,282.3],[1594.37,279.38],[1592.48,279.58],[1591.52,278.75],[1592.62,270.38],[1587.38,266.12],[1584.66,263.14],[1584.39,262.1],[1584.87,259.88],[1583.9,258.15],[1583.87,257.13],[1579.92,253.11],[1579.87,251.88],[1577.9,247.15],[1578.12,243.63],[1577.64,243.14],[1573.88,243.13],[1572.62,243.85],[1571.54,243.86],[1570.44,242.58],[1570.87,240.63],[1567.89,241.12],[1557.25,246.07],[1555.88,246.13],[1552.28,247.71],[1539.33,236.23],[1531.27,231.86],[1528.42,229.73],[1520.96,222.21],[1518.57,217.98],[1518.02,212.62],[1518.3,201.02],[1518.8,198.54],[1520.12,196.13],[1521.96,195.88],[1526.38,199.62],[1529.11,199.9],[1532.39,202.63],[1534.88,203.87],[1537.65,204.2],[1541.38,208.62],[1543.66,209.18],[1547.79,213.31],[1548.13,217.12],[1552.08,221.86],[1552.13,226.12],[1554.11,229.91],[1554.11,233.09],[1553.13,234.88],[1553.08,236.14],[1550.63,239.38],[1550.88,240.12],[1552.38,241.37],[1555.82,239.9],[1557.12,239.87],[1562.85,236.89],[1567.12,235.87],[1572.8,232.92],[1574.12,232.87],[1578.12,230.62],[1577.87,227.88],[1576.13,225.48],[1576.15,224.38],[1576.87,223.12],[1576.87,217.88],[1575.12,216.13],[1571.4,215.83],[1569.9,214.08],[1569.9,211.88],[1571.37,209.62],[1570.88,208.1],[1570.62,203.38],[1568.12,201.13],[1565.85,201.1],[1562.12,199.13],[1560.27,198.77],[1558.15,196.61],[1557.62,193.38],[1554.12,189.88],[1546.86,190.08],[1540.62,185.38],[1537.83,185.08],[1535.62,183.38],[1533.31,182.82],[1530.62,180.63],[1528.36,181.52],[1525.62,179.38],[1524.39,179.38],[1522.03,181.11],[1516.98,181.11],[1513.62,178.38],[1512.38,178.38],[1510.98,179.07],[1506.72,178.11],[1504.62,176.38],[1500.47,176.61],[1498.62,175.38],[1495.4,175.81],[1494.17,174.63],[1493.91,173.09],[1496.62,169.62],[1497.26,166.27],[1499.87,164.12],[1502.94,160.31],[1506.54,158.12],[1511.54,153.31],[1515.6,154.17],[1518.38,157.62],[1520.62,158.37],[1521.37,157.37],[1519.18,153.72],[1519.17,152.3],[1519.79,151.47],[1523.79,150.96],[1532.17,152.02],[1536.06,153.11],[1536.88,153.87],[1538.36,153.89],[1544.51,155.79],[1554.33,157.12],[1558.67,160.17],[1563.88,165.12],[1569.71,165.24],[1572.06,167.84],[1572.13,170.62],[1572.61,171.11],[1576.72,171.25],[1578.08,172.86],[1579.38,177.63],[1582.38,180.62],[1585.14,180.92],[1587.79,183.32],[1589.13,187.12],[1591.86,189.38],[1593.06,191.75],[1593.13,195.12],[1594.13,197.12],[1595.13,197.87],[1597.16,197.95],[1598.55,199.37],[1598.38,201.62],[1601.1,207.82],[1601.13,211.12],[1602.56,213.41],[1602.27,214.2],[1600.38,215.63],[1600.38,217.62],[1601.63,218.37],[1603.76,217.49],[1604.39,217.98],[1604.88,219.62],[1606.37,219.62],[1606.62,218.38],[1606.14,217.56],[1606.23,216.29],[1607.41,215.14],[1609.93,214.53],[1614.14,218.06],[1615.84,218.46],[1617.56,218.18],[1619.04,217.27],[1620.06,215.86],[1620.46,214.15],[1619.25,210.67],[1620.88,207.11],[1620.62,204.88],[1619.0,204.02],[1618.87,188.37],[1616.59,182.52],[1616.87,180.13],[1616.12,179.13],[1614.1,178.47],[1611.01,174.05],[1610.3,166.67],[1608.05,162.07],[1608.87,160.88],[1606.16,158.64],[1605.62,157.38],[1603.15,154.89],[1602.12,153.13],[1599.62,151.38],[1598.63,151.38],[1595.25,155.0],[1592.85,155.42],[1586.73,150.81],[1583.36,146.85],[1583.37,145.38],[1582.62,144.38],[1580.49,144.28],[1575.59,142.05],[1568.73,141.01],[1567.12,140.13],[1565.39,139.85],[1560.12,135.13],[1558.88,135.13],[1556.57,136.9],[1554.65,137.85],[1553.59,137.87],[1551.95,136.19],[1551.87,134.13],[1551.37,133.38],[1548.47,133.85],[1547.12,133.13],[1544.88,133.13],[1543.62,133.85],[1542.13,133.87],[1539.12,133.13],[1536.85,133.1],[1533.87,131.63],[1532.1,132.12],[1526.97,132.11],[1524.62,130.38],[1523.39,130.38],[1522.12,131.11],[1520.38,131.38],[1518.14,133.08],[1515.88,133.13],[1512.2,135.08],[1510.88,135.13],[1509.15,136.1],[1506.88,136.13],[1501.2,139.08],[1499.88,139.13],[1498.15,140.1],[1496.88,140.13],[1495.53,140.85],[1492.38,140.38],[1488.38,145.38],[1488.08,147.17],[1486.48,148.96],[1483.7,150.57],[1481.38,150.38],[1479.93,151.62],[1473.47,153.34],[1467.17,157.09],[1465.38,157.38],[1463.14,159.08],[1454.41,158.86],[1450.12,157.13],[1445.65,156.93],[1443.12,155.13],[1440.88,155.12],[1437.74,154.23],[1436.11,152.59],[1434.9,150.15],[1434.87,148.88],[1433.62,147.38],[1429.12,145.13],[1427.42,144.85],[1425.98,143.25],[1425.87,139.88],[1424.88,138.03],[1424.87,133.88],[1421.13,129.46],[1421.18,128.26],[1424.87,120.12],[1425.17,116.36],[1429.62,111.62],[1430.15,109.39],[1431.8,107.71],[1432.93,107.4],[1436.13,108.37],[1437.12,108.12],[1438.87,105.12],[1438.94,103.78],[1440.9,100.66],[1445.12,100.87],[1448.81,97.7],[1451.37,97.62],[1454.43,94.17],[1455.66,94.19],[1458.38,96.62],[1459.87,96.87],[1460.87,95.87],[1460.92,92.86],[1462.38,91.13],[1464.52,90.12],[1465.62,90.15],[1466.88,90.87],[1469.87,90.87],[1470.87,90.12],[1472.13,87.38],[1473.45,86.15],[1474.71,86.23],[1476.79,88.29],[1477.38,90.62],[1478.38,91.62],[1479.62,91.62],[1481.87,89.12],[1481.89,86.91],[1482.87,85.12],[1482.9,81.92],[1484.43,80.17],[1485.75,80.24],[1489.88,83.87],[1496.12,83.87],[1497.88,82.89],[1499.62,82.62],[1502.36,80.15],[1504.77,78.93],[1507.62,78.62],[1510.29,76.24],[1513.87,76.87],[1515.93,74.63],[1518.49,73.85],[1519.37,73.83],[1521.88,75.87],[1524.12,75.87],[1528.98,71.98],[1533.77,70.9],[1535.38,71.62],[1539.12,70.87],[1540.38,70.18],[1542.34,70.08],[1544.62,71.37],[1546.85,69.76],[1548.01,69.51],[1553.62,70.62],[1554.37,69.62],[1554.7,67.82],[1558.33,64.56],[1560.07,65.6],[1560.87,67.37],[1560.97,65.54],[1564.12,62.12],[1563.62,61.13],[1560.35,60.73],[1559.92,60.12],[1563.61,53.27],[1564.74,48.75],[1565.06,19.5],[1565.79,13.01],[1566.87,10.87],[1567.42,8.0],[1569.31,5.72],[1572.68,3.89],[1575.14,3.87],[1579.12,1.87],[1579.87,0.87],[1579.87,0.13],[1577.88,0.06],[1577.13,-1.17],[1575.34,-2.19],[1573.32,-1.85],[1568.38,0.13],[1563.8,4.07],[1562.17,2.64],[1561.87,0.13],[1557.38,0.13],[1558.38,2.64],[1562.23,7.27],[1560.9,11.99],[1560.16,17.29],[1559.87,47.19],[1558.66,52.12],[1553.48,60.35],[1551.57,61.44],[1547.64,62.64],[1538.87,63.06],[1537.86,62.63],[1533.88,63.13],[1532.44,63.86],[1526.81,64.91],[1512.33,66.72],[1496.49,64.75],[1479.26,65.01],[1475.88,66.13],[1467.05,70.42],[1453.2,72.57],[1443.05,75.13],[1439.13,76.56],[1421.28,88.43],[1413.38,91.57],[1399.84,105.16],[1397.4,108.88],[1396.12,112.27],[1393.04,131.96]],[[1600.56,157.26],[1600.28,156.38],[1601.69,155.45],[1603.18,157.31],[1602.56,157.88],[1600.56,157.26]]]}},{"type":"Feature","properties":{"id":"WTR_B002","kind":"river_channel","waterway":"WTR_R01","area_px":21831.6},"geometry":{"type":"Polygon","coordinates":[[[171.13,1.65],[171.9,4.24],[173.6,6.32],[176.4,7.78],[177.38,9.62],[179.88,11.87],[182.73,12.24],[183.88,13.41],[184.63,15.62],[188.59,17.12],[191.13,19.87],[193.15,19.9],[197.88,22.04],[202.03,25.03],[203.38,26.62],[206.75,28.08],[214.01,34.96],[215.63,37.62],[219.71,37.99],[222.92,39.87],[224.53,41.63],[226.39,46.11],[228.9,49.62],[230.81,51.29],[231.55,53.55],[230.61,54.85],[228.38,55.63],[229.59,57.42],[229.38,59.62],[229.86,60.44],[229.78,61.74],[226.65,65.8],[224.88,66.13],[222.38,67.63],[222.38,68.62],[223.12,69.93],[223.12,73.03],[222.13,74.88],[221.63,78.62],[222.38,79.62],[224.71,80.22],[229.38,85.12],[234.15,84.9],[240.12,87.37],[242.79,85.92],[244.06,85.89],[249.38,89.37],[252.12,88.87],[254.94,87.47],[258.39,89.38],[260.88,89.87],[266.05,89.89],[268.88,91.87],[273.58,92.15],[275.83,94.33],[278.12,97.62],[280.88,99.87],[287.03,99.88],[288.88,100.87],[291.55,100.42],[293.38,101.62],[296.18,101.12],[297.12,102.16],[296.63,103.62],[298.1,105.86],[298.38,107.62],[300.38,109.62],[305.65,112.15],[307.81,114.31],[308.87,116.38],[309.13,118.87],[310.62,119.12],[312.5,117.08],[313.21,117.01],[320.01,121.76],[320.6,123.19],[320.13,125.37],[323.15,124.42],[325.62,125.37],[326.66,124.78],[334.36,126.2],[335.83,127.4],[336.13,131.12],[337.38,132.37],[341.03,131.9],[342.38,132.62],[343.62,132.62],[348.3,130.17],[349.58,130.15],[352.88,132.87],[355.51,132.9],[361.17,136.28],[367.63,137.92],[369.38,139.62],[371.64,140.15],[374.38,142.37],[378.14,142.67],[381.71,145.21],[382.6,146.14],[382.88,147.37],[385.62,147.15],[388.88,148.87],[391.09,148.89],[393.38,150.12],[396.14,150.71],[398.63,154.62],[400.47,154.63],[402.95,157.34],[404.63,160.62],[406.17,160.9],[407.27,161.9],[416.25,172.94],[418.58,176.92],[420.35,181.68],[420.38,183.12],[420.97,183.44],[421.39,184.63],[421.68,189.48],[420.38,191.38],[420.38,192.62],[421.03,193.68],[418.6,201.81],[418.33,207.19],[417.38,208.38],[415.88,213.56],[413.38,215.63],[413.13,219.12],[415.12,223.94],[415.1,225.15],[414.13,226.88],[414.13,230.12],[418.82,235.34],[419.38,238.62],[423.9,242.43],[425.11,244.85],[425.38,246.62],[427.38,248.62],[431.12,248.9],[433.88,250.87],[435.12,250.87],[436.91,249.9],[438.73,250.24],[442.08,253.89],[442.13,256.12],[443.63,258.46],[444.13,263.14],[445.38,264.62],[448.18,264.9],[452.65,267.15],[454.78,269.29],[455.13,270.87],[456.13,271.87],[457.62,271.62],[459.83,269.94],[461.53,270.12],[463.8,272.32],[464.13,274.12],[465.38,275.37],[469.33,272.67],[471.11,272.67],[473.85,275.36],[475.63,278.62],[478.15,278.89],[481.47,280.24],[485.12,283.0],[487.38,287.62],[488.88,289.12],[492.72,289.26],[493.56,290.42],[493.13,292.37],[496.12,291.92],[498.38,293.37],[500.88,291.59],[501.57,291.64],[502.6,293.79],[502.13,295.37],[503.16,295.64],[506.38,301.62],[508.38,303.62],[509.68,304.2],[511.63,306.62],[512.62,306.62],[514.79,305.38],[522.6,306.68],[523.63,308.12],[525.73,307.47],[527.13,308.37],[528.74,308.48],[532.88,311.87],[535.72,311.25],[538.43,313.73],[539.8,316.42],[539.41,317.21],[536.64,317.55],[526.79,317.32],[525.19,317.69],[522.94,319.08],[520.88,319.13],[519.09,320.11],[513.88,320.13],[512.03,321.12],[505.88,321.13],[504.09,322.11],[501.38,322.13],[500.88,322.63],[500.88,325.37],[503.38,326.62],[504.62,326.62],[505.93,325.88],[507.99,325.89],[509.37,327.19],[507.66,329.82],[505.38,330.63],[505.13,334.12],[506.11,335.88],[506.38,338.62],[510.85,343.36],[512.08,345.8],[512.13,350.87],[512.63,351.62],[514.12,351.87],[516.75,350.56],[519.76,353.28],[520.13,354.87],[521.13,355.87],[522.12,355.87],[526.32,354.15],[527.59,354.14],[529.64,355.15],[532.38,357.62],[534.88,358.87],[536.12,358.87],[538.31,357.19],[539.51,357.15],[543.74,361.28],[543.85,362.65],[542.63,364.87],[544.66,364.47],[546.83,366.37],[547.13,368.12],[549.86,372.44],[549.85,373.62],[549.13,374.88],[549.13,377.62],[551.86,379.58],[551.83,380.61],[551.21,381.27],[548.63,381.38],[548.14,381.86],[546.38,385.38],[546.38,386.62],[548.38,388.62],[550.12,388.87],[554.91,386.89],[558.62,387.37],[561.81,384.94],[563.97,384.88],[568.88,388.87],[571.12,388.87],[572.91,387.9],[574.67,388.18],[581.88,394.87],[584.12,394.87],[586.03,393.36],[586.78,393.51],[587.81,399.76],[586.63,401.38],[587.53,403.83],[586.13,405.63],[586.13,406.37],[587.97,405.82],[588.32,408.44],[585.38,412.38],[585.13,416.12],[588.11,420.91],[588.38,426.62],[591.17,430.38],[591.88,437.6],[591.79,442.92],[591.1,444.74],[589.64,446.41],[585.18,448.55],[583.61,449.9],[581.31,456.42],[578.82,459.25],[577.38,459.38],[575.65,460.85],[573.84,461.63],[569.02,462.11],[567.62,461.38],[566.38,461.38],[563.89,463.86],[563.35,466.11],[561.12,468.14],[560.63,470.62],[561.91,472.88],[556.14,479.1],[553.87,479.61],[552.41,479.37],[547.62,475.38],[546.38,475.38],[544.4,476.44],[542.37,474.38],[539.98,476.12],[536.94,476.11],[535.12,474.88],[534.38,474.88],[533.11,476.35],[531.38,476.88],[530.85,478.61],[529.73,479.51],[527.38,478.88],[525.38,480.62],[523.13,480.62],[520.38,479.63],[517.88,481.13],[517.38,481.63],[517.38,482.62],[518.85,484.39],[519.09,485.99],[517.38,488.38],[516.86,490.58],[514.64,492.35],[511.88,492.88],[510.87,494.62],[507.88,497.13],[506.16,499.31],[504.38,499.88],[504.12,502.12],[502.63,505.13],[502.86,507.59],[502.13,509.37],[502.63,510.12],[507.77,510.29],[509.07,511.92],[508.63,514.62],[509.38,515.37],[511.69,515.22],[513.79,517.31],[514.13,521.12],[514.88,522.12],[518.71,522.23],[520.38,524.62],[523.38,527.62],[524.62,527.62],[526.89,525.93],[528.63,526.17],[529.83,527.37],[530.13,529.12],[530.88,530.12],[535.61,531.15],[540.38,535.62],[541.67,536.17],[543.89,538.4],[546.38,542.63],[549.38,545.62],[551.71,546.21],[555.89,550.41],[557.11,552.85],[557.38,554.62],[560.1,557.92],[560.13,564.87],[560.88,565.87],[564.88,567.87],[566.68,568.2],[567.63,569.16],[568.13,570.62],[568.87,570.62],[569.7,568.87],[570.98,568.56],[572.53,570.34],[572.13,572.37],[574.65,571.52],[577.88,574.87],[581.13,576.37],[582.58,576.39],[587.77,582.23],[587.65,582.83],[585.13,585.13],[585.63,586.62],[586.62,586.62],[588.47,585.43],[591.57,586.33],[593.59,591.45],[593.58,596.62],[592.01,601.03],[589.13,601.13],[588.13,602.88],[587.63,605.12],[588.56,607.95],[586.63,611.62],[587.38,612.37],[591.36,612.15],[595.38,619.62],[601.05,625.53],[601.59,628.22],[601.13,630.37],[605.05,629.91],[608.88,632.87],[611.85,632.76],[619.88,638.12],[621.28,638.44],[623.9,640.13],[627.14,643.35],[628.38,645.62],[630.38,647.62],[633.06,647.9],[636.69,649.98],[637.63,651.62],[639.09,651.96],[644.0,656.92],[646.1,661.85],[646.13,664.12],[647.88,666.87],[651.4,666.98],[655.01,671.6],[658.58,674.22],[662.01,674.9],[665.41,674.22],[668.28,672.3],[670.22,669.41],[671.37,665.13],[670.87,663.38],[667.57,658.94],[667.62,657.38],[665.49,654.73],[665.87,653.12],[665.37,650.38],[662.63,652.8],[659.38,652.38],[658.66,652.7],[648.19,648.6],[643.34,644.78],[642.87,644.03],[642.62,641.38],[641.12,640.13],[639.37,639.82],[637.95,638.19],[637.9,636.85],[638.87,635.12],[638.87,632.88],[637.9,631.15],[637.87,629.88],[636.62,628.38],[634.88,628.13],[633.13,629.88],[633.13,633.12],[634.81,635.31],[634.88,636.48],[633.86,638.62],[632.84,639.1],[629.71,637.07],[629.37,634.88],[625.63,634.64],[619.14,630.84],[614.71,626.74],[613.87,625.13],[612.32,624.65],[607.48,620.58],[607.12,618.88],[606.12,617.88],[603.82,617.26],[600.0,612.56],[598.78,609.68],[600.12,607.62],[600.62,604.98],[601.88,603.9],[604.37,603.62],[604.62,602.63],[601.62,600.63],[600.03,601.12],[597.81,600.75],[598.76,595.26],[598.54,590.73],[594.24,578.51],[594.87,577.12],[594.87,574.88],[592.88,570.98],[592.9,569.85],[593.87,568.12],[593.92,562.89],[596.34,560.55],[598.38,561.62],[599.37,561.62],[599.62,560.38],[599.14,559.56],[599.12,557.63],[598.62,557.13],[593.38,557.13],[592.88,557.38],[592.35,559.11],[591.24,560.03],[589.49,559.74],[589.15,556.7],[590.62,555.37],[590.87,554.13],[588.59,551.89],[587.98,547.08],[590.63,543.61],[591.87,541.12],[591.87,540.13],[589.69,538.13],[589.61,535.36],[589.12,534.88],[587.0,534.73],[586.53,534.31],[585.87,519.13],[579.51,513.0],[580.12,510.88],[576.62,506.88],[574.45,507.55],[573.23,506.69],[572.89,504.9],[573.37,503.38],[572.62,502.38],[569.65,501.93],[565.63,496.39],[562.06,493.6],[560.65,490.98],[560.62,488.38],[560.16,487.55],[560.75,485.03],[562.36,482.45],[564.75,479.81],[566.62,479.87],[566.81,477.9],[568.53,476.52],[574.26,473.93],[576.39,473.46],[578.37,474.62],[580.4,472.17],[584.37,471.62],[586.62,468.62],[586.62,465.63],[585.3,464.84],[585.22,464.12],[588.18,460.29],[590.64,460.61],[592.62,458.62],[593.17,456.37],[594.75,454.98],[597.12,454.9],[599.88,456.87],[602.12,456.87],[604.14,455.86],[604.62,455.37],[604.72,452.82],[608.62,449.37],[608.62,448.38],[607.43,446.61],[607.62,445.4],[609.13,442.38],[610.77,440.91],[614.26,440.87],[617.13,443.87],[619.12,443.87],[620.38,443.15],[621.62,443.15],[625.38,445.62],[632.01,446.57],[634.38,448.62],[635.37,448.62],[636.73,447.3],[641.38,448.62],[650.04,448.56],[651.58,448.09],[653.37,448.62],[654.37,446.87],[654.12,445.88],[652.43,445.05],[650.93,443.62],[648.34,443.41],[647.64,442.9],[647.64,442.28],[649.62,439.62],[649.62,438.38],[648.37,436.88],[647.63,437.63],[647.54,438.99],[644.97,442.4],[642.92,441.9],[640.51,440.02],[640.62,438.38],[639.87,436.88],[635.41,434.89],[632.62,432.38],[629.73,431.54],[627.63,428.42],[627.62,427.63],[626.83,427.29],[624.39,424.58],[621.2,422.41],[620.91,420.91],[621.62,419.61],[621.38,415.89],[617.33,415.77],[616.38,414.59],[615.88,412.15],[616.2,409.31],[617.39,408.14],[619.37,407.62],[619.87,406.13],[619.37,405.38],[616.2,405.66],[614.9,404.11],[614.62,401.63],[610.17,397.66],[609.12,395.63],[608.13,394.88],[606.63,399.13],[606.82,401.54],[605.52,402.58],[604.32,402.33],[602.7,401.15],[602.12,398.38],[600.62,396.38],[599.38,396.63],[599.57,398.57],[598.69,399.37],[597.51,398.76],[597.37,397.38],[596.62,396.63],[595.11,396.7],[594.68,394.05],[595.07,390.52],[599.37,386.63],[597.38,385.86],[595.25,383.74],[594.87,378.88],[593.88,376.89],[590.73,375.19],[588.05,369.34],[587.87,364.88],[586.89,363.12],[586.62,361.38],[584.18,358.67],[583.87,356.88],[582.62,354.38],[581.62,353.63],[580.06,353.56],[578.87,352.63],[577.36,352.58],[576.14,351.46],[576.15,350.35],[577.19,348.31],[579.4,346.11],[582.62,344.37],[582.87,342.13],[581.87,341.13],[577.13,341.13],[575.22,343.25],[574.08,343.37],[571.69,340.97],[571.58,340.34],[572.36,339.23],[574.37,339.12],[574.37,338.13],[572.89,336.03],[572.87,331.88],[570.62,329.38],[568.87,328.63],[567.36,328.58],[566.14,327.62],[564.88,325.04],[564.9,323.85],[565.87,321.87],[565.62,321.13],[564.88,320.88],[563.59,321.57],[562.8,321.28],[561.92,320.11],[562.12,317.63],[561.62,317.13],[557.93,317.12],[556.61,316.38],[555.38,316.38],[553.96,317.12],[546.03,317.12],[545.47,316.74],[544.86,310.57],[545.99,309.88],[550.12,309.87],[551.87,308.87],[552.12,307.88],[551.17,306.64],[551.2,305.34],[552.41,304.12],[555.37,303.12],[555.37,302.13],[550.12,299.13],[547.13,299.61],[544.44,298.88],[541.62,295.88],[539.37,295.81],[537.62,293.88],[536.88,293.88],[535.59,294.85],[534.55,294.86],[532.63,292.63],[531.41,295.02],[528.3,294.54],[527.89,294.02],[527.88,291.97],[528.87,290.12],[528.37,288.38],[523.88,288.13],[521.34,289.46],[520.39,288.59],[520.12,286.88],[518.87,287.61],[516.88,287.88],[511.21,293.28],[509.28,293.17],[508.51,290.76],[513.87,285.37],[513.87,284.63],[513.38,284.63],[508.92,288.83],[508.04,288.86],[506.76,285.23],[508.37,280.87],[508.12,279.88],[502.7,275.15],[502.12,269.88],[499.16,266.64],[498.62,264.63],[497.34,263.83],[495.37,261.38],[489.88,261.13],[488.09,262.11],[486.0,262.06],[481.51,258.5],[481.37,257.38],[477.5,253.97],[477.37,252.13],[475.89,249.0],[476.38,245.41],[477.87,243.12],[477.87,241.13],[475.15,238.64],[473.38,235.63],[473.12,239.09],[472.13,240.88],[472.13,243.12],[474.12,246.97],[474.1,248.12],[472.88,249.88],[472.88,250.62],[475.38,252.94],[474.83,254.24],[466.2,249.6],[457.21,246.61],[453.63,244.63],[451.85,245.92],[448.52,245.35],[447.95,239.63],[442.65,232.73],[438.09,225.17],[435.85,215.14],[433.1,208.65],[439.42,203.1],[442.35,201.14],[444.62,200.37],[444.26,197.26],[449.63,191.61],[450.88,189.11],[450.87,186.88],[449.88,185.03],[449.87,176.88],[446.12,172.88],[445.38,172.63],[443.48,173.49],[442.67,172.91],[442.59,172.27],[443.87,170.12],[443.62,167.38],[439.62,163.38],[436.38,161.87],[434.69,160.18],[434.44,159.35],[435.37,157.62],[435.12,156.88],[430.62,152.38],[428.41,152.59],[426.12,151.13],[424.38,150.88],[422.68,152.78],[421.38,152.85],[416.42,149.9],[414.12,147.13],[411.62,145.63],[408.05,145.85],[404.46,141.92],[402.87,138.88],[398.88,134.28],[395.62,129.38],[392.58,129.15],[382.2,124.16],[375.48,122.93],[373.62,121.38],[371.82,121.09],[368.38,118.87],[363.62,113.88],[362.88,113.88],[361.59,114.85],[360.51,114.87],[358.62,113.63],[356.14,113.13],[350.05,112.84],[337.59,114.3],[336.4,111.87],[336.37,110.38],[335.15,108.62],[335.12,105.88],[333.62,104.38],[331.42,103.86],[330.53,102.78],[331.37,100.62],[330.62,98.88],[329.88,98.88],[326.66,101.81],[325.32,101.78],[323.44,99.63],[323.62,97.63],[322.32,96.82],[318.87,92.88],[316.62,91.06],[316.46,90.33],[317.62,88.62],[317.62,87.38],[315.62,85.38],[313.88,85.11],[312.12,84.13],[305.29,84.08],[299.8,79.17],[299.59,78.2],[301.12,76.62],[301.4,75.11],[302.87,73.12],[302.87,69.88],[299.62,66.38],[297.39,65.85],[295.56,63.76],[296.44,62.2],[299.12,62.37],[299.37,59.38],[298.62,58.38],[295.88,58.13],[294.03,58.6],[290.13,57.63],[287.87,58.61],[283.57,59.18],[279.46,53.72],[279.62,51.38],[277.89,48.12],[277.61,45.37],[276.12,44.13],[272.16,44.61],[270.43,43.9],[269.18,42.66],[268.87,41.13],[267.87,40.13],[265.91,40.11],[264.87,39.63],[261.88,40.09],[259.32,38.79],[258.59,37.32],[260.62,35.37],[260.62,34.38],[259.13,32.59],[258.62,30.38],[257.12,29.13],[253.13,29.38],[252.88,30.12],[253.55,31.3],[253.32,32.16],[252.09,33.1],[249.98,33.11],[248.21,31.59],[248.62,28.38],[247.87,26.88],[246.87,26.13],[244.41,26.59],[242.38,25.63],[239.62,28.52],[236.63,27.88],[237.47,30.57],[236.11,32.08],[233.86,32.07],[231.72,30.21],[231.41,29.1],[232.13,27.38],[236.04,23.48],[237.62,23.37],[241.13,21.4],[243.62,21.62],[245.62,20.37],[243.21,17.68],[243.37,15.13],[242.62,13.88],[241.88,13.88],[239.62,16.86],[236.88,18.38],[237.56,20.25],[237.17,21.22],[234.52,21.59],[233.53,20.34],[234.62,18.62],[234.62,17.63],[233.87,17.13],[230.91,17.11],[229.12,16.13],[227.32,15.79],[224.94,13.16],[224.87,11.88],[223.42,9.65],[223.62,7.63],[220.93,7.34],[219.37,5.38],[218.63,5.38],[216.38,8.38],[216.85,11.56],[215.87,13.62],[214.08,15.1],[211.78,15.12],[210.01,14.26],[207.92,12.11],[207.87,3.88],[206.12,2.13],[203.38,2.38],[200.64,4.84],[197.68,6.07],[193.21,3.26],[191.31,1.3],[191.12,0.13],[190.05,0.02],[185.73,-3.28],[180.97,-5.31],[177.35,-5.87],[174.76,-5.1],[172.68,-3.4],[171.4,-1.03],[171.13,1.65]],[[522.87,508.88],[521.89,507.09],[521.94,504.84],[524.34,502.2],[526.37,502.12],[527.12,500.62],[527.12,499.38],[523.98,496.19],[524.15,494.42],[525.86,492.92],[528.12,492.87],[530.64,491.61],[531.62,490.62],[531.91,488.82],[534.08,485.44],[536.56,483.21],[539.74,483.23],[546.38,488.62],[549.62,490.13],[552.03,492.53],[553.0,495.72],[553.38,502.62],[557.38,507.62],[559.61,508.15],[561.38,510.12],[563.32,509.86],[569.76,518.22],[569.88,520.62],[572.05,522.9],[571.38,526.62],[572.85,529.38],[572.63,531.62],[575.75,535.27],[576.94,540.83],[577.33,545.21],[576.63,546.38],[577.51,548.7],[576.57,549.9],[573.88,551.39],[574.13,555.12],[576.82,558.39],[576.63,560.62],[577.76,562.38],[578.17,567.22],[577.0,568.11],[572.15,567.83],[569.16,564.66],[568.62,563.38],[565.65,561.11],[565.49,560.19],[567.87,556.12],[567.62,554.38],[565.37,551.38],[563.36,550.85],[557.72,547.1],[557.62,544.38],[555.87,541.06],[555.62,537.38],[554.12,536.13],[549.49,535.63],[548.28,534.72],[548.62,531.38],[546.89,528.12],[546.62,525.63],[543.62,524.38],[542.38,524.38],[540.88,525.13],[539.17,527.27],[537.84,527.3],[537.17,526.61],[537.13,525.47],[538.37,523.12],[537.62,521.38],[536.62,520.38],[535.38,520.38],[532.14,523.06],[530.32,522.79],[527.92,520.11],[527.87,515.88],[526.88,513.89],[523.02,510.26],[522.87,508.88]],[[528.67,327.41],[527.73,322.75],[528.24,322.23],[533.2,322.34],[533.64,322.94],[533.13,326.37],[537.99,325.9],[539.15,327.25],[533.62,329.2],[530.87,329.23],[528.67,327.41]],[[238.62,68.62],[240.12,66.62],[240.37,65.38],[238.92,63.15],[239.13,61.41],[243.95,54.55],[251.46,53.9],[254.12,54.41],[255.38,56.62],[257.47,56.25],[265.71,59.43],[269.38,63.62],[272.52,63.8],[275.5,66.57],[277.43,69.54],[279.82,74.75],[281.68,81.42],[280.96,82.52],[279.38,82.63],[278.88,83.13],[279.38,84.37],[280.86,84.42],[281.74,85.24],[281.83,86.61],[280.52,87.87],[276.99,88.11],[273.62,86.38],[272.38,86.38],[270.69,87.8],[269.52,87.86],[266.62,84.88],[260.93,84.13],[259.12,83.13],[256.91,83.11],[255.12,82.13],[252.88,82.13],[251.09,83.11],[248.88,83.13],[247.62,83.85],[246.33,83.82],[242.59,81.0],[242.49,80.27],[243.62,78.87],[243.62,78.13],[241.12,75.88],[238.84,75.32],[237.08,73.54],[236.15,71.65],[236.15,70.45],[237.33,69.17],[238.62,68.62]]]}},{"type":"Feature","properties":{"id":"WTR_B003","kind":"river_channel","waterway":"WTR_R04","area_px":10724.7},"geometry":{"type":"Polygon","coordinates":[[[843.52,389.32],[843.84,390.26],[845.34,391.41],[852.05,393.15],[853.46,394.04],[853.59,394.73],[852.38,396.38],[852.38,397.62],[854.38,400.62],[857.38,403.62],[862.7,406.2],[865.79,409.29],[866.38,411.62],[868.38,413.62],[872.12,413.87],[876.32,411.41],[878.12,411.12],[880.36,409.18],[881.2,409.36],[881.33,411.49],[880.38,413.63],[880.05,416.33],[879.4,416.83],[876.38,416.38],[874.88,418.38],[874.63,419.87],[876.59,423.33],[876.88,425.12],[879.88,426.87],[881.2,426.92],[885.62,429.13],[888.88,432.87],[892.62,435.13],[894.88,438.12],[897.57,438.13],[900.74,439.27],[904.83,444.32],[905.38,446.37],[907.59,447.12],[908.8,448.34],[908.88,450.62],[911.12,452.98],[911.38,456.37],[914.2,458.82],[916.08,462.83],[915.38,464.63],[915.38,466.37],[915.87,467.11],[916.87,467.37],[916.54,465.56],[917.48,465.23],[923.52,473.3],[923.69,475.07],[922.46,481.19],[923.29,486.57],[919.53,486.86],[917.38,486.38],[914.68,489.79],[912.38,490.38],[910.37,492.39],[909.63,495.13],[909.88,498.12],[914.38,501.62],[917.66,503.16],[919.89,505.4],[921.63,508.62],[923.12,508.87],[925.81,507.57],[931.38,513.62],[934.12,513.9],[936.38,515.62],[939.69,515.69],[941.79,517.32],[942.38,518.62],[944.38,520.62],[947.13,521.12],[948.67,523.55],[948.39,525.39],[951.41,526.79],[953.99,529.32],[954.63,530.62],[955.47,530.66],[957.9,532.76],[958.13,534.87],[960.38,536.37],[961.43,536.18],[962.43,537.61],[963.2,540.13],[961.38,543.38],[961.38,544.37],[965.23,547.06],[968.23,560.59],[966.65,562.8],[964.38,563.13],[964.38,564.62],[965.38,565.37],[967.13,565.67],[967.86,566.51],[967.85,567.55],[967.23,568.27],[965.38,568.88],[965.13,569.87],[965.85,571.35],[965.8,572.66],[963.64,574.84],[960.88,575.63],[963.08,578.83],[963.13,581.12],[964.1,582.85],[964.13,584.12],[968.38,589.62],[969.62,589.62],[971.38,588.49],[973.88,589.87],[977.73,589.31],[980.33,592.83],[980.88,595.12],[982.66,596.17],[986.88,601.12],[987.62,601.37],[989.6,600.07],[990.24,600.18],[992.43,603.5],[992.38,604.87],[993.84,606.36],[994.38,608.12],[996.01,608.51],[999.94,612.69],[1001.38,615.63],[1002.38,616.62],[1003.5,616.83],[1007.31,620.13],[1011.38,622.12],[1014.53,622.72],[1015.62,623.37],[1016.75,622.9],[1020.96,623.38],[1024.95,625.73],[1027.08,627.9],[1029.97,632.72],[1032.03,635.14],[1032.13,637.12],[1033.38,639.12],[1034.12,639.12],[1036.33,637.46],[1042.15,638.55],[1045.23,640.86],[1047.53,643.35],[1047.38,645.62],[1048.88,647.12],[1050.72,646.83],[1052.56,649.18],[1053.26,650.95],[1049.07,659.88],[1043.82,664.78],[1043.59,666.68],[1044.79,668.19],[1046.66,668.41],[1047.55,667.96],[1052.73,663.29],[1054.96,661.88],[1055.86,662.38],[1057.08,664.8],[1057.14,666.88],[1084.62,666.87],[1084.14,665.59],[1084.37,663.13],[1083.62,661.88],[1082.36,661.6],[1081.1,660.56],[1080.14,658.59],[1080.12,656.38],[1078.62,655.38],[1077.38,655.38],[1076.03,656.1],[1074.32,655.8],[1070.17,651.66],[1069.62,649.63],[1065.66,646.14],[1065.45,645.3],[1066.37,643.62],[1065.62,641.38],[1064.12,639.88],[1062.35,639.59],[1061.15,638.51],[1061.17,637.33],[1062.87,634.87],[1062.37,633.88],[1060.34,634.44],[1058.62,632.13],[1054.34,632.8],[1052.67,631.14],[1052.37,629.13],[1050.62,629.86],[1049.29,629.77],[1048.17,628.61],[1048.19,627.31],[1048.95,626.37],[1051.37,625.62],[1051.62,624.63],[1048.38,623.63],[1047.63,624.38],[1047.45,626.05],[1046.61,626.83],[1045.37,626.81],[1043.92,625.14],[1043.87,623.88],[1042.4,621.64],[1042.12,619.88],[1040.62,618.38],[1039.38,618.38],[1037.87,620.62],[1036.45,621.46],[1032.76,618.16],[1032.12,617.24],[1031.87,612.88],[1030.89,611.12],[1030.62,608.38],[1029.62,607.38],[1026.79,607.27],[1022.95,603.13],[1023.39,599.38],[1024.87,596.87],[1024.37,595.88],[1022.38,596.38],[1020.39,598.36],[1019.86,600.58],[1018.85,601.43],[1016.12,600.13],[1014.38,600.38],[1013.38,601.38],[1013.59,603.52],[1012.71,604.48],[1008.39,603.58],[1007.56,602.86],[1007.12,601.38],[1005.15,599.61],[1004.62,597.63],[1002.51,595.65],[1003.12,593.38],[1001.49,591.63],[1001.88,587.64],[1001.37,586.88],[999.21,587.48],[997.12,585.88],[994.8,585.3],[991.12,581.88],[990.13,582.38],[989.85,583.61],[989.3,583.96],[986.96,581.99],[984.94,577.5],[985.87,575.87],[985.62,574.38],[983.89,574.75],[981.0,570.31],[975.18,565.01],[974.07,563.34],[975.37,558.88],[974.4,556.87],[974.63,555.19],[976.07,553.47],[977.62,553.37],[978.62,552.62],[978.15,549.47],[978.87,548.12],[978.87,546.88],[977.4,544.53],[977.62,542.38],[977.12,540.54],[977.87,539.12],[977.62,536.63],[974.79,536.23],[971.29,532.22],[971.62,529.63],[969.39,528.85],[968.4,527.59],[968.4,524.38],[969.88,522.11],[969.87,518.88],[968.63,516.39],[967.62,515.38],[963.91,516.09],[961.11,515.58],[959.87,514.63],[956.63,514.32],[953.41,508.82],[953.77,508.17],[955.12,508.12],[956.37,506.62],[955.37,504.38],[953.35,504.59],[951.63,503.63],[949.59,504.84],[946.38,504.38],[945.54,504.96],[944.79,504.57],[939.22,498.33],[936.3,491.33],[933.94,488.18],[933.87,486.38],[932.63,485.88],[931.14,486.0],[927.76,483.31],[927.46,481.28],[928.09,478.32],[929.87,477.12],[930.62,475.62],[930.62,474.38],[927.92,469.2],[927.87,468.38],[926.08,467.96],[924.78,466.32],[923.73,461.8],[925.4,454.38],[926.62,452.62],[926.62,451.38],[925.47,449.34],[926.87,446.63],[926.37,445.88],[924.16,446.57],[922.39,445.55],[921.47,443.78],[922.37,441.61],[921.87,440.88],[919.74,441.62],[916.14,437.75],[916.87,434.12],[916.62,432.38],[911.12,427.13],[910.13,427.13],[909.13,428.13],[909.41,430.41],[908.58,430.81],[905.99,429.42],[905.62,428.38],[904.12,427.13],[901.38,427.3],[900.63,426.95],[894.52,421.62],[887.26,417.51],[886.55,415.81],[886.74,413.53],[887.11,412.06],[888.62,411.37],[888.71,409.16],[893.63,409.13],[899.71,407.03],[914.92,407.37],[917.38,409.62],[920.79,409.56],[921.6,410.39],[921.88,411.62],[923.88,412.87],[925.62,412.62],[929.14,408.7],[935.12,407.87],[942.49,404.06],[945.8,403.16],[967.41,399.31],[985.09,397.67],[998.27,398.71],[999.38,399.37],[1001.53,398.94],[1005.95,400.51],[1013.44,406.37],[1016.81,409.49],[1017.63,412.62],[1021.34,412.84],[1027.02,416.71],[1031.08,422.78],[1031.1,424.12],[1030.38,425.38],[1030.38,426.62],[1030.88,427.12],[1033.72,427.25],[1039.38,433.62],[1041.7,434.2],[1046.38,438.62],[1048.98,438.24],[1050.36,438.87],[1050.85,439.54],[1050.63,441.87],[1051.37,441.87],[1054.14,440.3],[1056.09,440.76],[1056.58,441.39],[1056.38,443.37],[1056.88,444.12],[1057.62,444.12],[1060.46,441.38],[1067.57,443.1],[1068.88,444.41],[1069.63,446.62],[1072.62,446.12],[1073.45,444.22],[1076.8,444.79],[1078.99,445.54],[1079.77,446.27],[1080.13,448.12],[1081.64,450.62],[1082.62,450.62],[1084.61,449.63],[1086.93,447.77],[1095.07,448.15],[1096.88,448.87],[1098.62,448.87],[1099.71,447.5],[1103.23,446.44],[1110.27,445.73],[1114.24,446.95],[1117.59,449.11],[1119.63,451.62],[1120.87,451.12],[1122.13,448.38],[1123.41,447.18],[1136.12,446.87],[1138.0,445.37],[1142.17,444.45],[1146.11,444.75],[1149.38,448.12],[1150.12,448.12],[1153.01,445.88],[1160.56,446.84],[1162.02,447.47],[1164.88,449.87],[1167.09,449.89],[1168.88,450.87],[1169.67,450.81],[1172.05,452.65],[1172.13,458.12],[1175.08,461.86],[1175.13,464.12],[1175.61,465.19],[1175.38,467.37],[1176.64,468.15],[1179.63,471.62],[1181.03,471.72],[1183.5,478.11],[1183.45,478.76],[1182.13,479.88],[1180.13,482.88],[1180.12,487.09],[1179.63,488.62],[1184.38,494.87],[1191.35,499.89],[1191.55,500.7],[1190.88,501.88],[1191.13,502.62],[1194.12,502.87],[1195.36,502.16],[1196.6,502.32],[1201.9,507.55],[1203.38,510.62],[1204.38,511.62],[1206.54,511.43],[1211.7,514.63],[1217.91,519.38],[1218.13,521.87],[1218.63,522.62],[1219.62,522.62],[1221.43,521.29],[1227.12,523.1],[1228.38,525.62],[1229.38,526.62],[1233.07,525.72],[1238.82,533.01],[1243.9,535.3],[1247.75,538.5],[1248.47,539.37],[1248.38,540.62],[1249.38,542.12],[1250.69,542.43],[1251.85,543.61],[1252.63,546.62],[1254.8,546.17],[1260.03,549.0],[1261.1,550.85],[1261.13,552.87],[1261.63,553.62],[1263.12,553.87],[1265.64,552.34],[1270.84,556.21],[1271.13,558.12],[1272.38,559.62],[1273.62,559.62],[1275.3,558.6],[1283.43,563.08],[1285.38,565.37],[1287.19,564.41],[1294.41,565.93],[1304.22,566.95],[1306.38,568.62],[1307.37,568.62],[1308.95,566.99],[1311.1,567.06],[1314.53,567.92],[1316.88,569.87],[1319.15,569.41],[1326.28,570.88],[1327.83,573.3],[1327.88,575.37],[1328.38,575.87],[1330.12,575.87],[1332.12,574.87],[1333.52,572.37],[1339.98,574.5],[1340.95,574.31],[1342.3,572.97],[1342.5,572.01],[1341.78,570.25],[1334.93,567.13],[1335.87,565.12],[1335.88,562.14],[1334.87,561.13],[1330.88,561.13],[1328.48,562.87],[1327.38,562.85],[1326.12,562.13],[1322.13,562.42],[1319.42,561.11],[1319.78,557.79],[1320.51,557.42],[1322.37,557.87],[1322.12,556.88],[1321.37,556.38],[1316.88,556.13],[1315.51,556.87],[1310.38,556.88],[1308.96,558.21],[1305.57,557.81],[1304.17,556.63],[1303.87,554.88],[1302.65,553.14],[1302.37,551.38],[1301.62,550.38],[1300.38,550.38],[1298.56,551.61],[1296.31,551.62],[1294.62,550.63],[1292.41,550.85],[1291.12,550.13],[1287.46,550.6],[1285.62,549.63],[1283.48,549.84],[1280.46,546.96],[1280.12,545.63],[1279.13,545.38],[1278.61,546.86],[1277.08,548.1],[1275.85,548.1],[1273.63,546.88],[1273.13,547.63],[1273.08,549.13],[1272.42,549.5],[1260.65,543.56],[1259.1,542.03],[1258.35,540.32],[1260.87,538.87],[1261.17,536.36],[1263.95,533.55],[1265.62,533.37],[1266.37,532.62],[1265.12,530.88],[1264.38,530.63],[1262.7,531.55],[1261.86,531.34],[1258.37,527.38],[1256.39,526.86],[1255.24,525.73],[1254.87,523.13],[1254.12,522.13],[1252.87,521.63],[1250.48,521.84],[1249.69,521.18],[1249.45,520.3],[1250.37,518.63],[1249.62,517.38],[1242.86,515.33],[1242.12,514.59],[1241.37,512.38],[1235.91,512.12],[1234.12,511.13],[1231.86,511.08],[1229.62,509.38],[1226.78,509.24],[1224.57,506.32],[1227.62,502.62],[1227.62,501.38],[1226.12,500.13],[1224.35,499.81],[1222.37,497.38],[1220.44,497.61],[1219.46,497.16],[1217.37,494.38],[1216.88,494.38],[1216.38,495.37],[1217.43,497.28],[1217.34,497.9],[1216.45,498.54],[1214.34,497.82],[1212.92,496.02],[1213.62,492.38],[1211.12,489.88],[1209.16,489.37],[1207.69,488.16],[1207.39,487.1],[1207.87,484.88],[1206.62,483.38],[1205.38,483.38],[1204.88,483.88],[1204.63,484.62],[1205.48,486.63],[1203.94,488.12],[1200.89,488.08],[1198.62,485.88],[1197.34,485.9],[1196.15,484.88],[1194.42,482.94],[1192.88,479.89],[1190.55,476.89],[1188.9,472.89],[1189.21,469.05],[1190.62,466.62],[1190.44,464.33],[1192.87,461.12],[1192.38,458.84],[1192.62,456.38],[1191.4,454.52],[1191.62,452.36],[1190.37,450.38],[1187.87,449.63],[1185.57,449.73],[1182.18,446.95],[1178.23,444.7],[1177.37,442.88],[1172.4,442.87],[1167.87,441.79],[1167.6,441.14],[1168.62,439.62],[1168.62,438.38],[1167.62,437.63],[1164.88,438.13],[1162.08,439.53],[1158.35,438.88],[1155.62,437.38],[1154.38,437.38],[1153.07,438.12],[1147.88,438.13],[1147.13,438.6],[1141.93,438.87],[1135.34,440.14],[1129.38,439.88],[1128.07,441.14],[1122.28,441.87],[1115.93,441.89],[1114.11,440.12],[1112.62,439.38],[1111.39,439.38],[1109.01,440.63],[1104.06,441.14],[1096.79,443.0],[1096.12,442.38],[1094.63,442.38],[1093.65,443.14],[1084.6,442.22],[1080.16,440.61],[1078.37,437.38],[1076.88,437.38],[1076.57,438.69],[1075.71,439.23],[1064.6,436.06],[1063.62,433.63],[1061.87,432.63],[1060.88,432.88],[1061.49,434.5],[1060.72,435.19],[1059.54,434.93],[1057.62,433.38],[1055.53,433.66],[1053.26,432.48],[1049.64,428.63],[1048.71,428.81],[1045.74,426.45],[1044.12,422.88],[1040.86,422.99],[1037.24,419.22],[1037.15,415.41],[1037.88,414.11],[1037.87,409.13],[1037.37,408.38],[1035.86,408.1],[1033.87,406.63],[1032.88,406.63],[1033.13,409.12],[1034.87,411.52],[1034.74,412.68],[1033.32,413.35],[1029.23,408.98],[1029.12,405.88],[1028.14,405.13],[1026.85,405.1],[1024.43,403.9],[1022.11,401.12],[1020.11,400.12],[1015.44,399.51],[1004.12,393.13],[999.88,393.13],[998.9,393.54],[986.61,392.38],[981.62,393.02],[979.88,392.63],[979.31,393.31],[966.73,394.35],[952.12,397.02],[949.63,396.38],[949.1,397.61],[941.78,398.99],[935.21,402.11],[931.18,403.17],[928.11,402.9],[926.87,402.13],[920.79,401.39],[915.45,402.36],[898.36,402.13],[893.1,404.1],[891.16,404.29],[887.03,403.42],[882.8,400.63],[881.84,400.51],[880.01,401.21],[874.23,399.26],[872.36,397.94],[872.62,394.38],[871.62,393.38],[870.63,393.38],[868.32,395.57],[863.25,392.74],[860.4,390.86],[859.55,389.51],[860.86,387.92],[863.37,387.62],[863.62,386.63],[862.87,386.13],[856.88,386.13],[855.12,387.11],[852.88,387.38],[852.29,388.0],[845.68,386.52],[844.02,387.47],[843.52,389.32]],[[1204.3,492.56],[1204.17,491.39],[1205.36,490.18],[1209.36,489.89],[1211.29,491.55],[1211.57,492.46],[1210.61,493.85],[1208.09,494.61],[1205.86,494.09],[1204.3,492.56]],[[971.69,551.39],[972.53,549.4],[973.64,549.42],[974.79,550.44],[974.12,554.34],[972.82,555.71],[972.09,555.27],[971.69,551.39]]]}},{"type":"Feature","properties":{"id":"WTR_B004","kind":"river_channel","waterway":"WTR_R07","area_px":9450.3},"geometry":{"type":"Polygon","coordinates":[[[1567.5,13.93],[1568.19,15.72],[1569.93,16.5],[1577.66,14.35],[1578.08,15.04],[1577.13,19.88],[1577.38,22.37],[1581.63,25.62],[1583.37,25.62],[1583.87,24.63],[1582.14,24.58],[1581.2,23.63],[1581.37,21.13],[1580.89,20.09],[1580.87,17.88],[1579.9,16.09],[1580.14,14.41],[1581.3,13.22],[1588.54,11.33],[1590.62,11.37],[1592.29,10.64],[1600.42,10.25],[1605.13,7.87],[1608.62,9.37],[1609.62,8.62],[1610.12,6.44],[1610.81,5.73],[1614.83,5.98],[1618.33,7.18],[1619.38,8.62],[1621.28,8.6],[1624.68,11.95],[1626.35,12.48],[1627.99,12.66],[1633.16,11.52],[1634.59,11.86],[1636.88,13.87],[1639.18,13.4],[1641.97,14.51],[1644.38,16.62],[1645.99,17.34],[1651.38,23.3],[1654.11,25.49],[1661.67,28.12],[1670.03,32.93],[1676.8,35.7],[1682.54,39.4],[1696.56,46.72],[1699.5,48.88],[1701.94,51.89],[1703.61,57.49],[1705.13,60.79],[1711.07,67.68],[1712.27,70.13],[1711.85,74.87],[1708.8,81.54],[1707.97,85.09],[1708.14,88.8],[1709.64,94.62],[1708.6,95.89],[1705.69,97.83],[1703.88,98.13],[1701.36,99.39],[1699.38,101.38],[1699.1,104.11],[1697.66,105.8],[1690.88,106.13],[1689.13,107.13],[1688.88,108.12],[1695.38,114.62],[1699.88,116.87],[1701.12,116.87],[1703.89,114.92],[1705.68,115.2],[1707.87,117.38],[1709.87,120.37],[1711.59,123.07],[1711.88,124.62],[1714.88,125.87],[1717.12,125.87],[1718.16,125.41],[1719.14,125.7],[1720.38,127.62],[1722.64,129.15],[1726.38,133.62],[1728.65,134.12],[1729.85,137.48],[1732.24,141.52],[1743.11,153.4],[1744.13,155.41],[1745.29,161.09],[1747.07,163.51],[1750.73,165.68],[1750.88,166.62],[1752.89,168.4],[1754.38,170.62],[1756.86,172.12],[1757.62,172.12],[1758.75,170.02],[1760.04,170.88],[1760.62,172.54],[1760.27,174.11],[1758.8,176.04],[1756.38,176.88],[1755.63,178.13],[1756.12,179.97],[1755.56,184.08],[1756.08,188.81],[1759.11,200.12],[1759.13,206.12],[1760.12,207.97],[1760.14,224.14],[1761.38,225.37],[1764.62,225.37],[1765.37,224.62],[1765.25,222.26],[1766.34,221.2],[1767.47,221.14],[1769.54,223.31],[1769.38,225.62],[1770.38,227.12],[1772.13,226.39],[1773.87,226.37],[1775.64,225.07],[1777.59,226.19],[1777.38,227.37],[1778.38,227.87],[1781.85,227.82],[1784.68,228.52],[1790.57,228.85],[1791.11,229.26],[1791.13,230.37],[1794.57,229.88],[1802.39,231.33],[1806.98,231.1],[1814.26,229.51],[1817.74,229.57],[1820.89,230.88],[1823.12,230.87],[1824.97,229.88],[1830.87,229.87],[1831.87,229.12],[1833.07,226.81],[1840.01,225.06],[1842.38,227.12],[1843.37,227.12],[1844.62,226.37],[1844.87,224.1],[1845.42,223.65],[1849.12,222.87],[1852.64,221.37],[1854.38,222.62],[1856.12,222.87],[1857.62,221.62],[1857.89,219.03],[1858.95,218.35],[1861.85,217.63],[1868.11,217.19],[1880.09,213.62],[1882.37,213.62],[1883.43,212.45],[1888.32,210.23],[1901.14,205.87],[1903.62,204.62],[1907.86,200.93],[1912.12,200.87],[1913.91,199.89],[1917.12,199.87],[1918.37,198.62],[1918.12,197.38],[1915.62,192.88],[1912.8,193.06],[1910.62,191.63],[1908.9,191.34],[1907.9,190.09],[1907.88,182.93],[1909.37,180.37],[1907.41,176.84],[1907.65,175.35],[1908.88,173.11],[1908.87,168.88],[1907.84,166.94],[1911.54,162.3],[1913.6,158.06],[1915.62,157.62],[1916.37,156.62],[1915.88,155.09],[1915.9,150.92],[1919.62,146.62],[1919.62,145.38],[1918.13,143.62],[1916.92,141.2],[1916.88,139.25],[1918.87,136.12],[1920.25,132.45],[1922.37,130.62],[1922.15,128.47],[1922.62,127.62],[1923.18,123.06],[1924.12,122.37],[1923.44,120.41],[1924.37,118.62],[1922.88,115.0],[1922.88,109.97],[1923.87,108.12],[1923.87,105.88],[1922.64,103.88],[1922.95,98.92],[1923.87,97.12],[1923.42,91.89],[1924.18,87.94],[1928.05,80.86],[1935.16,64.07],[1936.53,62.02],[1937.87,61.87],[1938.87,61.12],[1939.95,57.98],[1942.2,55.55],[1944.87,54.12],[1945.87,52.12],[1946.03,49.98],[1947.88,46.93],[1951.75,43.83],[1955.38,46.62],[1956.62,46.37],[1957.03,40.11],[1959.39,38.99],[1960.62,40.08],[1962.48,40.45],[1964.08,39.39],[1964.68,37.66],[1966.37,37.62],[1966.87,36.87],[1966.87,34.13],[1966.12,33.13],[1964.13,32.63],[1961.5,34.22],[1958.12,33.63],[1953.88,35.38],[1953.64,36.34],[1952.1,37.49],[1946.38,40.77],[1944.13,40.63],[1942.38,41.38],[1941.38,42.38],[1941.45,45.29],[1939.6,47.57],[1934.88,51.13],[1928.39,57.36],[1927.12,59.32],[1925.38,59.88],[1924.06,61.38],[1922.38,61.88],[1920.13,64.88],[1920.08,66.2],[1918.13,69.88],[1918.1,71.18],[1916.13,75.88],[1916.38,77.62],[1918.85,80.36],[1919.67,82.11],[1917.89,92.35],[1917.13,93.88],[1917.11,96.09],[1916.13,97.88],[1916.61,100.39],[1915.12,110.89],[1915.59,118.52],[1913.88,120.37],[1916.2,122.08],[1916.27,123.05],[1915.84,124.18],[1913.38,124.63],[1913.08,129.59],[1906.91,136.79],[1904.79,140.75],[1904.06,146.63],[1903.13,148.88],[1903.13,152.12],[1904.13,154.12],[1905.93,155.36],[1906.05,157.56],[1905.61,158.1],[1904.0,158.12],[1901.62,157.13],[1900.88,157.38],[1900.59,158.89],[1899.38,160.37],[1901.61,161.15],[1901.83,162.03],[1899.28,163.72],[1898.11,165.08],[1896.36,168.38],[1894.38,169.38],[1892.85,172.65],[1889.7,175.9],[1887.42,179.22],[1885.88,183.62],[1881.37,189.39],[1881.13,191.12],[1882.1,192.85],[1882.12,193.94],[1880.63,196.38],[1881.13,198.12],[1882.37,198.87],[1883.12,198.37],[1883.26,196.24],[1886.38,193.13],[1888.93,191.68],[1894.61,195.24],[1896.82,197.18],[1898.16,199.19],[1897.55,200.68],[1894.79,202.84],[1887.45,205.2],[1880.12,208.37],[1867.96,212.11],[1855.88,213.13],[1853.54,214.98],[1850.5,216.12],[1848.12,215.13],[1846.63,215.38],[1846.38,217.33],[1844.93,217.88],[1844.27,217.52],[1844.37,216.38],[1843.37,215.63],[1841.87,216.61],[1840.38,216.88],[1839.88,218.56],[1839.32,219.0],[1832.88,219.13],[1830.19,220.09],[1827.88,220.13],[1826.6,221.1],[1822.27,222.51],[1807.1,226.01],[1802.68,226.34],[1797.34,225.47],[1794.38,224.13],[1785.27,223.56],[1783.78,223.0],[1782.81,215.92],[1781.88,212.69],[1781.87,208.88],[1779.41,206.5],[1777.81,200.17],[1779.12,198.62],[1779.12,197.88],[1777.9,196.12],[1777.87,192.88],[1776.89,191.09],[1776.87,185.88],[1773.14,182.49],[1773.2,181.31],[1774.62,179.62],[1774.62,178.38],[1773.88,177.01],[1773.87,173.88],[1772.12,172.13],[1769.12,172.39],[1768.55,171.73],[1768.2,169.41],[1770.62,168.37],[1770.62,167.38],[1769.14,164.56],[1769.87,157.88],[1767.62,152.38],[1765.92,150.14],[1765.87,147.88],[1764.9,146.15],[1764.87,144.88],[1762.12,140.13],[1758.12,138.13],[1756.81,138.05],[1755.23,136.68],[1755.37,132.13],[1754.4,130.87],[1754.12,128.88],[1752.35,127.85],[1750.92,126.14],[1750.87,122.88],[1749.89,121.12],[1749.62,119.37],[1748.62,118.38],[1747.38,118.38],[1745.38,119.38],[1742.71,121.79],[1741.29,121.77],[1739.62,118.38],[1738.13,118.42],[1734.79,115.27],[1734.62,114.38],[1733.64,113.39],[1732.47,113.29],[1731.07,111.96],[1730.13,110.72],[1730.62,108.38],[1729.38,107.13],[1728.53,107.94],[1727.86,107.87],[1724.58,103.12],[1723.81,98.86],[1726.47,96.12],[1728.06,95.9],[1729.63,96.62],[1730.37,96.37],[1729.48,94.3],[1730.87,92.12],[1730.89,89.91],[1731.87,88.12],[1731.92,86.86],[1734.38,83.88],[1738.62,80.62],[1738.88,75.9],[1739.37,74.38],[1738.38,72.84],[1738.12,70.38],[1736.14,67.55],[1736.15,66.38],[1736.87,65.12],[1736.87,62.88],[1735.89,61.12],[1735.62,58.38],[1733.62,56.38],[1731.62,55.38],[1730.38,55.38],[1728.62,56.5],[1727.12,55.59],[1725.92,53.2],[1725.88,52.06],[1727.37,49.62],[1727.12,48.38],[1723.87,43.13],[1721.13,41.55],[1720.37,39.38],[1718.36,38.85],[1715.12,36.13],[1712.86,36.08],[1710.61,34.37],[1706.12,32.13],[1704.27,31.77],[1703.17,30.61],[1703.17,29.39],[1704.38,28.13],[1706.12,27.37],[1704.62,25.38],[1703.38,25.38],[1700.06,28.1],[1695.33,27.78],[1694.46,26.61],[1694.87,25.12],[1694.62,22.38],[1693.12,21.13],[1690.9,21.61],[1689.79,21.28],[1687.9,19.11],[1687.62,16.38],[1685.62,14.63],[1684.63,15.38],[1685.56,17.26],[1685.35,18.14],[1683.63,19.83],[1681.85,20.09],[1680.12,19.13],[1678.33,18.83],[1674.62,15.63],[1672.3,15.76],[1669.87,13.13],[1667.85,13.1],[1666.12,12.13],[1661.91,12.11],[1660.12,11.13],[1658.83,11.08],[1656.62,9.63],[1652.71,10.04],[1650.36,8.85],[1647.62,6.38],[1644.35,5.81],[1643.42,4.64],[1643.37,3.13],[1642.63,3.13],[1640.64,4.83],[1639.39,4.83],[1638.63,4.09],[1638.12,2.38],[1636.29,0.76],[1636.12,0.13],[1633.88,0.13],[1632.69,1.75],[1631.57,1.86],[1630.12,0.13],[1625.67,0.1],[1620.82,-2.55],[1616.31,-3.85],[1611.23,-4.19],[1606.0,-3.24],[1602.33,-1.33],[1598.52,2.08],[1594.96,2.12],[1593.38,1.38],[1591.54,3.86],[1589.88,4.13],[1588.48,5.13],[1582.08,7.73],[1569.12,11.66],[1568.27,12.2],[1567.5,13.93]]]}},{"type":"Feature","properties":{"id":"WTR_B005","kind":"river_channel","waterway":"WTR_R03","area_px":8111.0},"geometry":{"type":"Polygon","coordinates":[[[826.52,35.78],[826.8,36.89],[827.78,37.48],[835.79,38.2],[840.02,39.22],[847.45,44.27],[856.47,45.71],[858.74,47.46],[859.72,48.95],[859.63,49.62],[862.88,53.87],[870.42,55.42],[878.83,59.68],[887.45,61.5],[893.52,65.28],[896.79,65.83],[902.74,65.37],[908.38,66.78],[915.48,67.18],[918.87,68.05],[921.8,70.02],[927.7,75.63],[930.78,77.38],[934.07,77.94],[953.77,78.32],[955.94,79.34],[962.39,85.37],[965.45,87.25],[969.72,87.96],[987.46,88.25],[989.69,89.17],[994.53,92.85],[997.93,93.84],[1026.35,94.06],[1028.72,93.58],[1033.7,91.02],[1035.5,90.83],[1044.37,94.48],[1048.26,99.01],[1054.65,104.82],[1055.84,106.49],[1055.7,108.54],[1053.12,110.89],[1051.63,113.13],[1051.63,114.12],[1053.53,115.24],[1053.38,117.37],[1056.48,117.44],[1057.05,117.83],[1058.82,121.34],[1059.02,123.97],[1056.6,126.83],[1050.88,127.13],[1046.38,130.63],[1047.81,132.36],[1047.38,135.62],[1048.38,137.62],[1050.62,139.37],[1053.28,136.26],[1054.73,136.2],[1057.62,138.13],[1059.73,140.25],[1059.38,143.62],[1060.88,145.12],[1062.62,145.4],[1065.38,147.62],[1067.66,148.18],[1069.38,150.62],[1070.88,151.87],[1073.1,151.39],[1074.14,151.65],[1076.12,153.38],[1078.63,156.62],[1081.06,156.87],[1082.88,157.87],[1084.68,158.2],[1086.82,160.34],[1087.13,161.87],[1087.88,162.87],[1089.38,163.62],[1092.62,163.15],[1094.66,164.16],[1100.08,169.89],[1100.13,175.12],[1101.11,176.91],[1101.13,181.12],[1102.63,183.62],[1103.62,183.62],[1104.62,182.62],[1105.87,180.12],[1105.93,176.86],[1108.24,174.45],[1109.19,174.69],[1111.38,176.62],[1113.12,176.89],[1114.38,177.62],[1116.5,177.7],[1119.2,180.35],[1119.03,181.12],[1114.76,185.44],[1112.55,190.75],[1110.13,190.63],[1110.13,191.37],[1111.8,193.33],[1111.63,195.62],[1113.1,197.88],[1113.13,203.12],[1113.88,205.62],[1115.88,206.87],[1119.74,207.24],[1121.0,208.52],[1122.12,211.21],[1124.28,214.31],[1124.9,220.91],[1124.54,227.53],[1127.12,233.93],[1127.13,239.12],[1128.12,240.91],[1128.38,244.62],[1129.38,245.62],[1131.09,245.88],[1132.27,246.81],[1132.63,248.62],[1134.63,252.12],[1136.69,251.5],[1138.68,253.43],[1138.87,256.74],[1138.13,257.88],[1138.12,259.11],[1139.1,260.85],[1139.12,262.03],[1138.13,263.88],[1138.26,266.02],[1136.96,270.12],[1136.6,274.66],[1133.38,276.63],[1133.13,280.62],[1133.63,281.12],[1135.65,281.15],[1137.65,282.15],[1139.91,284.42],[1145.38,292.62],[1147.25,292.96],[1152.51,297.59],[1156.47,303.31],[1158.13,307.12],[1160.37,310.61],[1164.49,314.84],[1164.38,316.62],[1165.48,318.58],[1164.13,320.37],[1165.87,320.87],[1166.71,320.43],[1167.32,320.73],[1167.33,326.16],[1165.62,327.35],[1163.13,327.13],[1162.13,327.63],[1161.88,328.37],[1163.62,328.62],[1165.29,327.99],[1166.35,328.86],[1166.54,329.67],[1165.38,331.38],[1165.38,332.62],[1166.88,333.87],[1168.54,334.22],[1171.06,338.16],[1171.38,342.62],[1172.88,343.87],[1175.06,344.01],[1181.43,351.52],[1182.11,352.91],[1182.13,355.12],[1185.13,359.37],[1186.61,359.62],[1188.01,362.99],[1189.92,365.83],[1189.66,366.57],[1188.38,366.88],[1188.13,368.37],[1188.63,369.12],[1190.71,369.23],[1192.64,371.18],[1192.6,376.93],[1191.13,380.78],[1189.38,381.63],[1189.13,385.12],[1189.85,386.38],[1189.85,387.62],[1188.77,390.73],[1187.62,391.87],[1185.88,392.63],[1186.38,394.62],[1188.88,396.87],[1191.09,396.89],[1192.88,397.87],[1195.37,398.21],[1197.51,402.76],[1200.07,405.81],[1200.38,407.37],[1203.88,408.87],[1207.12,408.87],[1209.67,407.89],[1213.17,409.98],[1215.72,416.55],[1213.13,419.88],[1212.63,421.62],[1214.14,422.65],[1219.19,429.56],[1218.88,431.37],[1220.74,431.31],[1227.91,437.17],[1230.49,440.93],[1231.99,442.12],[1234.75,443.11],[1238.64,447.22],[1240.27,450.56],[1241.79,457.67],[1242.92,459.69],[1245.73,462.82],[1250.0,466.07],[1255.22,467.25],[1256.75,468.33],[1258.67,474.35],[1259.39,484.45],[1260.25,486.67],[1263.09,490.72],[1263.82,492.98],[1264.36,511.19],[1265.96,514.29],[1269.76,517.25],[1270.71,519.14],[1270.56,519.86],[1269.86,520.06],[1267.61,518.37],[1265.12,517.13],[1264.13,517.13],[1263.13,517.88],[1262.38,519.36],[1262.38,520.62],[1265.38,523.62],[1267.11,523.9],[1268.71,525.23],[1268.88,527.37],[1270.84,527.39],[1273.38,528.62],[1274.37,528.62],[1276.87,525.12],[1276.84,524.15],[1278.03,522.79],[1278.17,521.92],[1277.5,520.43],[1276.79,519.97],[1274.73,519.79],[1273.14,516.38],[1268.27,512.37],[1267.46,511.1],[1267.05,508.67],[1266.78,492.49],[1265.75,489.32],[1262.87,485.21],[1262.29,483.64],[1261.77,474.8],[1259.99,468.13],[1260.12,463.63],[1259.62,463.13],[1258.13,463.13],[1256.47,464.48],[1251.34,463.38],[1248.51,461.34],[1245.34,457.92],[1244.29,455.71],[1242.83,448.66],[1239.75,442.98],[1240.62,442.12],[1240.62,437.38],[1238.62,435.38],[1236.42,434.86],[1235.49,433.7],[1236.37,431.12],[1235.87,428.88],[1234.42,426.64],[1234.62,424.38],[1233.46,422.67],[1233.87,421.12],[1233.62,419.63],[1232.87,419.13],[1230.9,419.61],[1229.95,419.37],[1228.12,416.63],[1226.38,416.63],[1224.49,417.87],[1223.35,417.85],[1221.66,416.97],[1219.2,411.68],[1217.9,405.91],[1218.51,405.14],[1221.12,405.12],[1221.87,404.12],[1221.87,402.88],[1220.4,400.64],[1220.12,398.88],[1216.62,396.63],[1214.03,398.1],[1211.94,396.91],[1211.61,396.13],[1212.62,394.62],[1212.62,393.63],[1210.11,391.6],[1208.18,388.7],[1207.87,385.88],[1206.62,383.38],[1204.62,381.88],[1202.41,381.62],[1201.64,381.0],[1200.06,370.61],[1201.62,368.62],[1201.62,367.38],[1200.87,365.88],[1196.84,363.38],[1195.06,360.93],[1194.66,359.61],[1195.14,357.45],[1197.62,355.62],[1197.89,352.88],[1198.87,351.12],[1198.9,348.85],[1200.87,345.37],[1200.87,344.63],[1195.27,343.75],[1193.9,342.08],[1193.87,337.88],[1192.62,336.38],[1190.12,335.13],[1188.83,335.08],[1186.62,333.63],[1183.38,333.38],[1182.28,333.84],[1178.88,331.51],[1178.78,330.9],[1179.41,330.12],[1183.12,328.62],[1183.64,326.92],[1185.62,325.37],[1185.61,324.62],[1184.87,324.13],[1182.89,324.12],[1181.03,325.12],[1173.73,325.22],[1173.77,320.06],[1176.3,318.45],[1178.12,318.87],[1179.87,318.37],[1178.17,316.63],[1177.87,314.88],[1176.49,312.71],[1177.87,310.12],[1177.87,308.86],[1176.37,306.38],[1175.38,306.38],[1173.65,307.52],[1171.62,306.63],[1169.41,307.27],[1168.12,305.63],[1169.37,303.38],[1166.62,299.88],[1161.89,298.56],[1159.88,296.31],[1158.08,293.7],[1156.55,289.98],[1156.88,285.93],[1157.62,284.62],[1157.62,283.38],[1156.14,281.62],[1155.12,278.38],[1152.15,275.64],[1151.37,274.38],[1150.38,274.38],[1147.46,276.3],[1143.58,274.42],[1142.68,273.45],[1142.42,271.59],[1142.98,269.68],[1144.82,267.48],[1147.37,266.62],[1147.87,265.87],[1147.94,258.33],[1148.5,255.94],[1150.14,252.48],[1150.62,249.57],[1151.37,248.62],[1150.89,247.04],[1151.37,243.13],[1150.15,240.65],[1150.12,238.38],[1147.34,236.78],[1145.93,230.82],[1145.13,229.23],[1143.44,227.59],[1141.68,226.57],[1139.44,226.15],[1135.11,227.09],[1132.13,226.76],[1129.7,225.81],[1128.65,224.21],[1127.89,220.71],[1127.86,213.46],[1127.21,209.07],[1127.96,206.07],[1127.88,203.95],[1129.62,201.62],[1129.62,200.38],[1128.62,198.38],[1126.62,196.63],[1124.72,197.81],[1124.0,197.8],[1119.87,194.3],[1117.52,191.62],[1117.27,187.85],[1118.42,185.58],[1119.93,184.41],[1120.88,185.37],[1124.37,184.37],[1122.27,182.44],[1122.81,180.16],[1122.6,178.75],[1120.63,174.81],[1120.43,172.43],[1122.12,170.62],[1122.12,169.88],[1119.12,168.13],[1118.01,167.94],[1116.59,165.68],[1116.87,164.13],[1114.13,161.62],[1113.15,159.65],[1113.19,158.37],[1115.12,156.62],[1115.12,155.88],[1111.12,152.13],[1108.88,152.13],[1106.76,153.52],[1105.84,153.32],[1104.45,151.48],[1106.12,149.62],[1105.87,147.88],[1102.63,145.63],[1101.63,146.38],[1102.51,148.25],[1101.78,149.14],[1094.78,146.27],[1087.63,139.44],[1084.35,137.1],[1081.51,135.83],[1075.95,134.59],[1073.59,133.16],[1073.39,132.06],[1073.87,129.91],[1074.87,128.12],[1074.87,126.13],[1071.87,123.38],[1071.13,123.38],[1070.38,124.38],[1070.61,126.84],[1069.63,129.13],[1069.78,130.38],[1069.18,130.54],[1068.45,130.02],[1066.98,128.04],[1065.23,122.07],[1061.12,113.63],[1062.15,111.74],[1064.12,110.62],[1064.19,108.25],[1065.13,106.38],[1067.12,104.62],[1065.87,99.88],[1063.9,96.15],[1063.87,90.88],[1063.13,89.51],[1063.23,88.33],[1065.37,86.62],[1065.62,85.88],[1065.12,85.38],[1062.29,85.75],[1057.62,80.88],[1056.36,80.6],[1055.23,79.7],[1053.41,70.94],[1055.94,65.92],[1056.5,63.48],[1055.64,60.17],[1052.8,55.33],[1055.62,51.62],[1056.12,49.38],[1054.36,48.63],[1053.38,49.38],[1052.79,51.71],[1051.32,52.63],[1048.76,49.81],[1046.26,48.1],[1046.12,46.63],[1045.62,46.13],[1043.83,46.09],[1040.12,43.88],[1039.38,43.88],[1038.17,44.77],[1033.43,43.02],[1031.89,40.82],[1032.37,39.63],[1031.62,38.63],[1030.58,38.47],[1029.79,36.71],[1030.53,33.51],[1031.37,33.12],[1031.37,32.13],[1029.88,29.38],[1030.87,27.12],[1030.89,22.91],[1032.87,19.12],[1032.9,16.85],[1033.87,15.12],[1033.95,13.77],[1035.37,11.62],[1035.87,7.93],[1036.87,6.12],[1036.87,4.88],[1035.88,2.97],[1036.62,0.13],[1022.68,0.1],[1020.14,-3.62],[1018.05,-4.86],[1015.66,-5.2],[1013.31,-4.59],[1011.38,-3.14],[1010.14,-1.05],[1009.81,1.33],[1011.86,7.4],[1011.12,18.11],[1012.73,24.68],[1012.13,25.88],[1012.06,28.22],[1008.63,33.62],[1012.38,37.62],[1014.38,38.62],[1015.61,38.62],[1019.12,35.12],[1019.14,32.51],[1019.77,31.75],[1024.63,33.3],[1024.81,36.61],[1024.13,37.88],[1024.38,41.62],[1025.88,42.87],[1027.31,43.23],[1029.63,47.62],[1034.54,50.47],[1034.63,51.87],[1035.63,53.62],[1044.48,53.81],[1047.53,54.86],[1050.49,57.74],[1053.31,62.45],[1052.3,64.68],[1049.38,65.63],[1049.09,67.1],[1047.84,68.06],[1042.63,68.88],[1042.13,69.38],[1041.13,71.88],[1041.08,74.11],[1038.88,76.38],[1038.61,77.87],[1037.63,79.38],[1038.01,80.59],[1037.98,86.17],[1034.5,86.95],[1026.88,90.98],[998.37,90.87],[995.94,90.2],[991.3,86.63],[988.01,85.3],[967.18,84.66],[965.0,83.61],[958.49,77.52],[955.46,75.69],[951.19,75.03],[932.41,74.72],[929.55,73.27],[922.15,66.46],[919.12,64.93],[915.76,64.19],[907.96,63.66],[904.94,62.75],[903.62,61.38],[902.38,61.38],[900.04,62.5],[895.27,62.67],[888.5,58.69],[878.89,56.51],[876.89,55.44],[875.17,53.79],[875.15,52.38],[875.88,51.11],[875.87,49.13],[875.37,48.38],[873.13,48.6],[871.63,47.88],[871.13,48.63],[871.55,50.54],[870.89,51.21],[866.28,50.08],[865.04,49.42],[863.62,46.38],[862.12,44.88],[860.54,44.66],[856.37,42.52],[849.05,41.52],[847.88,40.68],[847.62,38.38],[845.62,36.88],[842.98,36.85],[840.38,35.63],[839.79,35.92],[828.22,34.52],[827.11,34.8],[826.52,35.78]],[[1103.0,166.75],[1107.06,166.99],[1110.29,169.63],[1110.59,170.57],[1109.38,170.88],[1107.54,172.56],[1104.45,171.88],[1102.86,170.03],[1102.42,167.57],[1103.0,166.75]],[[1045.63,80.21],[1048.97,75.05],[1050.0,74.75],[1050.51,75.57],[1049.38,78.38],[1049.46,80.82],[1048.16,82.31],[1047.35,82.52],[1045.94,81.33],[1045.63,80.21]]]}},{"type":"Feature","properties":{"id":"WTR_B006","kind":"river_channel","waterway":"WTR_R08","area_px":3338.6},"geometry":{"type":"Polygon","coordinates":[[[1822.38,517.63],[1822.39,518.64],[1826.38,522.62],[1828.18,522.91],[1833.38,526.12],[1834.62,526.37],[1836.5,525.34],[1842.31,527.64],[1847.88,532.43],[1848.63,534.62],[1850.55,534.87],[1854.2,538.01],[1856.02,542.6],[1856.13,545.12],[1858.38,547.62],[1861.53,549.36],[1867.47,550.39],[1869.69,552.13],[1871.6,554.01],[1872.38,555.63],[1874.75,557.37],[1876.53,559.87],[1877.34,561.99],[1876.38,563.38],[1876.38,564.62],[1879.95,566.92],[1886.17,572.98],[1885.63,576.12],[1886.38,577.62],[1888.66,577.31],[1897.48,586.4],[1897.63,587.12],[1898.53,587.1],[1901.36,588.54],[1901.13,592.12],[1903.88,594.87],[1905.37,594.62],[1907.17,592.67],[1907.85,592.64],[1909.54,597.58],[1911.32,599.65],[1913.79,601.17],[1914.63,602.62],[1916.69,602.12],[1923.69,603.19],[1926.38,605.62],[1929.62,607.13],[1931.2,608.7],[1931.38,611.62],[1932.38,612.62],[1933.62,612.62],[1936.33,610.86],[1942.79,615.31],[1946.0,616.46],[1952.12,617.65],[1955.38,621.62],[1958.85,623.0],[1963.3,626.8],[1964.65,631.51],[1966.28,634.11],[1965.63,635.37],[1967.36,636.86],[1970.13,638.37],[1974.69,638.44],[1977.38,641.62],[1978.62,641.62],[1981.01,638.77],[1981.79,638.71],[1985.57,641.81],[1989.31,647.1],[1994.38,652.87],[1996.54,653.93],[1999.0,654.42],[2001.46,653.93],[2003.54,652.54],[2004.94,650.44],[2005.42,648.0],[2004.93,645.54],[1999.88,639.59],[1999.87,615.13],[1998.88,615.13],[1997.03,616.12],[1991.88,616.13],[1990.09,617.11],[1987.13,617.13],[1984.68,619.79],[1982.81,620.03],[1980.22,617.65],[1980.62,614.38],[1979.62,612.38],[1978.13,610.88],[1977.38,610.63],[1974.64,612.83],[1973.29,612.77],[1970.15,609.64],[1968.37,606.38],[1966.39,606.58],[1965.16,605.64],[1963.37,601.38],[1961.88,601.13],[1960.09,601.6],[1955.87,600.63],[1952.39,600.58],[1951.39,599.59],[1951.12,597.88],[1947.87,594.38],[1945.31,595.49],[1943.12,594.13],[1939.88,594.1],[1934.86,590.1],[1929.72,588.21],[1929.15,587.55],[1929.14,586.44],[1930.37,584.62],[1929.62,580.13],[1928.89,579.88],[1927.64,580.83],[1926.49,580.87],[1924.38,579.63],[1921.72,581.78],[1919.38,581.63],[1917.56,582.84],[1914.38,582.38],[1913.26,582.9],[1910.08,581.93],[1906.74,582.22],[1902.42,583.55],[1898.95,582.9],[1895.83,579.65],[1894.67,575.72],[1897.29,572.22],[1898.87,571.87],[1899.87,571.12],[1900.62,566.38],[1895.73,563.14],[1895.62,560.38],[1893.89,558.03],[1893.87,554.88],[1892.62,552.38],[1890.62,550.38],[1888.38,550.6],[1886.38,549.63],[1884.59,550.59],[1881.88,550.13],[1881.1,550.4],[1878.41,548.0],[1878.38,546.13],[1880.12,542.37],[1879.87,541.13],[1878.87,540.63],[1874.91,541.1],[1873.12,540.13],[1868.96,540.12],[1867.87,539.63],[1865.68,540.59],[1864.41,540.37],[1862.58,538.96],[1860.87,535.88],[1857.12,531.88],[1855.83,531.82],[1853.27,530.39],[1850.42,528.39],[1850.12,527.63],[1849.22,527.58],[1843.12,522.88],[1837.41,520.69],[1832.7,517.61],[1830.81,517.81],[1829.42,519.01],[1828.3,518.81],[1826.12,517.13],[1823.13,517.13],[1822.38,517.63]]]}},{"type":"Feature","properties":{"id":"WTR_B007","kind":"river_channel","waterway":"WTR_C02","area_px":2641.0},"geometry":{"type":"Polygon","coordinates":[[[-6.02,183.01],[-5.47,185.71],[-3.96,187.97],[-0.0,191.83],[0.13,192.87],[1.62,193.15],[5.88,195.87],[8.08,195.65],[8.84,195.99],[14.25,199.99],[19.27,202.66],[22.37,205.66],[23.62,208.71],[21.88,210.87],[23.12,211.12],[24.57,210.51],[25.53,211.43],[25.12,216.11],[25.55,217.61],[24.38,219.37],[26.84,221.36],[27.38,222.62],[31.92,228.14],[33.38,231.62],[38.38,236.62],[40.64,237.16],[43.38,239.62],[44.62,239.62],[48.07,236.58],[50.31,236.5],[52.88,237.87],[55.12,237.87],[56.38,237.15],[57.48,237.12],[59.39,238.01],[64.13,242.79],[69.12,246.38],[70.55,248.39],[69.88,250.62],[72.38,252.62],[78.58,253.13],[81.3,254.91],[81.63,257.62],[84.15,257.91],[86.88,259.87],[88.62,260.12],[90.34,258.29],[92.58,258.11],[97.25,261.05],[102.15,266.04],[104.38,270.62],[112.38,278.62],[118.2,278.85],[123.38,281.37],[126.9,281.46],[129.88,283.87],[133.89,283.89],[142.56,286.67],[143.63,290.62],[145.12,290.87],[146.85,289.91],[148.15,290.09],[153.88,295.87],[159.37,299.37],[160.59,298.53],[162.61,299.04],[164.39,302.28],[165.97,303.91],[174.01,308.1],[178.87,311.52],[180.46,311.97],[181.6,313.14],[181.88,314.37],[183.62,314.12],[184.87,313.12],[185.37,310.88],[184.11,310.59],[182.41,309.16],[179.62,305.88],[177.3,305.83],[174.12,304.13],[170.21,302.88],[167.27,301.09],[165.35,296.88],[160.59,293.35],[159.62,290.38],[157.62,288.38],[156.32,287.81],[151.43,282.74],[151.37,281.38],[150.62,280.38],[145.62,278.38],[143.71,278.62],[140.77,277.58],[138.62,275.38],[136.07,275.59],[131.82,273.61],[126.78,272.52],[124.78,271.48],[121.95,267.23],[121.87,265.13],[121.37,264.38],[119.0,264.79],[115.97,260.89],[115.87,257.13],[115.37,256.38],[112.88,256.13],[111.13,256.57],[107.62,254.63],[104.99,254.97],[102.15,252.61],[101.37,249.38],[99.36,250.77],[96.15,249.71],[89.32,250.48],[87.09,249.47],[86.49,248.8],[86.62,247.38],[85.62,246.38],[83.62,245.38],[81.98,245.45],[79.82,243.51],[76.46,239.78],[75.62,237.38],[74.62,236.38],[73.34,235.84],[70.61,233.37],[68.62,232.38],[67.06,232.41],[64.87,230.38],[64.99,229.58],[65.91,228.88],[67.37,228.62],[67.87,227.87],[67.41,225.41],[68.37,223.38],[67.62,222.63],[64.63,222.13],[63.88,222.63],[63.85,224.55],[62.77,225.73],[60.17,226.5],[56.92,225.54],[55.52,225.7],[53.95,226.17],[51.41,228.07],[49.63,228.39],[45.64,228.15],[43.78,227.33],[40.06,223.78],[39.62,221.63],[37.82,220.69],[40.33,215.11],[40.62,211.3],[40.25,209.36],[38.79,206.14],[34.56,201.14],[34.41,200.04],[35.37,197.38],[33.41,194.89],[33.12,193.38],[29.41,191.88],[27.62,190.38],[25.88,189.63],[23.73,190.57],[22.86,190.35],[20.17,187.67],[19.62,186.38],[15.16,182.64],[14.62,181.38],[11.37,177.38],[4.93,177.12],[2.63,176.13],[0.99,175.98],[-1.69,176.52],[-3.97,178.04],[-5.48,180.31],[-6.02,183.01]]]}},{"type":"Feature","properties":{"id":"WTR_B008","kind":"river_channel","waterway":"WTR_C03","area_px":1433.5},"geometry":{"type":"Polygon","coordinates":[[[1587.5,513.07],[1591.71,520.74],[1590.38,526.62],[1591.38,527.62],[1593.14,528.07],[1593.98,530.28],[1593.38,531.38],[1593.38,532.62],[1595.05,533.52],[1595.35,534.27],[1595.23,535.98],[1593.88,537.38],[1592.63,544.87],[1594.38,548.62],[1595.38,549.62],[1597.88,550.87],[1599.72,550.64],[1606.63,551.68],[1608.75,552.41],[1609.2,553.71],[1608.86,556.9],[1608.46,557.39],[1607.63,557.38],[1607.13,558.13],[1607.38,560.62],[1610.59,564.69],[1615.41,568.77],[1618.43,573.04],[1618.38,574.62],[1620.88,577.12],[1621.87,577.37],[1625.84,576.5],[1627.26,577.36],[1634.38,586.62],[1641.88,591.87],[1645.65,593.37],[1650.48,594.0],[1651.81,594.62],[1653.24,596.38],[1656.13,602.0],[1665.49,611.45],[1668.45,613.27],[1674.68,615.17],[1688.39,628.14],[1691.59,629.61],[1698.17,630.86],[1706.12,637.9],[1715.01,644.19],[1718.84,647.97],[1720.57,651.81],[1720.98,655.31],[1720.82,661.94],[1718.5,666.58],[1719.5,667.91],[1721.12,667.5],[1723.49,663.71],[1724.0,658.26],[1723.69,651.96],[1721.13,644.71],[1721.22,638.76],[1722.77,636.91],[1727.1,634.78],[1729.43,632.68],[1731.62,633.37],[1733.62,631.62],[1733.92,627.86],[1735.4,626.11],[1737.62,624.62],[1737.91,622.85],[1739.62,620.62],[1742.37,613.87],[1742.38,610.13],[1742.87,607.88],[1740.44,604.73],[1740.6,603.35],[1741.57,601.98],[1743.62,601.37],[1744.21,599.27],[1748.95,594.1],[1752.37,587.38],[1751.37,586.63],[1749.07,587.96],[1747.24,585.99],[1745.48,585.7],[1744.64,586.07],[1743.67,587.63],[1743.7,588.53],[1744.81,590.55],[1744.63,591.19],[1737.38,594.38],[1737.3,596.96],[1733.13,601.88],[1732.16,611.5],[1731.63,612.38],[1731.69,614.47],[1727.51,620.15],[1725.77,624.35],[1722.13,628.33],[1719.88,628.88],[1717.17,631.32],[1715.38,631.63],[1713.13,633.13],[1712.88,634.37],[1713.63,635.62],[1715.12,635.87],[1717.44,634.54],[1718.15,634.96],[1717.63,638.14],[1717.94,641.55],[1717.09,641.99],[1708.0,635.56],[1699.64,628.25],[1697.22,627.34],[1692.34,626.7],[1690.14,625.7],[1676.3,612.64],[1668.03,609.63],[1658.45,600.1],[1655.34,594.02],[1655.12,592.38],[1653.7,592.23],[1651.16,591.07],[1646.38,590.45],[1643.61,588.87],[1642.87,587.13],[1639.79,585.92],[1635.1,581.95],[1631.14,576.8],[1626.37,569.38],[1625.63,569.38],[1624.22,571.02],[1622.92,570.7],[1621.17,568.99],[1622.12,567.62],[1622.12,566.88],[1620.62,565.38],[1618.83,565.1],[1612.75,561.64],[1611.72,559.41],[1612.09,552.23],[1612.62,551.62],[1612.62,550.63],[1612.12,550.13],[1602.1,547.14],[1600.46,545.81],[1599.32,543.16],[1599.13,540.54],[1599.68,537.67],[1601.12,537.12],[1602.87,533.63],[1602.12,532.63],[1599.9,532.52],[1599.42,531.4],[1599.39,530.51],[1600.87,529.87],[1601.37,528.13],[1599.33,528.57],[1598.56,528.04],[1597.87,522.88],[1595.63,518.39],[1591.53,514.35],[1590.01,511.89],[1588.36,511.64],[1587.5,513.07]]]}},{"type":"Feature","properties":{"id":"WTR_B009","kind":"river_channel","waterway":"WTR_C04","area_px":820.9},"geometry":{"type":"Polygon","coordinates":[[[1754.13,508.12],[1755.1,509.85],[1755.13,511.14],[1759.13,519.12],[1762.66,520.62],[1769.63,526.62],[1772.21,527.36],[1774.11,528.47],[1774.97,529.97],[1775.13,532.12],[1779.13,539.15],[1779.38,540.62],[1783.07,544.33],[1786.38,548.62],[1793.17,553.9],[1793.13,556.12],[1794.52,558.1],[1795.65,563.9],[1797.05,567.14],[1799.14,570.25],[1799.38,574.62],[1800.38,575.37],[1804.89,574.75],[1808.54,575.96],[1812.02,576.05],[1816.09,575.43],[1819.02,573.85],[1829.84,563.02],[1831.13,560.9],[1833.48,554.87],[1843.76,544.23],[1846.47,540.28],[1845.8,538.73],[1844.68,538.53],[1843.75,539.18],[1840.9,542.93],[1831.06,553.11],[1827.47,561.17],[1818.62,570.22],[1815.15,572.57],[1813.17,572.87],[1811.64,572.5],[1809.76,571.4],[1808.53,569.99],[1808.89,566.91],[1809.87,565.12],[1809.87,563.88],[1807.12,561.13],[1803.45,561.96],[1802.71,561.04],[1802.26,558.51],[1804.37,558.12],[1804.37,557.13],[1801.9,554.08],[1801.88,550.02],[1803.62,547.62],[1803.62,546.38],[1801.62,544.38],[1799.12,543.13],[1798.13,543.13],[1795.37,545.93],[1793.03,544.64],[1791.77,543.38],[1792.62,540.63],[1789.62,538.38],[1786.38,536.87],[1785.26,535.76],[1785.37,532.38],[1782.15,532.65],[1778.63,526.96],[1777.09,525.38],[1776.87,523.63],[1775.88,522.88],[1774.08,524.04],[1769.93,522.88],[1762.56,516.26],[1761.99,515.4],[1762.37,514.38],[1760.96,512.51],[1760.91,511.19],[1761.76,509.74],[1764.67,507.65],[1764.23,505.69],[1762.26,505.36],[1758.43,507.62],[1757.33,507.57],[1755.62,506.38],[1754.63,506.38],[1754.13,508.12]]]}}]}
