{"type":"FeatureCollection","name":"waterways","crs_note":"coordinates are source-image pixels of assets/maps/source/base_map.webp (x right, y down); see docs/COORDINATES.md","features":[{"type":"Feature","properties":{"id":"WTR_R01","name":"Laurel River","class":"river","flows_into":null,"outlet":"map_edge_bottom","source":null,"backwater":false,"elev_spec_m":[332,300],"length_px":996.09,"hidden_fraction":0.008,"width_px":[15.4,15.2,14.9,13.7,14.5,14.7,15.5,16.8,14.8,13.0,12.2,12.1,13.3,13.8,15.8,19.2,17.9,16.9,15.1,14.8,14.5,12.8,12.0,13.7,16.4,18.9,20.6,22.7,17.8,15.2,13.8,13.0,17.1,18.2,18.5,18.0,17.5,17.1,17.1,17.4,18.3,17.3,12.5,11.4,10.5,10.8,11.5,12.2,12.8,13.8,14.6,15.8,15.0,14.8,14.8,15.6,17.6,17.6,16.6,14.4,11.4,10.9,10.5,10.6,10.9,11.4,13.7,15.1,17.9,18.2,19.0,20.2,11.3,8.2,7.5,8.8,10.5,12.6,14.0,14.2,13.9,11.2,9.1,7.0,6.4,6.1,6.1,6.1,5.4,5.8,6.4,7.3,8.8,10.1,11.0,11.5,12.1,12.9,17.8,21.2,23.4,15.3,13.6,14.5,28.1,14.2,11.3,8.2,9.7,13.9,21.4,24.8,24.1,16.5,14.3,13.7,12.9,11.5,10.2,10.0,9.0,8.8,10.8,9.8,8.4,7.8,8.5,9.0,9.2,9.3,9.2,9.1,8.9,8.6,8.1,8.1,8.3,8.7,9.1,10.3,12.3,12.9,13.2,12.5,11.8,13.1,13.6,12.9,5.4,5.0,5.0,6.9,8.0,8.5,8.5,8.5,8.6,8.9,6.3,6.4,7.0,8.2,8.4,8.9,9.1,9.7,14.7,19.7],"direction":"coordinates ordered downstream"},"geometry":{"type":"LineString","coordinates":[[178.0,1.0],[181.76,2.35],[184.34,3.87],[190.46,9.01],[198.14,13.69],[204.39,18.68],[211.25,22.78],[218.13,28.57],[224.72,33.1],[227.62,35.85],[229.43,38.24],[230.26,40.05],[230.81,44.0],[231.31,44.84],[234.22,45.43],[248.22,45.54],[253.18,46.04],[255.99,47.07],[262.75,51.33],[268.41,53.31],[271.87,55.28],[276.99,60.05],[280.84,64.64],[285.82,73.31],[288.79,79.64],[291.77,83.65],[298.82,90.74],[308.44,99.47],[324.04,114.98],[327.9,118.15],[330.58,119.49],[333.49,120.18],[348.48,120.58],[353.39,121.39],[356.07,122.72],[362.25,127.8],[364.83,129.31],[367.7,130.14],[375.68,130.71],[379.58,131.54],[389.27,136.72],[393.35,139.59],[411.01,157.28],[413.02,160.7],[413.11,164.65],[416.81,166.05],[419.27,167.74],[421.33,169.91],[423.47,173.29],[427.44,183.54],[428.26,187.45],[428.12,194.43],[425.27,202.94],[424.98,205.91],[425.53,208.85],[428.8,216.13],[430.26,227.01],[431.51,229.73],[433.97,232.87],[437.52,236.39],[442.88,240.88],[443.63,242.69],[443.85,246.68],[444.72,248.46],[446.17,249.83],[447.95,250.71],[455.71,252.62],[461.24,254.95],[469.4,260.69],[476.26,264.78],[482.35,269.97],[490.51,275.74],[502.19,286.67],[504.59,289.84],[506.71,295.43],[508.94,297.39],[511.69,298.59],[516.52,299.89],[526.47,300.7],[530.39,301.46],[534.86,303.67],[539.18,307.79],[540.72,310.36],[542.14,314.09],[542.61,316.04],[542.48,318.01],[541.14,319.43],[539.23,319.98],[529.25,319.63],[527.27,319.85],[525.5,320.74],[524.42,322.41],[523.86,325.34],[524.12,328.32],[525.26,331.07],[527.31,333.24],[529.96,334.61],[532.89,335.24],[540.87,335.8],[544.69,336.93],[547.98,339.17],[558.27,348.67],[560.05,351.07],[563.49,357.16],[571.9,368.35],[589.14,387.78],[590.4,390.49],[591.37,397.41],[592.58,401.22],[594.84,405.68],[598.69,411.52],[600.06,415.26],[600.33,423.23],[598.73,433.1],[598.3,441.08],[597.73,444.02],[596.45,446.72],[592.92,450.22],[587.37,452.39],[586.73,453.14],[585.01,457.82],[581.97,461.77],[575.15,467.63],[568.34,471.82],[565.3,474.41],[557.96,482.59],[556.58,485.24],[556.03,488.18],[556.26,491.16],[557.1,494.03],[558.06,495.79],[559.43,497.23],[561.2,498.13],[563.18,498.32],[567.86,496.76],[566.1,499.17],[565.48,501.06],[565.5,503.05],[566.09,504.96],[570.1,510.67],[578.23,519.48],[579.66,522.1],[580.29,525.03],[580.86,533.01],[582.26,540.88],[583.72,561.82],[584.39,565.76],[586.54,572.41],[594.43,586.33],[596.06,591.03],[596.04,597.01],[594.09,604.75],[594.2,607.74],[594.95,610.64],[596.59,614.28],[598.25,616.78],[601.57,620.51],[606.0,624.56],[618.07,633.45],[626.6,638.64],[628.71,640.77],[631.49,644.92],[632.35,645.38],[636.33,645.6],[639.9,647.33],[645.99,652.52],[654.12,658.33],[662.0,666.0]]}},{"type":"Feature","properties":{"id":"WTR_C01","name":"Laurel River east slough","class":"creek","flows_into":"WTR_R01","outlet":null,"source":null,"backwater":false,"elev_spec_m":[null,null],"length_px":56.72,"hidden_fraction":0.0,"width_px":[5.7,5.9,7.3,14.2,19.4,21.2,24.3,25.4,27.9],"direction":"coordinates ordered downstream"},"geometry":{"type":"LineString","coordinates":[[650.0,446.0],[647.01,445.91],[642.1,445.08],[628.22,439.55],[619.21,431.73],[616.42,430.72],[611.49,430.03],[609.68,429.21],[601.0,421.0]]}},{"type":"Feature","properties":{"id":"WTR_C02","name":"Mill Creek","class":"creek","flows_into":null,"outlet":"map_edge_left","source":"springs above Laurel City (culverted under downtown)","backwater":false,"elev_spec_m":[346,318],"length_px":243.67,"hidden_fraction":0.0,"width_px":[4.2,3.9,3.1,3.1,3.9,6.3,8.6,8.7,8.6,8.5,8.4,8.5,8.8,9.2,10.2,11.2,12.3,13.1,12.1,9.7,9.3,8.6,8.6,8.6,9.3,9.6,9.8,10.0,10.1,10.3,10.5,9.8,9.5,9.2,9.1,9.4,9.6,9.7,9.6,9.4,9.4,9.5,9.6,10.0,11.6,12.3,12.9,12.9,14.6,15.8,15.6],"direction":"coordinates ordered downstream"},"geometry":{"type":"LineString","coordinates":[[180.0,310.0],[175.02,306.69],[166.94,302.78],[165.57,301.35],[163.86,297.79],[157.73,294.53],[149.35,286.0],[144.14,283.05],[133.85,279.3],[131.73,277.21],[130.5,274.5],[129.26,275.91],[127.5,276.77],[125.52,276.74],[122.68,275.82],[120.23,274.12],[117.35,271.35],[110.74,263.89],[104.43,261.05],[97.01,254.39],[95.14,253.79],[89.2,254.34],[87.24,253.96],[85.46,253.08],[78.14,247.89],[75.96,245.83],[74.34,243.34],[74.18,240.4],[73.7,240.11],[70.86,240.89],[68.11,239.81],[57.94,230.25],[56.07,229.82],[52.72,231.94],[49.78,232.44],[44.8,232.32],[42.87,231.83],[41.13,230.85],[35.38,225.32],[33.19,222.03],[32.97,220.06],[33.7,218.24],[34.46,217.6],[37.01,216.94],[35.02,211.32],[33.54,208.74],[22.93,198.19],[17.71,195.27],[11.69,190.03],[5.41,187.04],[1.0,183.0]]}},{"type":"Feature","properties":{"id":"WTR_R03","name":"Falls Creek","class":"creek","flows_into":"WTR_R04","outlet":null,"source":null,"backwater":false,"elev_spec_m":[425,null],"length_px":692.97,"hidden_fraction":0.093,"width_px":[13.8,14.0,14.3,15.6,14.7,12.6,7.8,6.8,5.5,5.5,6.0,6.5,6.9,7.6,6.0,5.2,4.1,3.3,3.6,4.2,5.4,7.0,7.7,8.2,8.7,9.4,10.1,13.2,11.1,10.3,9.4,7.4,6.8,6.4,9.6,10.1,10.2,9.6,8.8,7.8,6.8,4.9,4.8,4.9,7.4,8.5,9.7,13.6,13.8,13.3,12.4,10.6,9.0,7.4,6.6,6.1,6.1,6.6,7.0,8.2,11.4,12.6,12.9,11.5,10.2,8.0,6.4,4.6,4.0,3.3,3.7,5.1,6.6,8.0,9.6,9.2,7.4,4.8,4.1,5.5,7.2,9.0,11.0,12.6,12.9,16.3,16.3,15.3,14.4,11.9,9.0,8.4,6.7,6.3,6.4,7.0,8.5,13.1,10.3,9.3,9.5,8.5,7.1,8.5,10.2,15.9,15.2,13.9,9.0,7.8,8.1,8.8,11.2,14.0,15.4,16.3,15.4,15.2,13.8,12.9,10.6,8.0,6.0,6.3,7.7,10.9,9.8,8.2,6.2,3.3,3.0,3.0,3.0,3.0,3.0,3.0,3.0,3.0,3.0,3.0,3.0,3.0,3.0,3.0,3.2,4.3,4.4,4.7],"direction":"coordinates ordered downstream"},"geometry":{"type":"LineString","coordinates":[[1016.0,1.0],[1017.63,4.65],[1018.32,7.55],[1018.55,19.53],[1018.97,22.49],[1021.02,25.87],[1026.4,30.32],[1027.54,31.93],[1027.3,36.87],[1029.94,43.31],[1030.53,48.26],[1032.75,47.08],[1034.73,47.08],[1039.27,49.12],[1046.82,51.67],[1048.47,52.8],[1050.5,54.99],[1054.71,61.76],[1054.82,63.73],[1054.04,65.55],[1051.41,68.55],[1046.96,72.55],[1043.14,77.17],[1041.91,79.87],[1041.86,81.85],[1042.47,83.75],[1043.57,85.4],[1056.16,98.23],[1059.6,103.11],[1060.15,105.02],[1060.13,107.01],[1058.31,111.64],[1058.15,113.61],[1061.88,121.74],[1062.77,129.66],[1063.37,131.55],[1064.46,133.22],[1066.7,135.19],[1068.57,135.85],[1070.49,135.46],[1071.78,133.98],[1073.05,128.15],[1073.93,126.37],[1072.8,129.05],[1071.99,135.99],[1072.26,137.95],[1073.48,139.49],[1080.87,142.42],[1089.69,150.51],[1091.34,151.63],[1094.12,152.71],[1098.07,153.06],[1100.76,151.83],[1102.52,149.46],[1102.32,147.53],[1100.63,145.99],[1101.46,146.54],[1102.68,148.09],[1102.86,149.06],[1102.41,150.98],[1100.17,155.4],[1100.81,158.25],[1102.92,160.34],[1107.61,162.0],[1110.02,163.72],[1114.6,169.0],[1117.85,175.18],[1120.75,179.24],[1120.87,181.16],[1116.64,185.34],[1115.74,187.11],[1114.95,191.02],[1115.32,193.97],[1116.82,196.55],[1122.96,203.11],[1124.01,204.79],[1124.25,208.75],[1125.94,213.43],[1126.6,224.39],[1127.31,227.28],[1129.26,229.52],[1131.83,231.05],[1135.65,232.14],[1139.61,232.05],[1140.21,232.8],[1140.78,242.75],[1141.41,244.64],[1143.65,247.94],[1144.44,249.75],[1143.69,254.66],[1143.16,262.62],[1142.6,264.54],[1140.18,268.89],[1139.68,270.82],[1139.65,273.81],[1140.09,275.76],[1141.78,278.19],[1149.1,284.97],[1152.79,292.02],[1163.15,306.71],[1168.83,313.66],[1170.26,317.36],[1170.59,327.33],[1171.67,331.14],[1174.22,334.21],[1187.6,347.66],[1189.42,350.03],[1190.32,352.87],[1191.05,360.8],[1195.31,367.52],[1196.26,370.35],[1196.92,376.3],[1196.38,382.25],[1196.88,387.21],[1198.18,389.89],[1201.28,393.8],[1203.38,399.36],[1204.15,399.98],[1207.97,401.11],[1209.72,402.06],[1212.69,404.71],[1215.27,407.76],[1218.67,417.1],[1218.59,418.09],[1217.38,420.72],[1229.52,432.57],[1231.36,434.93],[1232.88,438.61],[1236.72,441.67],[1241.09,448.33],[1242.84,456.1],[1244.73,459.58],[1249.85,464.3],[1251.68,465.09],[1256.54,466.13],[1257.99,467.46],[1260.14,474.09],[1260.83,484.03],[1261.53,485.9],[1264.4,489.97],[1265.32,492.8],[1265.56,508.78],[1266.08,511.71],[1267.15,513.38],[1271.72,517.2],[1273.33,521.88],[1274.12,522.46],[1276.0,522.0]]}},{"type":"Feature","properties":{"id":"WTR_R04","name":"Hollow Creek","class":"river","flows_into":"WTR_R05","outlet":null,"source":"springs below Stony Knob","backwater":false,"elev_spec_m":[362,null],"length_px":534.11,"hidden_fraction":0.045,"width_px":[5.0,7.9,8.5,9.2,10.9,12.7,7.6,6.2,7.7,10.9,11.8,12.3,12.5,12.9,13.3,13.4,12.9,12.8,13.3,13.9,13.4,11.7,7.5,8.5,15.4,15.2,13.1,10.6,8.3,8.2,6.4,6.5,6.0,5.7,5.0,5.0,5.0,5.0,5.0,5.0,5.7,7.3,8.0,9.0,8.4,7.7,8.3,8.5,6.2,5.9,5.8,5.0,5.0,5.0,5.0,6.1,6.9,6.9,5.1,5.0,5.0,5.0,5.0,5.0,5.4],"direction":"coordinates ordered downstream"},"geometry":{"type":"LineString","coordinates":[[1340.0,572.0],[1327.77,567.62],[1320.01,565.72],[1313.45,563.29],[1301.55,561.91],[1286.05,557.99],[1271.97,552.89],[1258.08,544.98],[1255.27,542.16],[1252.0,535.99],[1250.23,533.57],[1246.43,530.36],[1241.9,528.33],[1238.78,523.23],[1235.97,520.39],[1232.53,518.39],[1224.8,516.38],[1220.38,514.08],[1214.98,509.64],[1207.65,504.42],[1194.15,491.07],[1190.53,486.31],[1186.03,475.2],[1185.03,471.33],[1183.28,459.47],[1181.28,454.92],[1178.02,451.14],[1174.07,448.1],[1161.97,443.41],[1158.08,442.56],[1143.12,441.59],[1134.29,443.25],[1124.37,444.45],[1117.38,444.63],[1111.52,443.39],[1108.54,443.16],[1103.59,443.78],[1096.82,445.53],[1089.83,445.48],[1084.87,444.87],[1076.33,442.06],[1055.9,437.33],[1050.43,434.89],[1039.08,426.72],[1035.63,423.12],[1030.02,414.86],[1026.35,411.48],[1016.74,404.31],[1008.36,398.85],[1004.81,397.04],[1001.89,396.35],[985.95,395.14],[967.04,396.83],[943.44,401.1],[935.25,404.77],[929.37,405.85],[926.38,405.69],[920.53,404.44],[914.55,404.87],[900.56,404.5],[897.59,404.8],[893.96,406.46],[891.0,406.79],[886.13,405.76],[882.0,403.0]]}},{"type":"Feature","properties":{"id":"WTR_R05","name":"South Fork","class":"river","flows_into":null,"outlet":"map_edge_bottom","source":"culvert below US-19 bridge","backwater":false,"elev_spec_m":[352,316],"length_px":398.79,"hidden_fraction":0.03,"width_px":[5.0,5.2,6.7,10.7,11.1,10.4,8.2,7.5,6.9,6.5,7.3,7.9,8.5,8.9,9.2,9.6,10.0,10.3,10.6,11.6,12.1,13.2,13.2,10.2,7.4,5.0,5.0,5.0,5.0,5.5,7.2,9.4,9.8,11.0,11.8,12.3,12.7,12.3,12.2,12.9,11.6,11.4,11.5,10.3,5.7,6.4,7.1,8.4,9.2,9.9,11.1,11.5,12.0,13.5,13.0,15.1,15.8,16.2,16.3,15.4,13.8,11.9,10.8,10.0,8.9,7.8,7.9,8.7,9.5,10.3,10.9,11.6,12.3,12.1,11.7,11.4,11.0,6.2,5.0],"direction":"coordinates ordered downstream"},"geometry":{"type":"LineString","coordinates":[[846.0,389.0],[852.76,390.76],[855.52,391.9],[863.17,398.27],[871.68,403.48],[874.49,404.5],[880.44,405.09],[882.28,405.81],[883.57,407.31],[884.22,409.19],[883.37,417.08],[883.81,419.01],[884.87,420.69],[886.41,421.95],[888.27,422.65],[893.22,422.53],[893.96,426.3],[895.47,428.86],[898.55,431.38],[904.74,434.61],[907.16,436.37],[915.71,446.12],[917.92,450.56],[919.33,459.42],[920.72,464.21],[925.95,472.65],[926.15,475.61],[924.95,481.46],[925.17,483.44],[925.91,485.29],[928.46,488.33],[932.67,490.98],[933.12,491.85],[932.91,495.83],[933.25,498.8],[934.4,501.55],[936.17,503.96],[942.03,509.35],[949.27,512.6],[953.67,520.37],[964.68,531.93],[967.0,535.17],[968.45,539.92],[969.01,544.88],[969.22,553.85],[971.41,564.59],[972.79,567.22],[976.89,571.59],[978.58,574.06],[979.77,576.8],[981.4,582.55],[982.83,585.18],[985.53,588.11],[993.31,594.34],[999.6,603.31],[1008.73,612.53],[1011.2,614.2],[1013.07,614.9],[1019.96,615.98],[1022.78,616.97],[1026.05,619.25],[1029.6,622.74],[1032.56,626.75],[1033.86,630.51],[1033.94,634.48],[1032.78,639.09],[1035.1,635.85],[1037.44,634.0],[1040.28,633.13],[1043.24,633.41],[1045.95,634.65],[1049.06,637.15],[1053.95,642.14],[1057.0,646.08],[1058.38,649.79],[1058.25,651.77],[1057.5,653.62],[1051.16,661.31],[1046.0,666.0]]}},{"type":"Feature","properties":{"id":"WTR_R06","name":"Tanner River","class":"river","flows_into":null,"outlet":"map_edge_right","source":"off-map (north)","backwater":false,"elev_spec_m":[304,284],"length_px":1008.3,"hidden_fraction":0.103,"width_px":[6.1,5.7,5.0,5.0,5.0,5.0,5.0,5.0,5.0,5.0,5.0,5.6,6.5,7.0,7.5,7.9,7.7,7.6,7.6,7.8,8.1,8.7,10.1,14.9,13.0,13.2,14.6,14.8,13.2,11.8,11.2,10.9,10.9,11.5,12.4,12.8,11.7,10.8,9.8,8.3,7.3,7.3,9.0,10.0,11.5,12.7,12.1,10.9,10.1,10.9,12.9,16.5,16.6,16.5,16.5,17.0,19.3,20.2,20.1,20.1,18.7,18.4,19.4,20.3,20.7,23.0,22.3,15.6,11.2,10.8,11.4,12.2,12.2,12.0,10.9,9.0,7.8,5.0,5.0,5.0,5.0,5.0,5.0,5.0,5.0,5.0,5.4,6.3,7.2,8.0,8.8,9.1,11.2,13.2,13.7,15.2,16.1,19.0,19.7,16.0,16.5,16.1,9.0,6.9,9.5,19.3,21.3,23.5,23.7,23.6,19.8,14.2,12.8,11.8,11.1,11.8,13.7,16.8,17.2,15.5,14.8,16.3,17.5,18.8,18.9,17.2,17.2,19.5,12.4,10.5,10.2,14.7,20.4,22.8,23.0,21.1,13.7,6.3,6.0,7.4,12.1,15.6,26.6,27.7,28.0,25.2,24.0,23.9,26.9,27.8,27.8,26.9,29.7,36.1,39.6,38.9,25.8,22.9,20.2,19.7,18.7,18.4,18.5,19.6,21.5,22.2,23.3,24.8],"direction":"coordinates ordered downstream"},"geometry":{"type":"LineString","coordinates":[[1575.0,0.5],[1571.2,1.74],[1567.76,3.75],[1565.74,5.94],[1564.43,8.63],[1563.35,12.48],[1562.66,17.42],[1562.46,45.4],[1561.92,50.36],[1560.47,54.07],[1556.74,59.98],[1553.31,61.91],[1551.41,64.22],[1549.76,65.34],[1546.9,66.18],[1536.93,66.83],[1526.09,68.6],[1523.17,68.05],[1520.29,65.7],[1518.56,68.15],[1517.02,69.41],[1514.28,70.61],[1510.35,71.29],[1490.37,71.48],[1480.43,70.69],[1477.67,71.82],[1471.78,75.59],[1468.05,76.99],[1457.1,77.85],[1447.3,79.76],[1444.31,79.73],[1441.37,79.16],[1440.52,79.61],[1438.34,82.96],[1435.53,85.79],[1425.76,92.75],[1423.11,94.12],[1421.15,94.5],[1419.17,94.31],[1416.43,93.14],[1413.05,91.0],[1412.47,91.12],[1414.35,95.71],[1414.25,97.7],[1413.02,100.41],[1409.71,104.15],[1405.9,107.36],[1402.44,109.35],[1398.65,110.59],[1400.89,114.82],[1401.43,118.77],[1401.35,127.76],[1400.16,134.65],[1400.25,137.63],[1400.92,139.5],[1402.51,142.04],[1407.22,147.21],[1412.28,152.04],[1415.61,154.22],[1424.24,156.69],[1431.2,160.59],[1440.47,164.32],[1449.14,166.65],[1456.16,170.47],[1460.05,171.32],[1474.98,172.59],[1479.77,173.93],[1489.53,180.88],[1495.49,187.48],[1498.33,184.74],[1502.16,183.71],[1508.13,184.03],[1510.94,185.05],[1512.62,186.12],[1515.47,188.91],[1517.18,192.48],[1517.18,194.47],[1515.65,202.3],[1515.52,212.29],[1516.06,218.25],[1517.62,221.91],[1520.8,225.75],[1527.25,232.02],[1530.52,234.3],[1537.57,238.04],[1546.36,246.19],[1553.25,251.96],[1554.4,253.59],[1554.76,255.52],[1553.77,257.21],[1552.06,258.24],[1551.7,258.92],[1555.54,262.1],[1560.88,268.05],[1563.29,271.24],[1566.37,276.37],[1567.9,277.64],[1573.48,279.8],[1576.01,281.4],[1588.16,293.26],[1590.55,295.06],[1597.96,298.03],[1605.1,303.48],[1608.53,305.53],[1614.88,308.44],[1624.34,311.63],[1626.86,313.25],[1632.2,317.76],[1634.78,319.28],[1638.63,320.27],[1648.59,321.05],[1655.33,322.86],[1657.1,323.79],[1658.51,325.2],[1660.6,329.72],[1661.8,331.31],[1664.38,332.78],[1668.32,333.4],[1683.31,333.58],[1688.27,334.13],[1693.05,335.55],[1701.12,339.51],[1708.85,341.52],[1716.79,345.68],[1720.72,346.37],[1731.71,346.66],[1735.63,347.39],[1745.69,351.81],[1755.36,358.87],[1758.05,360.2],[1760.92,361.04],[1766.89,361.45],[1771.86,361.03],[1774.7,360.1],[1780.8,356.69],[1784.67,355.73],[1802.65,355.37],[1812.48,353.65],[1816.44,353.8],[1818.88,355.47],[1821.13,359.91],[1823.0,362.23],[1832.27,369.82],[1834.86,371.33],[1838.73,372.28],[1854.65,373.59],[1860.49,374.93],[1865.04,376.98],[1872.02,382.63],[1875.49,384.57],[1879.4,385.35],[1890.36,386.11],[1897.1,387.9],[1905.11,391.99],[1912.89,398.25],[1916.51,399.88],[1931.42,401.28],[1935.3,402.2],[1942.79,404.98],[1953.72,405.96],[1962.48,408.0],[1966.08,409.72],[1973.69,416.18],[1980.55,420.27],[1986.69,425.38],[1989.2,427.01],[1993.02,428.13],[1999.0,428.0]]}},{"type":"Feature","properties":{"id":"WTR_R06B","name":"Tanner River slough","class":"slough","flows_into":"WTR_R06","outlet":null,"source":null,"backwater":true,"elev_spec_m":[null,null],"length_px":196.48,"hidden_fraction":0.0,"width_px":[9.9,11.2,12.8,14.1,14.2,14.9,17.9,18.5,18.9,19.0,19.4,19.9,19.6,17.1,18.5,19.8,21.2,19.2,16.8,15.6,14.0,17.7,17.9,18.1,19.4,20.6,23.5,23.9,24.9,25.9],"direction":"coordinates ordered downstream"},"geometry":{"type":"LineString","coordinates":[[1616.0,214.0],[1613.52,210.88],[1612.66,208.02],[1612.48,192.03],[1611.97,188.08],[1610.1,184.56],[1603.6,176.99],[1602.68,174.16],[1602.19,169.19],[1601.42,167.36],[1598.92,165.83],[1593.95,165.34],[1591.1,164.47],[1583.35,158.16],[1577.53,152.68],[1574.02,150.84],[1563.05,150.36],[1555.28,148.58],[1545.29,148.3],[1538.51,146.6],[1524.65,144.66],[1510.67,144.7],[1508.74,145.22],[1507.02,146.23],[1500.97,151.43],[1495.51,153.89],[1487.32,161.21],[1485.51,162.03],[1478.65,163.28],[1470.0,170.0]]}},{"type":"Feature","properties":{"id":"WTR_R06C","name":"Tanner River south arm","class":"river","flows_into":null,"outlet":"map_edge_right","source":null,"backwater":false,"elev_spec_m":[null,281],"length_px":170.74,"hidden_fraction":0.058,"width_px":[39.4,37.1,27.1,22.1,19.1,15.3,14.5,13.0,12.2,12.7,14.4,18.4,18.0,17.7,15.4,15.4,16.7,18.0,15.3,13.9,12.6,12.6,12.5,11.6,9.1,6.4,5.0,5.0],"direction":"coordinates ordered downstream"},"geometry":{"type":"LineString","coordinates":[[1915.0,398.0],[1917.29,403.49],[1922.93,410.43],[1924.73,413.95],[1925.3,416.88],[1925.91,426.8],[1926.77,431.69],[1928.85,436.17],[1933.67,441.19],[1934.66,442.9],[1935.4,446.79],[1935.77,457.72],[1937.32,462.41],[1940.38,466.31],[1953.45,479.94],[1954.83,482.57],[1956.69,488.24],[1958.84,491.57],[1973.43,506.5],[1976.63,508.83],[1984.46,510.11],[1987.22,511.21],[1989.66,512.92],[1993.19,516.42],[1996.0,520.5],[1997.5,524.18],[1998.3,528.07],[1999.0,535.0]]}},{"type":"Feature","properties":{"id":"WTR_R07","name":"North Branch","class":"river","flows_into":"WTR_R06","outlet":null,"source":"off-map (north-east)","backwater":false,"elev_spec_m":[318,null],"length_px":701.16,"hidden_fraction":0.007,"width_px":[5.0,5.0,5.0,5.0,6.3,6.8,7.1,7.5,8.0,8.1,8.7,9.1,9.6,10.6,11.5,9.0,6.3,7.1,7.2,7.4,7.4,7.6,7.6,7.6,7.6,8.0,9.2,9.8,11.1,10.3,9.1,8.1,7.6,9.6,13.8,15.4,14.4,13.3,13.1,12.5,12.3,12.2,11.9,11.3,10.6,9.4,8.5,7.5,6.3,5.0,5.0,5.0,5.0,5.0,5.0,5.0,5.1,6.2,6.3,7.7,8.2,6.1,5.0,5.0,5.0,5.0,5.0,5.0,5.4,8.5,14.0,18.2,18.9,19.0,17.6,14.0,13.5,12.9,10.6,9.7,8.9,9.0,9.5,10.8,12.8,12.8,14.0,14.9,15.5,15.6,15.8,16.1,16.7,16.5,13.7,13.3,13.4,13.6,14.9,14.5,13.9,13.1,12.8,12.7,12.7,12.2,11.2,10.2,8.5,6.5,6.6,7.3,8.3,9.9,11.2,11.8,12.8,13.1,12.2,11.4,10.7,10.6,10.6,10.7,11.3,12.8,13.1,12.2,10.7,9.8,8.9,8.8,9.1,9.3,10.3,10.9,11.1,11.0,10.9,10.6,9.6,9.1,7.4,5.0],"direction":"coordinates ordered downstream"},"geometry":{"type":"LineString","coordinates":[[1962.0,38.0],[1960.64,36.6],[1959.66,36.42],[1957.72,36.85],[1946.84,43.89],[1944.88,46.15],[1943.97,47.92],[1943.49,49.86],[1943.52,52.85],[1943.03,53.56],[1939.12,54.17],[1936.59,55.75],[1934.39,57.78],[1930.2,63.37],[1926.28,71.45],[1923.97,80.13],[1921.39,87.69],[1919.06,105.51],[1917.89,108.25],[1915.72,110.29],[1915.58,111.16],[1918.05,114.29],[1919.2,117.05],[1919.8,120.99],[1919.39,124.96],[1917.96,128.68],[1914.44,134.72],[1912.52,137.02],[1908.16,141.07],[1910.02,152.84],[1910.06,155.84],[1909.44,158.76],[1907.39,162.17],[1902.29,166.92],[1900.52,173.64],[1899.13,176.29],[1891.14,185.21],[1889.69,187.78],[1890.43,188.25],[1893.42,188.33],[1895.34,188.86],[1897.87,190.45],[1899.94,192.61],[1901.57,195.12],[1902.26,196.99],[1902.11,199.95],[1901.13,201.67],[1899.68,203.04],[1897.1,204.56],[1888.59,207.45],[1881.26,210.61],[1875.4,211.79],[1871.47,211.17],[1870.64,211.52],[1869.63,213.24],[1868.03,214.41],[1859.16,215.64],[1851.77,218.66],[1845.11,220.78],[1832.37,223.27],[1823.78,225.91],[1814.84,226.84],[1806.05,228.71],[1802.06,228.81],[1796.2,227.64],[1790.86,224.95],[1786.01,225.93],[1784.02,225.83],[1782.14,225.18],[1779.29,222.44],[1776.31,217.23],[1772.33,211.49],[1771.15,208.74],[1769.4,201.98],[1765.46,195.04],[1761.78,185.75],[1761.53,183.78],[1761.81,181.81],[1764.22,176.33],[1764.67,174.38],[1764.45,171.41],[1763.42,168.6],[1762.34,166.92],[1760.19,164.86],[1750.82,159.16],[1750.35,158.3],[1749.81,152.34],[1748.68,149.58],[1746.93,147.15],[1740.02,139.93],[1737.54,136.8],[1736.28,134.09],[1734.83,127.26],[1733.65,124.51],[1725.31,114.58],[1720.6,108.12],[1718.67,104.63],[1717.82,101.75],[1716.49,93.88],[1714.31,86.2],[1714.75,83.26],[1717.02,77.71],[1717.8,74.82],[1718.14,70.85],[1717.68,67.89],[1715.83,64.38],[1713.71,62.27],[1712.02,61.21],[1709.14,60.45],[1703.99,60.46],[1705.86,59.78],[1707.23,58.36],[1707.93,56.5],[1708.15,53.52],[1707.59,50.58],[1706.78,48.76],[1702.95,44.18],[1698.9,41.27],[1690.05,36.66],[1687.1,36.19],[1683.19,36.95],[1682.55,36.42],[1682.27,34.45],[1681.41,32.66],[1679.2,30.66],[1672.86,27.72],[1665.06,23.26],[1656.49,20.65],[1649.9,14.56],[1644.93,11.21],[1634.53,7.71],[1631.55,7.58],[1627.67,8.48],[1626.74,8.2],[1623.54,4.42],[1620.03,2.52],[1616.26,1.22],[1612.3,0.71],[1608.34,1.13],[1604.68,2.69],[1600.73,5.75],[1598.93,6.59],[1591.02,7.62],[1570.0,14.0]]}},{"type":"Feature","properties":{"id":"WTR_R08","name":"Rail Yard Run","class":"creek","flows_into":null,"outlet":"map_edge_right","source":null,"backwater":false,"elev_spec_m":[300,281],"length_px":239.97,"hidden_fraction":0.0,"width_px":[5.6,5.4,4.7,6.8,7.2,7.8,8.4,8.6,8.7,9.1,9.5,9.8,10.0,11.2,12.8,11.6,10.6,7.6,5.2,4.0,4.4,5.5,8.6,9.6,10.1,10.5,11.0,11.9,16.9,16.8,16.4,11.7,9.9,8.7,9.4,11.1,14.6,16.5,17.1,14.7,14.4,14.9,15.5,16.2,17.3,16.6,14.5,14.2,14.3],"direction":"coordinates ordered downstream"},"geometry":{"type":"LineString","coordinates":[[1832.0,520.0],[1835.27,522.26],[1843.47,525.85],[1856.1,535.54],[1857.45,537.0],[1858.84,539.64],[1860.71,544.25],[1861.13,548.18],[1861.5,548.58],[1864.7,546.25],[1867.63,545.84],[1870.41,546.85],[1873.43,549.44],[1880.39,556.55],[1883.91,562.55],[1889.13,568.55],[1890.0,570.34],[1891.24,575.15],[1892.94,578.75],[1897.45,584.03],[1899.11,585.12],[1901.94,586.06],[1908.88,585.91],[1911.55,587.13],[1912.71,588.73],[1913.24,590.64],[1913.2,592.62],[1912.46,595.35],[1927.39,595.59],[1931.17,596.69],[1935.64,600.64],[1943.14,608.61],[1943.87,611.44],[1942.35,614.39],[1945.47,611.92],[1948.22,610.78],[1953.18,610.58],[1956.99,611.59],[1960.08,614.1],[1967.75,621.92],[1969.42,624.38],[1970.69,628.15],[1971.8,629.75],[1973.67,630.37],[1981.62,630.75],[1984.38,631.83],[1990.17,637.28],[1994.18,642.96],[1999.0,648.0]]}},{"type":"Feature","properties":{"id":"WTR_R06D","name":"Tanner River east channel","class":"river","flows_into":"WTR_R06","outlet":null,"source":"off-map (east)","backwater":false,"elev_spec_m":[300,null],"length_px":199.25,"hidden_fraction":0.0,"width_px":[7.8,7.1,6.1,5.0,5.0,5.0,5.0,5.5,6.5,7.8,9.6,10.5,9.2,10.7,12.2,12.8,12.8,11.8,11.2,10.9,11.0,13.1,13.9,14.1,14.9,15.0,14.5,8.6,7.0,6.4,6.2,6.6,7.2,8.2,10.6,13.6,30.0,33.8,35.2],"direction":"coordinates ordered downstream"},"geometry":{"type":"LineString","coordinates":[[1999.0,272.0],[1995.0,272.15],[1992.06,272.71],[1985.17,276.73],[1981.4,278.01],[1978.41,278.22],[1970.43,277.78],[1967.47,278.2],[1964.88,279.65],[1963.17,281.99],[1959.3,281.04],[1956.3,280.88],[1946.42,282.34],[1933.42,282.56],[1929.46,283.05],[1926.91,284.55],[1923.01,291.5],[1917.54,297.32],[1914.34,299.71],[1909.61,301.24],[1908.88,301.86],[1909.45,310.82],[1908.81,316.77],[1906.49,321.16],[1899.36,329.51],[1897.95,333.23],[1897.55,337.21],[1897.29,349.2],[1897.7,352.16],[1898.61,353.93],[1901.86,357.73],[1902.75,359.5],[1902.87,361.48],[1902.08,364.35],[1905.86,367.46],[1907.2,371.19],[1907.41,385.18],[1906.91,389.14],[1906.0,392.0]]}},{"type":"Feature","properties":{"id":"WTR_C03","name":"Quarry Run","class":"creek","flows_into":"WTR_C05","outlet":null,"source":null,"backwater":false,"elev_spec_m":[352,null],"length_px":204.15,"hidden_fraction":0.383,"width_px":[3.3,3.5,4.7,5.2,5.9,5.2,5.2,5.6,5.7,5.6,5.4,4.7,3.2,3.1,3.1,3.7,4.1,4.8,5.2,5.1,4.6,4.5,3.7,3.9,3.4,3.0,3.0,3.0,3.0,3.0,3.0,3.0,3.0,3.0,3.0,3.0,3.0,3.0,3.0,3.0,3.0,3.0],"direction":"coordinates ordered downstream"},"geometry":{"type":"LineString","coordinates":[[1589.0,513.0],[1589.9,514.78],[1593.1,518.6],[1594.01,520.37],[1594.99,525.26],[1597.67,533.84],[1597.71,535.83],[1596.61,540.68],[1596.77,543.66],[1597.38,545.56],[1598.51,547.19],[1600.96,548.88],[1608.73,550.71],[1610.31,551.85],[1610.7,553.77],[1610.22,560.72],[1611.76,563.23],[1616.56,566.79],[1620.95,572.2],[1622.72,573.09],[1626.65,573.76],[1627.47,574.31],[1633.96,583.16],[1637.61,586.54],[1645.05,591.56],[1650.92,592.55],[1652.71,593.4],[1654.08,594.84],[1656.19,599.36],[1657.91,601.8],[1667.18,610.87],[1668.92,611.84],[1673.76,613.04],[1675.54,613.94],[1687.77,625.7],[1690.16,627.48],[1692.03,628.17],[1696.97,628.82],[1699.69,630.04],[1707.08,636.74],[1715.29,642.41],[1721.0,648.0]]}},{"type":"Feature","properties":{"id":"WTR_C04","name":"Depot Branch","class":"creek","flows_into":"WTR_R08","outlet":null,"source":null,"backwater":false,"elev_spec_m":[326,null],"length_px":141.83,"hidden_fraction":0.368,"width_px":[4.0,4.1,4.4,4.4,4.2,3.5,4.4,5.0,6.4,7.9,7.9,8.1,8.3,8.4,8.5,8.6,7.7,5.5,4.1,3.1,3.0,3.0,3.0,3.0,3.0,3.0,3.0,3.0],"direction":"coordinates ordered downstream"},"geometry":{"type":"LineString","coordinates":[[1763.0,507.0],[1760.41,508.45],[1758.95,510.98],[1759.16,513.93],[1760.42,516.62],[1768.53,523.91],[1774.07,526.07],[1776.45,527.81],[1778.9,533.23],[1783.74,539.54],[1789.51,546.38],[1794.35,549.86],[1796.4,552.01],[1797.86,555.69],[1799.2,562.52],[1800.91,566.1],[1804.72,570.67],[1808.73,573.57],[1811.6,574.32],[1814.58,574.25],[1817.35,573.19],[1819.66,571.31],[1828.69,562.06],[1829.73,560.36],[1831.27,555.64],[1832.3,553.95],[1841.99,543.95],[1845.0,540.0]]}},{"type":"Feature","properties":{"id":"WTR_C05","name":"Hemlock Spring","class":"creek","flows_into":null,"outlet":"map_edge_bottom","source":null,"backwater":false,"elev_spec_m":[345,300],"length_px":102.45,"hidden_fraction":0.267,"width_px":[5.2,5.5,5.6,5.9,6.9,7.1,7.4,7.5,8.1,9.0,9.5,9.0,8.0,6.8,6.1,5.4,6.3,7.2,7.6,7.7,5.6,4.4,3.0,3.0,3.0,3.0,3.0,3.0],"direction":"coordinates ordered downstream"},"geometry":{"type":"LineString","coordinates":[[1746.0,588.0],[1747.36,590.63],[1747.31,591.61],[1746.28,593.29],[1740.26,598.54],[1738.6,599.63],[1735.77,600.59],[1735.28,601.3],[1736.21,604.14],[1736.49,608.11],[1736.33,614.09],[1735.44,616.93],[1733.41,619.09],[1730.59,619.87],[1728.72,619.22],[1726.14,617.14],[1729.35,620.94],[1730.05,623.8],[1729.55,625.72],[1726.35,630.77],[1721.01,635.2],[1719.56,637.77],[1719.77,645.73],[1721.98,651.26],[1722.48,655.21],[1722.09,663.16],[1721.27,664.96],[1720.0,666.5]]}},{"type":"Feature","properties":{"id":"WTR_C06","name":"Laurel Branch","class":"creek","flows_into":"WTR_R03","outlet":null,"source":null,"backwater":false,"elev_spec_m":[470,null],"length_px":249.87,"hidden_fraction":0.619,"width_px":[3.0,3.0,3.7,3.8,3.8,3.6,3.5,3.0,3.1,3.4,3.8,4.2,4.5,4.6,3.3,3.0,3.0,3.0,3.0,3.0,3.0,3.0,3.0,3.0,3.0,3.0,3.0,3.0,3.0,3.0,3.0,3.0,3.0,3.0,3.0,3.0,3.0,3.0,4.3,11.3,12.4,13.4,15.1],"direction":"coordinates ordered downstream"},"geometry":{"type":"LineString","coordinates":[[828.0,36.0],[836.95,36.86],[841.76,38.17],[844.14,39.93],[844.59,40.82],[844.75,42.79],[845.36,43.27],[854.33,43.66],[857.22,44.42],[858.92,45.45],[860.25,46.92],[860.7,48.84],[860.16,50.74],[870.71,53.37],[877.49,57.54],[880.31,58.54],[888.12,60.17],[894.02,63.87],[896.97,64.33],[902.93,63.87],[908.73,65.32],[915.72,65.69],[918.63,66.35],[922.09,68.3],[928.65,74.46],[931.23,75.95],[935.17,76.48],[952.16,76.58],[955.09,77.17],[957.61,78.76],[964.2,84.87],[966.89,86.14],[987.84,86.79],[990.58,87.96],[995.34,91.58],[999.21,92.44],[1026.19,92.57],[1028.14,92.19],[1035.34,88.79],[1046.27,89.7],[1048.19,90.21],[1049.92,91.2],[1055.0,96.0]]}}]}
