{"type":"FeatureCollection","name":"ridge_skeleton","crs_note":"coordinates are source-image pixels of assets/maps/source/base_map.webp (x right, y down); see docs/COORDINATES.md","features":[{"type":"Feature","properties":{"id":"R01","kind":"main","crest_m":[564.9,432.1],"rock":0.7},"geometry":{"type":"LineString","coordinates":[[385.0,-25.0],[388.26,-22.7],[391.48,-20.34],[394.67,-17.94],[397.84,-15.52],[401.0,-13.09],[404.17,-10.66],[407.36,-8.26],[410.57,-5.89],[413.82,-3.58],[417.12,-1.34],[420.49,0.81],[423.92,2.85],[427.43,4.74],[431.03,6.47],[434.71,8.0],[438.47,9.33],[442.29,10.51],[446.14,11.55],[450.02,12.49],[453.91,13.37],[457.81,14.21],[461.71,15.05],[465.6,15.93],[469.48,16.86],[473.34,17.89],[477.16,19.04],[480.93,20.33],[484.69,21.68],[488.44,23.05],[492.18,24.43],[495.91,25.84],[499.63,27.29],[503.34,28.78],[507.02,30.31],[510.68,31.91],[514.31,33.56],[517.91,35.29],[521.46,37.1],[524.97,39.01],[528.41,41.02],[531.79,43.15],[535.1,45.38],[538.34,47.7],[541.52,50.11],[544.63,52.61],[547.69,55.18],[550.68,57.82],[553.61,60.53],[556.49,63.29],[559.32,66.1],[562.11,68.96],[564.86,71.85],[567.55,74.8],[570.16,77.81],[572.7,80.89],[575.17,84.03],[577.58,87.21],[579.94,90.42],[582.26,93.67],[584.54,96.94],[586.8,100.24],[589.03,103.55],[591.24,106.86],[593.44,110.19],[595.59,113.56],[597.69,116.95],[599.74,120.37],[601.76,123.82],[603.75,127.28],[605.71,130.75],[607.66,134.23],[609.61,137.72],[611.55,141.2],[613.49,144.69],[615.41,148.19],[617.3,151.7],[619.17,155.23],[621.03,158.76],[622.88,162.29],[624.74,165.83],[626.6,169.36],[628.0,172.0]]}},{"type":"Feature","properties":{"id":"R02","kind":"main","crest_m":[567.0,421.9],"rock":0.75},"geometry":{"type":"LineString","coordinates":[[598.0,-25.0],[599.62,-21.35],[601.24,-17.7],[602.87,-14.06],[604.49,-10.41],[606.12,-6.76],[607.74,-3.11],[609.36,0.53],[610.98,4.18],[612.61,7.83],[614.23,11.48],[615.84,15.13],[617.46,18.78],[619.07,22.43],[620.66,26.09],[622.25,29.76],[623.82,33.43],[625.39,37.1],[626.96,40.77],[628.53,44.44],[630.11,48.11],[631.7,51.77],[633.31,55.42],[634.93,59.07],[636.58,62.7],[638.26,66.33],[639.97,69.94],[641.72,73.53],[643.5,77.1],[645.31,80.66],[647.15,84.2],[649.01,87.73],[650.88,91.26],[652.76,94.78],[654.65,98.3],[656.53,101.82],[658.41,105.34],[660.28,108.87],[662.13,112.41],[663.96,115.96],[665.76,119.52],[667.51,123.11],[669.21,126.72],[670.88,130.35],[672.53,133.98],[674.17,137.62],[675.82,141.26],[677.49,144.88],[679.19,148.5],[680.93,152.09],[682.73,155.65],[684.61,159.18],[686.58,162.65],[688.66,166.06],[690.78,169.44],[692.93,172.8],[695.13,176.13],[697.39,179.42],[699.74,182.65],[702.19,185.8],[704.77,188.85],[707.49,191.78],[710.36,194.55],[713.4,197.14],[716.64,199.46],[720.05,201.54],[723.56,203.43],[727.15,205.19],[730.77,206.87],[734.4,208.54],[738.0,210.25],[741.56,212.07],[745.04,214.02],[748.46,216.08],[751.86,218.17],[755.24,220.29],[758.61,222.43],[761.97,224.59],[765.31,226.78],[768.65,228.97],[771.97,231.19],[775.28,233.42],[778.58,235.66],[781.88,237.92],[785.16,240.19],[788.41,242.5],[791.65,244.84],[794.88,247.19],[798.09,249.56],[801.3,251.94],[804.51,254.31],[807.72,256.69],[810.93,259.05],[814.16,261.4],[817.41,263.72],[820.67,266.03],[823.94,268.32],[827.21,270.6],[830.49,272.89],[833.76,275.18],[837.02,277.48],[840.27,279.8],[843.5,282.15],[846.71,284.53],[849.91,286.91],[853.1,289.3],[856.29,291.7],[859.47,294.12],[862.62,296.57],[865.75,299.05],[868.84,301.58],[871.89,304.16],[874.89,306.79],[877.86,309.46],[880.81,312.15],[883.73,314.87],[886.61,317.64],[889.43,320.46],[892.2,323.34],[894.88,326.3],[897.47,329.34],[899.91,332.5],[902.19,335.78],[904.33,339.15],[906.37,342.57],[908.39,346.02],[910.42,349.45],[912.0,352.0]]}},{"type":"Feature","properties":{"id":"R04","kind":"main","crest_m":[551.2,460.3],"rock":0.35},"geometry":{"type":"LineString","coordinates":[[712.0,-30.0],[715.24,-27.66],[718.43,-25.24],[721.57,-22.76],[724.69,-20.26],[727.81,-17.76],[730.95,-15.29],[734.13,-12.86],[737.37,-10.51],[740.67,-8.26],[744.07,-6.14],[747.55,-4.17],[751.13,-2.39],[754.8,-0.8],[758.52,0.67],[762.29,2.01],[766.09,3.25],[769.93,4.39],[773.78,5.44],[777.67,6.41],[781.57,7.3],[785.48,8.11],[789.41,8.87],[793.35,9.55],[797.3,10.18],[801.26,10.74],[805.23,11.26],[809.2,11.71],[813.18,12.11],[817.17,12.41],[821.16,12.6],[825.16,12.69],[829.16,12.69],[833.16,12.61],[837.16,12.47],[841.15,12.28],[845.15,12.03],[849.14,11.76],[853.12,11.46],[857.11,11.14],[861.1,10.82],[865.09,10.5],[869.07,10.2],[873.07,9.93],[877.05,9.59],[881.03,9.19],[885.0,8.73],[888.97,8.23],[892.94,7.7],[896.9,7.16],[900.86,6.62],[904.83,6.09],[908.79,5.58],[912.77,5.12],[916.75,4.71],[920.73,4.37],[924.72,4.13],[928.72,4.0],[932.72,4.01],[936.72,4.12],[940.72,4.31],[944.71,4.57],[948.69,4.9],[952.67,5.31],[956.64,5.79],[960.6,6.35],[964.55,6.99],[968.48,7.72],[972.39,8.56],[976.28,9.52],[980.11,10.65],[983.86,12.04],[987.51,13.68],[991.08,15.48],[994.62,17.34],[998.19,19.15],[1000.0,20.0]]}},{"type":"Feature","properties":{"id":"R05","kind":"secondary","crest_m":[514.5,416.7],"rock":0.45},"geometry":{"type":"LineString","coordinates":[[752.0,58.0],[755.87,58.96],[759.74,59.92],[763.61,60.88],[767.48,61.84],[771.35,62.79],[775.21,63.75],[779.08,64.71],[782.95,65.67],[786.82,66.64],[790.68,67.61],[794.55,68.6],[798.41,69.59],[802.27,70.58],[806.13,71.56],[810.0,72.52],[813.87,73.47],[817.74,74.42],[821.61,75.38],[825.48,76.35],[829.34,77.34],[833.19,78.36],[837.04,79.41],[840.87,80.5],[844.69,81.64],[848.49,82.84],[852.27,84.09],[856.03,85.44],[859.75,86.86],[863.44,88.36],[867.12,89.9],[870.77,91.49],[874.41,93.11],[878.05,94.74],[881.69,96.37],[885.33,97.99],[888.99,99.58],[892.66,101.13],[896.36,102.62],[900.08,104.03],[903.84,105.35],[907.63,106.6],[911.44,107.78],[915.26,108.91],[919.09,110.02],[922.92,111.11],[926.75,112.22],[930.57,113.36],[934.38,114.55],[938.16,115.81],[941.9,117.17],[945.6,118.65],[949.28,120.18],[952.95,121.74],[956.6,123.35],[960.22,125.02],[963.8,126.77],[967.33,128.62],[970.79,130.6],[974.16,132.72],[977.4,135.05],[980.42,137.64],[983.25,140.45],[985.94,143.39],[988.59,146.37],[991.3,149.29],[992.0,150.0]]}},{"type":"Feature","properties":{"id":"R06","kind":"main","crest_m":[635.8,439.1],"rock":0.9},"geometry":{"type":"LineString","coordinates":[[1055.0,-30.0],[1057.9,-27.26],[1060.78,-24.49],[1063.64,-21.71],[1066.48,-18.91],[1069.32,-16.1],[1072.16,-13.29],[1075.0,-10.49],[1077.85,-7.7],[1080.72,-4.93],[1083.62,-2.18],[1086.54,0.54],[1089.5,3.22],[1092.5,5.85],[1095.55,8.43],[1098.65,10.94],[1101.81,13.38],[1105.03,15.73],[1108.31,18.01],[1111.63,20.22],[1114.99,22.38],[1118.38,24.49],[1121.79,26.56],[1125.21,28.62],[1128.64,30.66],[1132.07,32.7],[1135.49,34.75],[1138.91,36.82],[1142.3,38.93],[1145.66,41.08],[1148.98,43.3],[1152.26,45.57],[1155.53,47.86],[1158.79,50.16],[1162.04,52.48],[1165.27,54.81],[1168.5,57.17],[1171.7,59.54],[1174.89,61.94],[1178.06,64.37],[1181.21,66.82],[1184.33,69.31],[1187.42,71.84],[1190.47,74.41],[1193.43,77.08],[1196.29,79.87],[1199.06,82.74],[1201.8,85.65],[1204.54,88.55],[1207.34,91.39],[1210.25,94.13],[1213.3,96.7],[1216.51,99.07],[1219.88,101.21],[1223.35,103.18],[1226.89,105.02],[1230.47,106.78],[1234.07,108.51],[1237.65,110.26],[1241.21,112.08],[1244.71,114.0],[1248.12,116.07],[1251.46,118.25],[1254.77,120.48],[1258.06,122.74],[1261.32,125.05],[1264.54,127.41],[1267.72,129.82],[1270.86,132.28],[1273.96,134.79],[1277.01,137.37],[1280.01,140.01],[1282.97,142.68],[1285.92,145.37],[1288.84,148.09],[1291.71,150.86],[1294.52,153.69],[1297.25,156.61],[1299.87,159.61],[1302.37,162.73],[1304.69,165.97],[1306.82,169.35],[1308.76,172.84],[1310.53,176.41],[1312.14,180.07],[1313.6,183.78],[1314.89,187.56],[1316.03,191.38],[1317.02,195.25],[1317.84,199.15],[1318.46,203.1],[1318.77,207.08],[1318.84,211.07],[1318.75,215.06],[1318.55,219.04],[1318.32,223.03],[1318.12,227.01],[1318.01,231.0],[1318.0,232.0]]}},{"type":"Feature","properties":{"id":"R07","kind":"secondary","crest_m":[527.2,436.4],"rock":0.7},"geometry":{"type":"LineString","coordinates":[[1112.0,98.0],[1115.39,100.11],[1118.78,102.22],[1122.17,104.32],[1125.57,106.42],[1128.96,108.52],[1132.36,110.62],[1135.76,112.73],[1139.15,114.83],[1142.54,116.94],[1145.92,119.06],[1149.3,121.18],[1152.68,123.32],[1156.05,125.46],[1159.41,127.62],[1162.76,129.78],[1166.12,131.94],[1169.48,134.09],[1172.85,136.25],[1176.21,138.4],[1179.56,140.57],[1182.91,142.74],[1186.25,144.93],[1189.58,147.14],[1192.89,149.36],[1196.19,151.61],[1199.48,153.88],[1202.74,156.18],[1205.98,158.52],[1209.19,160.88],[1212.39,163.28],[1215.56,165.7],[1218.72,168.14],[1221.87,170.6],[1224.99,173.08],[1228.1,175.59],[1231.2,178.11],[1234.28,180.65],[1237.34,183.21],[1240.38,185.8],[1243.41,188.4],[1246.42,191.03],[1249.41,193.67],[1252.38,196.34],[1255.31,199.05],[1258.2,201.8],[1261.06,204.59],[1263.88,207.42],[1266.68,210.26],[1269.47,213.13],[1272.24,216.0],[1275.01,218.87],[1277.79,221.74],[1280.59,224.58],[1282.0,226.0]]}},{"type":"Feature","properties":{"id":"R10","kind":"main","crest_m":[492.9,392.0],"rock":0.6},"geometry":{"type":"LineString","coordinates":[[626.0,446.0],[629.7,447.51],[633.41,448.99],[637.12,450.47],[640.83,451.94],[644.54,453.43],[648.24,454.93],[651.93,456.47],[655.6,458.04],[659.25,459.66],[662.88,461.32],[666.5,463.02],[670.1,464.73],[673.69,466.48],[677.28,468.25],[680.85,470.03],[684.41,471.84],[687.96,473.67],[691.51,475.51],[695.04,477.36],[698.57,479.24],[702.09,481.13],[705.57,483.09],[709.03,485.08],[712.47,487.11],[715.9,489.16],[719.32,491.22],[722.74,493.28],[726.18,495.32],[729.62,497.34],[733.09,499.32],[736.6,501.24],[740.14,503.08],[743.74,504.82],[747.4,506.41],[751.11,507.89],[754.85,509.27],[758.61,510.62],[762.37,511.99],[766.1,513.42],[769.78,514.97],[773.38,516.69],[776.88,518.62],[780.29,520.69],[783.65,522.85],[787.01,525.01],[790.4,527.12],[793.87,529.1],[797.44,530.89],[801.12,532.44],[804.9,533.73],[808.74,534.82],[812.62,535.76],[816.53,536.62],[820.44,537.42],[824.36,538.2],[828.27,539.01],[832.17,539.88],[836.04,540.85],[839.88,541.96],[843.68,543.18],[847.47,544.43],[851.26,545.71],[855.02,547.03],[858.77,548.42],[862.49,549.87],[866.18,551.39],[869.84,553.0],[873.45,554.71],[877.0,556.53],[880.48,558.49],[883.88,560.59],[887.22,562.78],[890.51,565.05],[893.76,567.36],[897.01,569.7],[900.25,572.02],[903.52,574.32],[906.0,576.0]]}},{"type":"Feature","properties":{"id":"R11","kind":"main","crest_m":[480.6,395.4],"rock":0.6},"geometry":{"type":"LineString","coordinates":[[628.0,548.0],[631.57,549.76],[635.17,551.48],[638.77,553.18],[642.37,554.88],[645.97,556.59],[649.56,558.32],[653.13,560.09],[656.67,561.92],[660.17,563.82],[663.63,565.79],[667.05,567.83],[670.44,569.94],[673.78,572.09],[677.11,574.29],[680.4,576.53],[683.68,578.79],[686.94,581.08],[690.19,583.39],[693.43,585.7],[696.67,588.03],[699.9,590.35],[703.14,592.67],[706.38,594.99],[709.62,597.32],[712.84,599.66],[716.05,602.02],[719.25,604.38],[722.45,606.76],[725.64,609.14],[728.83,611.54],[732.01,613.93],[735.19,616.33],[738.37,618.73],[741.55,621.13],[744.73,623.53],[747.91,625.93],[751.11,628.31],[754.34,630.64],[757.58,632.95],[760.84,635.25],[764.1,637.54],[767.35,639.84],[770.59,642.16],[773.81,644.51],[777.0,646.9],[780.14,649.35],[783.22,651.87],[786.24,654.47],[789.16,657.18],[791.97,660.01],[794.65,662.95],[797.23,665.99],[799.71,669.11],[802.1,672.29],[804.45,675.51],[806.76,678.75],[809.07,682.0],[811.4,685.23],[813.78,688.42],[815.0,690.0]]}},{"type":"Feature","properties":{"id":"R12","kind":"secondary","crest_m":[457.5,396.1],"rock":0.7},"geometry":{"type":"LineString","coordinates":[[932.0,447.0],[934.24,450.29],[936.45,453.61],[938.89,456.75],[941.62,459.65],[944.56,462.33],[947.6,464.9],[950.7,467.41],[953.82,469.88],[956.94,472.36],[960.04,474.86],[963.09,477.42],[966.07,480.06],[968.97,482.79],[971.83,485.56],[974.66,488.36],[977.46,491.2],[980.24,494.04],[983.02,496.9],[985.8,499.75],[988.6,502.59],[990.0,504.0]]}},{"type":"Feature","properties":{"id":"R13","kind":"main","crest_m":[565.5,463.8],"rock":0.8},"geometry":{"type":"LineString","coordinates":[[986.0,502.0],[989.87,503.03],[993.74,504.01],[997.62,504.97],[1001.51,505.91],[1005.4,506.86],[1009.28,507.82],[1013.15,508.82],[1017.01,509.87],[1020.85,510.98],[1024.67,512.17],[1028.46,513.45],[1032.22,514.81],[1035.95,516.24],[1039.67,517.71],[1043.37,519.23],[1047.05,520.79],[1050.71,522.4],[1054.35,524.05],[1057.98,525.74],[1061.58,527.48],[1065.17,529.25],[1068.73,531.06],[1072.28,532.91],[1075.8,534.8],[1079.31,536.73],[1082.78,538.71],[1086.22,540.75],[1089.63,542.84],[1093.01,544.97],[1096.37,547.13],[1099.71,549.33],[1103.04,551.56],[1106.35,553.8],[1109.65,556.06],[1112.94,558.34],[1116.22,560.61],[1119.51,562.89],[1122.8,565.17],[1126.09,567.44],[1129.36,569.74],[1132.62,572.06],[1135.86,574.4],[1139.1,576.75],[1142.32,579.11],[1145.54,581.48],[1148.76,583.86],[1151.97,586.24],[1155.19,588.62],[1158.4,590.99],[1161.63,593.36],[1164.86,595.72],[1168.09,598.07],[1171.34,600.41],[1174.58,602.75],[1177.82,605.09],[1181.07,607.43],[1184.31,609.77],[1187.56,612.1],[1190.81,614.43],[1194.06,616.76],[1197.32,619.08],[1200.58,621.39],[1203.85,623.7],[1207.12,625.99],[1210.4,628.28],[1213.72,630.51],[1217.08,632.68],[1220.47,634.81],[1223.87,636.9],[1227.28,639.0],[1230.68,641.1],[1234.06,643.24],[1237.41,645.43],[1240.7,647.69],[1243.93,650.05],[1247.08,652.51],[1250.12,655.11],[1253.04,657.84],[1255.85,660.69],[1258.56,663.63],[1261.19,666.65],[1263.74,669.72],[1266.25,672.83],[1268.73,675.97],[1271.2,679.12],[1273.67,682.26],[1276.17,685.39],[1278.71,688.47],[1280.0,690.0]]}},{"type":"Feature","properties":{"id":"R15","kind":"main","crest_m":[590.5,443.6],"rock":0.85},"geometry":{"type":"LineString","coordinates":[[1318.0,438.0],[1321.8,439.24],[1325.61,440.43],[1329.43,441.61],[1333.25,442.77],[1337.07,443.93],[1340.89,445.12],[1344.69,446.34],[1348.48,447.61],[1352.24,448.94],[1355.98,450.36],[1359.68,451.86],[1363.35,453.45],[1366.99,455.08],[1370.61,456.77],[1374.21,458.5],[1377.79,460.28],[1381.34,462.11],[1384.87,463.98],[1388.37,465.91],[1391.84,467.88],[1395.29,469.89],[1398.71,471.96],[1402.1,474.07],[1405.45,476.24],[1408.76,478.49],[1412.02,480.8],[1415.24,483.16],[1418.43,485.56],[1421.6,487.99],[1424.75,490.45],[1427.89,492.92],[1431.02,495.4],[1434.15,497.88],[1437.29,500.35],[1440.44,502.8],[1443.61,505.24],[1446.77,507.68],[1449.92,510.14],[1453.06,512.61],[1456.2,515.08],[1459.33,517.56],[1462.47,520.03],[1465.61,522.5],[1468.76,524.96],[1471.92,527.4],[1475.1,529.82],[1478.29,532.22],[1481.51,534.59],[1484.74,536.94],[1487.99,539.26],[1491.24,541.58],[1494.51,543.88],[1497.78,546.17],[1501.05,548.47],[1504.32,550.76],[1507.58,553.06],[1510.84,555.37],[1514.09,557.7],[1517.33,560.04],[1520.55,562.4],[1523.75,564.79],[1526.95,567.18],[1530.14,569.59],[1533.32,572.01],[1536.49,574.44],[1539.66,576.87],[1542.82,579.31],[1545.99,581.74],[1549.15,584.18],[1552.32,586.62],[1555.49,589.05],[1558.67,591.47],[1561.85,593.89],[1565.04,596.28],[1568.26,598.65],[1571.49,601.01],[1574.72,603.35],[1577.96,605.69],[1581.2,608.03],[1584.43,610.38],[1587.64,612.75],[1590.84,615.14],[1594.01,617.57],[1597.16,620.04],[1600.26,622.55],[1603.33,625.11],[1606.39,627.68],[1609.44,630.25],[1612.49,632.84],[1615.51,635.45],[1618.5,638.09],[1621.46,640.78],[1624.37,643.52],[1627.22,646.32],[1630.0,649.18],[1632.7,652.13],[1635.31,655.16],[1637.8,658.28],[1640.15,661.5],[1642.4,664.81],[1644.54,668.18],[1646.6,671.6],[1648.61,675.06],[1650.57,678.53],[1652.52,682.02],[1654.47,685.51],[1656.44,688.99],[1658.45,692.44],[1660.0,695.0]]}},{"type":"Feature","properties":{"id":"R16","kind":"secondary","crest_m":[444.0,406.7],"rock":0.6},"geometry":{"type":"LineString","coordinates":[[1392.0,376.0],[1395.79,377.19],[1399.59,378.37],[1403.39,379.54],[1407.19,380.7],[1410.99,381.86],[1414.79,383.03],[1418.59,384.21],[1422.38,385.41],[1426.16,386.64],[1429.93,387.89],[1433.69,389.18],[1437.44,390.52],[1441.18,391.87],[1444.91,393.23],[1448.64,394.61],[1452.36,396.02],[1456.07,397.45],[1459.76,398.92],[1463.44,400.42],[1467.1,401.97],[1470.74,403.57],[1474.36,405.22],[1477.95,406.92],[1481.57,408.56],[1485.21,410.18],[1488.83,411.82],[1492.43,413.51],[1495.97,415.31],[1499.43,417.27],[1502.75,419.45],[1505.87,421.92],[1508.66,424.74],[1510.99,427.96],[1512.89,431.45],[1514.46,435.1],[1515.82,438.83],[1517.12,442.59],[1518.47,446.33],[1520.0,450.0],[1520.0,450.0]]}},{"type":"Feature","properties":{"id":"R18","kind":"hill","crest_m":[399.8,368.8],"rock":0.5},"geometry":{"type":"LineString","coordinates":[[1745.0,690.0],[1746.98,686.53],[1748.87,683.01],[1750.7,679.45],[1752.48,675.87],[1754.27,672.3],[1756.07,668.73],[1757.94,665.19],[1759.88,661.7],[1761.94,658.28],[1764.17,654.96],[1766.58,651.77],[1769.23,648.78],[1772.1,645.99],[1775.07,643.32],[1778.14,640.77],[1781.32,638.34],[1784.6,636.06],[1788.0,633.96],[1791.52,632.06],[1795.17,630.43],[1798.95,629.13],[1802.84,628.26],[1806.82,627.92],[1810.81,628.12],[1814.76,628.75],[1818.63,629.74],[1822.41,631.02],[1826.11,632.54],[1829.72,634.27],[1833.23,636.18],[1836.64,638.26],[1839.95,640.5],[1843.14,642.9],[1846.1,645.59],[1848.81,648.52],[1851.33,651.63],[1853.69,654.85],[1855.93,658.16],[1858.09,661.53],[1860.2,664.92],[1862.3,668.32],[1864.41,671.72],[1866.58,675.08],[1868.83,678.38],[1870.0,680.0]]}},{"type":"Feature","properties":{"id":"R18b","kind":"hill","crest_m":[379.2,363.9],"rock":0.3},"geometry":{"type":"LineString","coordinates":[[1600.0,700.0],[1601.55,696.34],[1602.98,692.64],[1604.33,688.9],[1605.65,685.16],[1606.97,681.41],[1608.35,677.69],[1609.83,674.0],[1611.45,670.37],[1613.27,666.85],[1615.34,663.46],[1617.74,660.3],[1620.42,657.37],[1623.25,654.58],[1626.23,651.96],[1629.35,649.5],[1632.61,647.22],[1636.0,645.16],[1639.53,643.34],[1643.19,641.81],[1646.98,640.63],[1650.88,639.88],[1654.84,639.75],[1658.79,640.15],[1662.68,640.95],[1666.5,642.02],[1670.28,643.27],[1674.01,644.61],[1677.74,645.99],[1681.47,647.35],[1685.23,648.62],[1689.04,649.75],[1690.0,650.0]]}},{"type":"Feature","properties":{"id":"R19","kind":"hill","crest_m":[386.0,359.4],"rock":0.2},"geometry":{"type":"LineString","coordinates":[[1780.0,-30.0],[1782.38,-26.8],[1784.69,-23.56],[1786.97,-20.29],[1789.22,-17.0],[1791.46,-13.7],[1793.7,-10.41],[1795.98,-7.14],[1798.29,-3.9],[1800.67,-0.7],[1803.13,2.43],[1805.69,5.48],[1808.37,8.43],[1811.19,11.25],[1814.16,13.91],[1817.25,16.42],[1820.44,18.81],[1823.72,21.07],[1827.07,23.23],[1830.47,25.3],[1833.92,27.3],[1837.4,29.24],[1840.9,31.13],[1844.42,33.01],[1847.93,34.89],[1851.45,36.77],[1854.99,38.59],[1858.57,40.33],[1862.19,42.01],[1865.83,43.64],[1869.48,45.23],[1873.14,46.8],[1876.8,48.38],[1880.45,49.97],[1884.09,51.59],[1885.0,52.0]]}},{"type":"Feature","properties":{"id":"R20","kind":"hill","crest_m":[372.9,352.1],"rock":0.1},"geometry":{"type":"LineString","coordinates":[[1975.0,58.0],[1975.83,61.89],[1976.65,65.78],[1977.46,69.66],[1978.27,73.55],[1979.08,77.44],[1979.9,81.33],[1980.72,85.22],[1981.56,89.11],[1982.41,92.99],[1983.28,96.86],[1984.17,100.74],[1984.99,104.63],[1985.73,108.53],[1986.43,112.44],[1987.13,116.35],[1987.88,120.25],[1988.72,124.14],[1989.68,127.99],[1990.81,131.8],[1992.12,135.55],[1993.65,139.22],[1995.38,142.8],[1997.3,146.28],[1999.37,149.67],[2001.55,152.99],[2003.83,156.25],[2006.17,159.45],[2008.58,162.62],[2011.02,165.75],[2013.49,168.87],[2015.97,171.97],[2018.46,175.07],[2020.94,178.17],[2023.41,181.28],[2025.85,184.42],[2028.24,187.59],[2030.0,190.0]]}},{"type":"Feature","properties":{"id":"R21","kind":"hill","crest_m":[349.8,332.6],"rock":0.4},"geometry":{"type":"LineString","coordinates":[[1605.0,-45.0],[1608.19,-42.62],[1611.33,-40.18],[1614.43,-37.69],[1617.52,-35.18],[1620.6,-32.66],[1623.7,-30.16],[1626.82,-27.7],[1629.99,-25.3],[1633.22,-22.97],[1636.53,-20.76],[1639.92,-18.68],[1643.41,-16.78],[1647.0,-15.07],[1650.65,-13.47],[1654.33,-11.97],[1658.06,-10.59],[1661.83,-9.31],[1665.64,-8.15],[1669.48,-7.12],[1673.35,-6.21],[1677.25,-5.44],[1681.18,-4.81],[1685.13,-4.34],[1689.1,-4.04],[1693.08,-3.96],[1697.05,-4.15],[1701.0,-4.58],[1704.93,-5.19],[1708.84,-5.96],[1712.72,-6.82],[1716.59,-7.75],[1720.45,-8.72],[1724.31,-9.68],[1728.18,-10.6],[1732.07,-11.44],[1735.0,-12.0]]}},{"type":"Feature","properties":{"id":"R23","kind":"hill","crest_m":[392.6,352.7],"rock":0.4},"geometry":{"type":"LineString","coordinates":[[-30.0,100.0],[-26.25,101.32],[-22.47,102.58],[-18.69,103.81],[-14.9,105.02],[-11.11,106.22],[-7.32,107.43],[-3.53,108.66],[0.24,109.93],[3.99,111.25],[7.72,112.63],[11.42,114.1],[15.08,115.67],[18.68,117.35],[22.23,119.14],[25.75,121.01],[29.22,122.94],[32.67,124.94],[36.07,127.0],[39.43,129.12],[42.76,131.3],[46.04,133.55],[49.28,135.86],[52.47,138.24],[55.61,140.68],[58.7,143.19],[61.73,145.77],[64.68,148.43],[67.52,151.22],[70.27,154.1],[72.93,157.05],[75.53,160.07],[78.07,163.12],[80.59,166.21],[83.09,169.3],[85.59,172.4],[88.12,175.47],[90.69,178.5],[92.0,180.0]]}},{"type":"Feature","properties":{"id":"R24","kind":"hill","crest_m":[362.8,345.3],"rock":0.4},"geometry":{"type":"LineString","coordinates":[[-30.0,412.0],[-26.18,413.18],[-22.34,414.28],[-18.49,415.34],[-14.63,416.37],[-10.77,417.4],[-6.91,418.43],[-3.06,419.5],[0.77,420.61],[4.59,421.8],[8.37,423.08],[12.11,424.47],[15.8,426.01],[19.42,427.71],[22.94,429.59],[26.37,431.63],[29.71,433.83],[32.97,436.13],[36.16,438.54],[39.3,441.0],[42.41,443.52],[45.49,446.06],[48.58,448.6],[51.68,451.11],[54.81,453.59],[58.0,456.0],[58.0,456.0]]}},{"type":"Feature","properties":{"id":"R25","kind":"main","crest_m":[427.1,375.6],"rock":0.7},"geometry":{"type":"LineString","coordinates":[[-40.0,580.0],[-36.17,581.14],[-32.33,582.25],[-28.49,583.35],[-24.65,584.43],[-20.8,585.51],[-16.96,586.59],[-13.11,587.67],[-9.27,588.76],[-5.43,589.86],[-1.59,590.99],[2.23,592.13],[6.05,593.31],[9.86,594.52],[13.65,595.77],[17.43,597.07],[21.18,598.43],[24.94,599.8],[28.69,601.17],[32.44,602.55],[36.18,603.95],[39.91,605.39],[43.61,606.87],[47.3,608.42],[50.95,610.04],[54.57,611.74],[58.13,613.53],[61.65,615.43],[65.1,617.45],[68.49,619.55],[71.87,621.69],[75.21,623.87],[78.53,626.1],[81.8,628.4],[85.01,630.78],[88.15,633.24],[91.2,635.82],[94.15,638.51],[96.98,641.33],[99.66,644.29],[102.16,647.41],[104.45,650.68],[106.46,654.13],[108.2,657.73],[109.7,661.43],[111.01,665.2],[112.16,669.03],[113.2,672.88],[114.16,676.76],[115.07,680.65],[115.96,684.55],[116.86,688.44],[117.82,692.32],[118.85,696.17],[120.0,700.0],[120.0,700.0]]}},{"type":"Feature","properties":{"id":"R26","kind":"hill","crest_m":[359.9,348.1],"rock":0.1},"geometry":{"type":"LineString","coordinates":[[150.0,700.0],[152.19,696.66],[154.34,693.29],[156.45,689.9],[158.53,686.49],[160.59,683.07],[162.65,679.64],[164.7,676.22],[166.76,672.8],[168.84,669.38],[170.95,665.99],[173.09,662.61],[175.27,659.27],[177.5,655.96],[179.8,652.69],[182.16,649.47],[184.61,646.31],[187.15,643.23],[189.79,640.23],[192.52,637.31],[195.31,634.46],[198.17,631.67],[201.09,628.94],[204.06,626.26],[207.07,623.65],[210.14,621.08],[213.25,618.58],[216.4,616.12],[219.59,613.72],[222.82,611.36],[226.08,609.06],[229.38,606.8],[232.71,604.6],[236.07,602.44],[239.46,600.33],[242.9,598.3],[246.41,596.39],[249.97,594.59],[253.59,592.89],[257.24,591.28],[260.93,589.73],[264.63,588.24],[268.35,586.77],[272.07,585.32],[275.79,583.85],[279.49,582.35],[283.17,580.8],[285.0,580.0]]}},{"type":"Feature","properties":{"id":"R27","kind":"hill","crest_m":[371.9,352.5],"rock":0.1},"geometry":{"type":"LineString","coordinates":[[250.0,-30.0],[253.09,-27.49],[256.15,-24.93],[259.17,-22.34],[262.18,-19.73],[265.18,-17.11],[268.18,-14.49],[271.18,-11.87],[274.19,-9.26],[277.22,-6.67],[280.28,-4.12],[283.37,-1.62],[286.51,0.83],[289.7,3.22],[292.95,5.52],[296.27,7.72],[299.67,9.81],[303.13,11.77],[306.66,13.62],[310.24,15.37],[313.86,17.02],[317.52,18.6],[321.21,20.1],[324.93,21.53],[328.67,22.9],[332.42,24.22],[336.19,25.51],[339.98,26.76],[343.76,27.99],[347.55,29.21],[351.35,30.43],[355.16,31.58],[358.99,32.66],[362.85,33.66],[366.72,34.62],[370.59,35.52],[374.48,36.41],[378.37,37.28],[382.25,38.16],[386.13,39.06],[390.0,40.0],[390.0,40.0]]}},{"type":"Feature","properties":{"id":"R28","kind":"hill","crest_m":[355.7,339.3],"rock":0.1},"geometry":{"type":"LineString","coordinates":[[1392.0,150.0],[1393.61,153.66],[1395.24,157.31],[1396.89,160.95],[1398.55,164.59],[1400.21,168.22],[1401.87,171.86],[1403.51,175.51],[1405.13,179.16],[1406.72,182.83],[1408.28,186.51],[1409.78,190.21],[1411.23,193.94],[1412.61,197.69],[1413.91,201.47],[1415.15,205.27],[1416.33,209.09],[1417.46,212.92],[1418.56,216.77],[1419.63,220.62],[1420.7,224.47],[1421.78,228.32],[1422.87,232.16],[1424.0,236.0],[1424.0,236.0]]}},{"type":"Feature","properties":{"id":"R29","kind":"hill","crest_m":[399.2,380.5],"rock":0.2},"geometry":{"type":"LineString","coordinates":[[1310.0,360.0],[1313.54,361.76],[1317.09,363.51],[1320.64,365.25],[1324.19,366.99],[1327.75,368.73],[1331.3,370.47],[1334.84,372.22],[1338.38,373.99],[1341.91,375.78],[1345.43,377.59],[1348.93,379.43],[1352.41,381.3],[1355.88,383.21],[1359.33,385.14],[1362.76,387.1],[1366.19,389.07],[1369.61,391.06],[1373.03,393.05],[1376.44,395.05],[1379.86,397.04],[1383.28,399.02],[1385.0,400.0]]}}]}
