{"type":"FeatureCollection","name":"bridges","crs_note":"coordinates are source-image pixels of assets/maps/source/base_map.webp (x right, y down); see docs/COORDINATES.md","features":[{"type":"Feature","properties":{"id":"LC_RD_2676_X1","road":"LC_RD_2676","road_type":"collector","name":"Lakeshore Drive","kind":"bridge","structure":"concrete girder","length_m":59.8,"deck_width_m":9.0,"deck_z_m":[325.17,325.17,325.17],"water_level_m":321.67,"clearance_m":3.5,"waterway_class":"creek","piers":1},"geometry":{"type":"LineString","coordinates":[[42.64,206.81],[41.71,207.18],[40.78,207.54],[39.85,207.89],[38.91,208.23],[37.97,208.54],[37.02,208.84],[36.05,209.09],[35.08,209.33],[34.1,209.48],[33.11,209.62],[32.12,209.69],[31.12,209.71],[30.13,209.67],[29.14,209.55],[28.15,209.4],[27.19,209.14],[26.24,208.84],[25.31,208.48],[24.41,208.05],[23.53,207.59],[22.69,207.05],[21.86,206.49],[21.08,205.88],[20.31,205.24]]}},{"type":"Feature","properties":{"id":"LC_RD_2676_X2","road":"LC_RD_2676","road_type":"collector","name":"Lakeshore Drive","kind":"bridge","structure":"concrete girder","length_m":24.9,"deck_width_m":9.0,"deck_z_m":[324.17,324.17,323.16],"water_level_m":319.66,"clearance_m":3.5,"waterway_class":"creek","piers":0},"geometry":{"type":"LineString","coordinates":[[17.38,202.54],[16.66,201.85],[15.91,201.19],[15.16,200.54],[14.37,199.93],[13.57,199.33],[12.73,198.8],[11.88,198.28],[10.97,197.86],[10.07,197.43],[9.14,197.09]]}},{"type":"Feature","properties":{"id":"LC_RD_1637_X1","road":"LC_RD_1637","road_type":"arterial","name":"West Avenue","kind":"bridge","structure":"concrete girder","length_m":42.2,"deck_width_m":14.0,"deck_z_m":[333.03,333.03,333.03],"water_level_m":329.53,"clearance_m":3.5,"waterway_class":"creek","piers":1},"geometry":{"type":"LineString","coordinates":[[91.17,247.25],[90.87,248.2],[90.57,249.15],[90.27,250.1],[89.98,251.05],[89.69,252.0],[89.42,252.95],[89.16,253.91],[88.91,254.88],[88.7,255.85],[88.5,256.82],[88.34,257.8],[88.21,258.79],[88.12,259.78],[88.06,260.77],[88.05,261.76],[88.07,262.76],[88.15,263.75]]}},{"type":"Feature","properties":{"id":"LC_RD_2499_X1","road":"LC_RD_2499","road_type":"arterial","name":"North Boulevard / Laurel River Bridge","kind":"bridge","structure":"concrete girder","length_m":64.3,"deck_width_m":14.0,"deck_z_m":[331.98,331.98,331.98],"water_level_m":325.98,"clearance_m":6.0,"waterway_class":"river","piers":2},"geometry":{"type":"LineString","coordinates":[[319.6,126.88],[320.42,126.33],[321.23,125.76],[322.04,125.19],[322.84,124.62],[323.64,124.03],[324.43,123.44],[325.22,122.85],[326.01,122.24],[326.78,121.63],[327.55,121.0],[328.31,120.38],[329.07,119.74],[329.82,119.1],[330.56,118.44],[331.3,117.78],[332.03,117.11],[332.75,116.43],[333.46,115.74],[334.17,115.05],[334.86,114.35],[335.56,113.65],[336.24,112.93],[336.92,112.21],[337.59,111.49],[338.26,110.76],[338.92,110.02]]}},{"type":"Feature","properties":{"id":"LC_RD_2093_X1","road":"LC_RD_2093","road_type":"highway","name":"US 19","kind":"bridge","structure":"concrete girder","length_m":37.4,"deck_width_m":18.0,"deck_z_m":[321.76,321.76,321.76],"water_level_m":314.26,"clearance_m":7.5,"waterway_class":"river","piers":1},"geometry":{"type":"LineString","coordinates":[[534.94,315.81],[535.94,315.74],[536.93,315.67],[537.93,315.6],[538.92,315.52],[539.92,315.45],[540.91,315.37],[541.9,315.3],[542.9,315.22],[543.89,315.15],[544.89,315.07],[545.88,315.0],[546.88,314.93],[547.87,314.86],[548.87,314.79],[549.86,314.73]]}},{"type":"Feature","properties":{"id":"RU_RD_0573_X1","road":"RU_RD_0573","road_type":"rural","name":"North Bridge Road","kind":"bridge","structure":"steel truss","length_m":32.4,"deck_width_m":6.5,"deck_z_m":[321.9,321.9,321.9],"water_level_m":315.9,"clearance_m":6.0,"waterway_class":"river","piers":1},"geometry":{"type":"LineString","coordinates":[[499.48,294.37],[500.29,293.79],[501.1,293.21],[501.92,292.64],[502.74,292.06],[503.55,291.48],[504.35,290.9],[505.15,290.3],[505.94,289.69],[506.72,289.07],[507.49,288.44],[508.25,287.79],[509.0,287.13],[509.73,286.45]]}},{"type":"Feature","properties":{"id":"RU_RD_0576_X1","road":"RU_RD_0576","road_type":"rural","name":"Laurel Bridge Road","kind":"bridge","structure":"steel truss","length_m":35.0,"deck_width_m":6.5,"deck_z_m":[316.33,316.33,316.33],"water_level_m":310.33,"clearance_m":6.0,"waterway_class":"river","piers":1},"geometry":{"type":"LineString","coordinates":[[584.78,397.27],[585.74,396.99],[586.69,396.69],[587.63,396.35],[588.57,395.99],[589.49,395.62],[590.42,395.23],[591.35,394.86],[592.27,394.49],[593.21,394.14],[594.16,393.81],[595.11,393.5],[596.06,393.2],[597.02,392.91],[597.98,392.63]]}},{"type":"Feature","properties":{"id":"RU_RD_0541_X1","road":"RU_RD_0541","road_type":"rural","name":"Hollow Creek Road","kind":"bridge","structure":"steel truss","length_m":54.6,"deck_width_m":6.5,"deck_z_m":[346.41,346.41,346.41],"water_level_m":340.41,"clearance_m":6.0,"waterway_class":"river","piers":1},"geometry":{"type":"LineString","coordinates":[[902.47,443.21],[903.38,443.6],[904.28,444.04],[905.18,444.46],[906.08,444.87],[907.01,445.24],[907.95,445.56],[908.92,445.77],[909.9,445.92],[910.89,445.91],[911.88,445.84],[912.83,445.56],[913.77,445.22],[914.61,444.7],[915.42,444.12],[916.13,443.42],[916.79,442.68],[917.37,441.88],[917.92,441.05],[918.42,440.19],[918.93,439.34],[919.44,438.48],[919.97,437.65]]}},{"type":"Feature","properties":{"id":"HR_RD_0318_X1","road":"HR_RD_0318","road_type":"collector","name":"Depot Street","kind":"bridge","structure":"concrete girder","length_m":46.7,"deck_width_m":9.0,"deck_z_m":[356.41,356.41,356.41],"water_level_m":350.41,"clearance_m":6.0,"waterway_class":"river","piers":1},"geometry":{"type":"LineString","coordinates":[[973.77,401.04],[974.28,400.2],[974.89,399.42],[975.53,398.68],[976.24,397.99],[976.98,397.35],[977.77,396.76],[978.59,396.21],[979.43,395.7],[980.3,395.23],[981.18,394.79],[982.07,394.38],[982.97,393.98],[983.87,393.59],[984.78,393.2],[985.68,392.81],[986.58,392.4],[987.47,391.98],[988.34,391.53],[989.19,391.04]]}},{"type":"Feature","properties":{"id":"RU_RD_0658_X1","road":"RU_RD_0658","road_type":"rural","name":"Falls Creek Road","kind":"bridge","structure":"concrete girder","length_m":22.3,"deck_width_m":6.5,"deck_z_m":[422.97,422.97,422.97],"water_level_m":419.47,"clearance_m":3.5,"waterway_class":"creek","piers":0},"geometry":{"type":"LineString","coordinates":[[1011.98,97.1],[1011.81,96.12],[1011.63,95.14],[1011.44,94.17],[1011.23,93.2],[1011.02,92.23],[1010.81,91.26],[1010.59,90.29],[1010.37,89.33],[1010.13,88.36]]}},{"type":"Feature","properties":{"id":"HR_RD_0308_X1","road":"HR_RD_0308","road_type":"highway","name":"US 19","kind":"bridge","structure":"concrete girder","length_m":37.4,"deck_width_m":18.0,"deck_z_m":[376.32,376.32,376.32],"water_level_m":371.32,"clearance_m":5.0,"waterway_class":"creek","piers":1},"geometry":{"type":"LineString","coordinates":[[1162.86,324.53],[1163.84,324.38],[1164.83,324.23],[1165.81,324.08],[1166.8,323.95],[1167.79,323.81],[1168.77,323.68],[1169.76,323.56],[1170.75,323.44],[1171.74,323.32],[1172.73,323.21],[1173.72,323.11],[1174.71,323.01],[1175.7,322.9],[1176.69,322.8],[1177.68,322.7]]}},{"type":"Feature","properties":{"id":"RU_RD_0657_X1","road":"RU_RD_0657","road_type":"rural","name":"Depot Road","kind":"bridge","structure":"steel truss","length_m":89.8,"deck_width_m":6.5,"deck_z_m":[366.9,366.9,366.9],"water_level_m":363.4,"clearance_m":3.5,"waterway_class":"creek","piers":2},"geometry":{"type":"LineString","coordinates":[[1220.56,397.9],[1219.58,397.74],[1218.6,397.53],[1217.64,397.27],[1216.69,396.95],[1215.76,396.6],[1214.84,396.22],[1213.91,395.83],[1212.99,395.46],[1212.05,395.12],[1211.1,394.83],[1210.13,394.57],[1209.16,394.37],[1208.17,394.21],[1207.19,394.05],[1206.2,393.88],[1205.23,393.67],[1204.27,393.41],[1203.33,393.07],[1202.42,392.67],[1201.54,392.2],[1200.68,391.69],[1199.84,391.15],[1199.0,390.61],[1198.15,390.09],[1197.27,389.61],[1196.37,389.19],[1195.43,388.86],[1194.46,388.62],[1193.47,388.48],[1192.48,388.45],[1191.49,388.54],[1190.51,388.74],[1189.56,389.04],[1188.65,389.44],[1187.78,389.93],[1186.95,390.49]]}},{"type":"Feature","properties":{"id":"RU_RD_0421_X1","road":"RU_RD_0421","road_type":"gravel","name":"Hollow Creek Road","kind":"bridge","structure":"steel truss","length_m":52.4,"deck_width_m":5.0,"deck_z_m":[367.92,367.92,367.92],"water_level_m":361.92,"clearance_m":6.0,"waterway_class":"river","piers":1},"geometry":{"type":"LineString","coordinates":[[1324.95,576.12],[1325.91,575.87],[1326.88,575.62],[1327.84,575.37],[1328.81,575.12],[1329.77,574.86],[1330.73,574.59],[1331.69,574.31],[1332.65,574.03],[1333.6,573.74],[1334.55,573.43],[1335.5,573.13],[1336.45,572.83],[1337.41,572.54],[1338.36,572.26],[1339.33,571.99],[1340.29,571.72],[1341.25,571.46],[1342.21,571.19],[1343.16,570.89],[1344.1,570.55],[1345.01,570.16]]}},{"type":"Feature","properties":{"id":"RU_RD_0423_X1","road":"RU_RD_0423","road_type":"highway","name":"US 19","kind":"viaduct","structure":"concrete girder viaduct","length_m":122.0,"deck_width_m":18.0,"deck_z_m":[355.32,355.32,345.52],"water_level_m":null,"clearance_m":9.96,"waterway_class":null,"piers":0},"geometry":{"type":"LineString","coordinates":[[1279.87,314.51],[1280.81,314.19],[1281.75,313.86],[1282.69,313.54],[1283.63,313.21],[1284.57,312.86],[1285.5,312.51],[1286.43,312.16],[1287.36,311.8],[1288.29,311.44],[1289.21,311.07],[1290.14,310.71],[1291.07,310.34],[1292.0,309.98],[1292.92,309.62],[1293.85,309.26],[1294.78,308.9],[1295.71,308.54],[1296.63,308.17],[1297.56,307.81],[1298.49,307.45],[1299.42,307.09],[1300.35,306.74],[1301.28,306.38],[1302.21,306.02],[1303.14,305.66],[1304.06,305.3],[1304.99,304.93],[1305.92,304.57],[1306.84,304.2],[1307.77,303.83],[1308.7,303.47],[1309.62,303.1],[1310.54,302.72],[1311.47,302.35],[1312.39,301.99],[1313.32,301.62],[1314.24,301.25],[1315.17,300.88],[1316.09,300.51],[1317.02,300.14],[1317.94,299.77],[1318.87,299.41],[1319.79,299.04],[1320.72,298.68],[1321.65,298.33],[1322.58,297.97],[1323.51,297.62],[1324.44,297.26],[1325.38,296.91]]}},{"type":"Feature","properties":{"id":"TV_RD_1453_X1","road":"TV_RD_1453","road_type":"collector","name":"North Street","kind":"bridge","structure":"concrete girder","length_m":34.6,"deck_width_m":9.0,"deck_z_m":[308.37,308.37,308.37],"water_level_m":302.37,"clearance_m":6.0,"waterway_class":"river","piers":1},"geometry":{"type":"LineString","coordinates":[[1554.61,53.5],[1554.95,54.43],[1555.3,55.36],[1555.66,56.28],[1556.03,57.19],[1556.41,58.11],[1556.77,59.03],[1557.13,59.95],[1557.5,60.87],[1557.85,61.8],[1558.2,62.72],[1558.54,63.65],[1558.88,64.58],[1559.21,65.51],[1559.53,66.45]]}},{"type":"Feature","properties":{"id":"TV_RD_1471_X1","road":"TV_RD_1471","road_type":"highway","name":"US 19","kind":"bridge","structure":"concrete girder","length_m":34.7,"deck_width_m":18.0,"deck_z_m":[301.37,301.37,301.37],"water_level_m":293.87,"clearance_m":7.5,"waterway_class":"river","piers":1},"geometry":{"type":"LineString","coordinates":[[1541.13,249.41],[1542.05,249.03],[1542.96,248.65],[1543.88,248.27],[1544.79,247.89],[1545.71,247.51],[1546.63,247.14],[1547.54,246.76],[1548.46,246.39],[1549.38,246.02],[1550.3,245.64],[1551.21,245.26],[1552.13,244.89],[1553.05,244.51],[1553.97,244.14]]}},{"type":"Feature","properties":{"id":"TV_RD_1523_X1","road":"TV_RD_1523","road_type":"highway","name":"US 19","kind":"bridge","structure":"concrete girder","length_m":14.8,"deck_width_m":18.0,"deck_z_m":[300.78,300.78,300.78],"water_level_m":296.28,"clearance_m":4.5,"waterway_class":"slough","piers":0},"geometry":{"type":"LineString","coordinates":[[1610.19,219.51],[1611.1,219.12],[1612.0,218.72],[1612.9,218.33],[1613.81,217.93],[1614.71,217.54],[1615.62,217.15]]}},{"type":"Feature","properties":{"id":"TV_RD_2826_X1","road":"TV_RD_2826","road_type":"collector","name":"North Street","kind":"bridge","structure":"concrete girder","length_m":49.5,"deck_width_m":9.0,"deck_z_m":[299.28,299.28,299.28],"water_level_m":296.28,"clearance_m":3.0,"waterway_class":"slough","piers":1},"geometry":{"type":"LineString","coordinates":[[1597.34,149.08],[1597.89,149.91],[1598.45,150.72],[1599.04,151.52],[1599.63,152.31],[1600.27,153.07],[1600.91,153.82],[1601.59,154.54],[1602.27,155.26],[1602.98,155.95],[1603.69,156.64],[1604.41,157.33],[1605.12,158.01],[1605.83,158.7],[1606.53,159.41],[1607.2,160.13],[1607.86,160.87],[1608.46,161.66],[1609.03,162.47],[1609.54,163.32],[1609.99,164.2]]}},{"type":"Feature","properties":{"id":"TV_RD_2826_X2","road":"TV_RD_2826","road_type":"collector","name":"North Street","kind":"bridge","structure":"concrete girder","length_m":37.1,"deck_width_m":9.0,"deck_z_m":[299.28,299.28,299.28],"water_level_m":296.28,"clearance_m":3.0,"waterway_class":"slough","piers":1},"geometry":{"type":"LineString","coordinates":[[1612.11,173.83],[1612.31,174.8],[1612.56,175.76],[1612.85,176.71],[1613.19,177.64],[1613.58,178.55],[1614.01,179.44],[1614.49,180.3],[1615.01,181.15],[1615.57,181.96],[1616.15,182.76],[1616.77,183.54],[1617.41,184.29],[1618.08,185.02],[1618.77,185.73],[1619.49,186.42]]}},{"type":"Feature","properties":{"id":"TV_RD_1540_X1","road":"TV_RD_1540","road_type":"urban_street","name":null,"kind":"bridge","structure":"concrete slab","length_m":12.4,"deck_width_m":11.0,"deck_z_m":[300.78,301.66,301.66],"water_level_m":296.28,"clearance_m":4.5,"waterway_class":"slough","piers":0},"geometry":{"type":"LineString","coordinates":[[1615.62,217.15],[1615.69,218.14],[1615.75,219.13],[1615.82,220.12],[1615.88,221.11],[1615.95,222.1]]}},{"type":"Feature","properties":{"id":"TV_RD_2866_X1","road":"TV_RD_2866","road_type":"highway","name":"US 19","kind":"bridge","structure":"concrete girder","length_m":24.3,"deck_width_m":18.0,"deck_z_m":[300.78,300.78,300.78],"water_level_m":296.28,"clearance_m":4.5,"waterway_class":"slough","piers":0},"geometry":{"type":"LineString","coordinates":[[1615.62,217.15],[1616.51,216.76],[1617.41,216.38],[1618.3,216.0],[1619.19,215.61],[1620.09,215.23],[1620.98,214.84],[1621.87,214.46],[1622.77,214.07],[1623.66,213.68],[1624.55,213.3]]}},{"type":"Feature","properties":{"id":"TV_RD_2311_X1","road":"TV_RD_2311","road_type":"arterial","name":"Central Bridge","kind":"bridge","structure":"concrete girder","length_m":81.4,"deck_width_m":14.0,"deck_z_m":[296.42,296.42,296.42],"water_level_m":290.42,"clearance_m":6.0,"waterway_class":"river","piers":2},"geometry":{"type":"LineString","coordinates":[[1644.77,344.04],[1645.23,343.17],[1645.72,342.31],[1646.22,341.46],[1646.74,340.62],[1647.27,339.8],[1647.81,338.97],[1648.37,338.15],[1648.92,337.34],[1649.48,336.52],[1650.04,335.71],[1650.61,334.9],[1651.18,334.1],[1651.74,333.29],[1652.3,332.48],[1652.86,331.67],[1653.42,330.85],[1653.99,330.04],[1654.55,329.23],[1655.12,328.42],[1655.68,327.61],[1656.25,326.81],[1656.82,326.01],[1657.41,325.21],[1657.99,324.42],[1658.59,323.63],[1659.21,322.86],[1659.83,322.1],[1660.48,321.35],[1661.14,320.62],[1661.83,319.91],[1662.54,319.23],[1663.28,318.57],[1664.04,317.95]]}},{"type":"Feature","properties":{"id":"TV_RD_1735_X1","road":"TV_RD_1735","road_type":"collector","name":"South Tanner Road","kind":"bridge","structure":"concrete girder","length_m":24.7,"deck_width_m":9.0,"deck_z_m":[304.45,305.85,305.85],"water_level_m":300.95,"clearance_m":3.5,"waterway_class":"creek","piers":0},"geometry":{"type":"LineString","coordinates":[[1726.15,663.89],[1725.53,663.12],[1724.76,662.51],[1723.97,661.9],[1723.15,661.35],[1722.34,660.79],[1721.53,660.23],[1720.71,659.66],[1719.91,659.08],[1719.11,658.5],[1718.32,657.91]]}},{"type":"Feature","properties":{"id":"TV_RD_1735_X2","road":"TV_RD_1735","road_type":"collector","name":"South Tanner Road","kind":"bridge","structure":"concrete girder","length_m":34.6,"deck_width_m":9.0,"deck_z_m":[314.85,314.85,314.85],"water_level_m":311.35,"clearance_m":3.5,"waterway_class":"creek","piers":1},"geometry":{"type":"LineString","coordinates":[[1693.76,632.25],[1693.09,631.52],[1692.43,630.79],[1691.78,630.04],[1691.16,629.27],[1690.56,628.48],[1690.0,627.67],[1689.48,626.83],[1689.0,625.96],[1688.57,625.07],[1688.19,624.16],[1687.87,623.22],[1687.6,622.27],[1687.4,621.3],[1687.27,620.32]]}},{"type":"Feature","properties":{"id":"TV_RD_2980_X1","road":"TV_RD_2980","road_type":"arterial","name":"Mill Street Bridge","kind":"bridge","structure":"concrete girder","length_m":76.5,"deck_width_m":14.0,"deck_z_m":[312.98,312.98,312.98],"water_level_m":306.98,"clearance_m":6.0,"waterway_class":"river","piers":2},"geometry":{"type":"LineString","coordinates":[[1710.41,127.05],[1711.33,126.71],[1712.24,126.33],[1713.14,125.92],[1714.02,125.48],[1714.9,125.03],[1715.76,124.54],[1716.62,124.05],[1717.47,123.55],[1718.31,123.05],[1719.16,122.53],[1720.0,122.02],[1720.85,121.52],[1721.7,121.02],[1722.56,120.53],[1723.42,120.04],[1724.28,119.57],[1725.15,119.1],[1726.02,118.63],[1726.89,118.17],[1727.76,117.7],[1728.64,117.25],[1729.52,116.79],[1730.39,116.34],[1731.27,115.89],[1732.15,115.44],[1733.03,114.99],[1733.91,114.54],[1734.79,114.09],[1735.66,113.64],[1736.54,113.19],[1737.43,112.75]]}},{"type":"Feature","properties":{"id":"TV_RD_3112_X1","road":"TV_RD_3112","road_type":"arterial","name":"Tanner River Bridge (South St)","kind":"bridge","structure":"concrete girder","length_m":42.3,"deck_width_m":14.0,"deck_z_m":[295.78,297.21,297.21],"water_level_m":287.99,"clearance_m":7.79,"waterway_class":"river","piers":1},"geometry":{"type":"LineString","coordinates":[[1756.46,368.85],[1756.75,367.9],[1757.05,366.95],[1757.33,366.0],[1757.6,365.04],[1757.87,364.08],[1758.14,363.12],[1758.39,362.16],[1758.65,361.2],[1758.89,360.23],[1759.12,359.26],[1759.35,358.29],[1759.57,357.32],[1759.79,356.35],[1760.02,355.38],[1760.26,354.42],[1760.49,353.45],[1760.73,352.48]]}},{"type":"Feature","properties":{"id":"TV_RD_3112_X2","road":"TV_RD_3112","road_type":"arterial","name":"Tanner River Bridge (South St)","kind":"viaduct","structure":"concrete girder viaduct","length_m":32.3,"deck_width_m":14.0,"deck_z_m":[298.0,300.07,300.07],"water_level_m":null,"clearance_m":9.76,"waterway_class":null,"piers":0},"geometry":{"type":"LineString","coordinates":[[1762.05,346.66],[1762.22,345.68],[1762.36,344.7],[1762.5,343.71],[1762.6,342.72],[1762.7,341.73],[1762.79,340.74],[1762.87,339.74],[1762.95,338.75],[1763.07,337.77],[1763.36,336.82],[1763.65,335.86],[1763.94,334.91],[1764.23,333.96]]}},{"type":"Feature","properties":{"id":"TV_RD_1896_X1","road":"TV_RD_1896","road_type":"arterial","name":"Court Street","kind":"bridge","structure":"concrete girder","length_m":56.9,"deck_width_m":14.0,"deck_z_m":[314.41,314.41,314.41],"water_level_m":308.41,"clearance_m":6.0,"waterway_class":"river","piers":1},"geometry":{"type":"LineString","coordinates":[[1774.65,166.56],[1773.67,166.72],[1772.7,166.89],[1771.72,167.07],[1770.75,167.26],[1769.79,167.47],[1768.82,167.68],[1767.86,167.91],[1766.89,168.15],[1765.94,168.39],[1764.98,168.64],[1764.02,168.89],[1763.06,169.14],[1762.11,169.39],[1761.15,169.64],[1760.19,169.89],[1759.23,170.13],[1758.27,170.36],[1757.31,170.6],[1756.35,170.82],[1755.38,171.05],[1754.42,171.25],[1753.45,171.46],[1752.48,171.66]]}},{"type":"Feature","properties":{"id":"TV_RD_2894_X1","road":"TV_RD_2894","road_type":"arterial","name":"Riverfront Parkway","kind":"viaduct","structure":"concrete girder viaduct","length_m":59.5,"deck_width_m":14.0,"deck_z_m":[300.07,304.87,304.87],"water_level_m":null,"clearance_m":11.02,"waterway_class":null,"piers":0},"geometry":{"type":"LineString","coordinates":[[1764.23,333.96],[1765.19,334.21],[1766.15,334.46],[1767.12,334.68],[1768.08,334.9],[1769.05,335.11],[1770.02,335.31],[1771.0,335.5],[1771.97,335.69],[1772.94,335.88],[1773.92,336.07],[1774.89,336.27],[1775.86,336.46],[1776.83,336.66],[1777.81,336.85],[1778.78,337.05],[1779.75,337.26],[1780.72,337.46],[1781.69,337.67],[1782.66,337.87],[1783.63,338.07],[1784.6,338.27],[1785.57,338.46],[1786.55,338.66],[1787.52,338.85]]}},{"type":"Feature","properties":{"id":"TV_RD_2896_X1","road":"TV_RD_2896","road_type":"arterial","name":"Riverfront Parkway","kind":"viaduct","structure":"concrete girder viaduct","length_m":38.9,"deck_width_m":14.0,"deck_z_m":[308.07,308.07,304.87],"water_level_m":null,"clearance_m":15.51,"waterway_class":null,"piers":0},"geometry":{"type":"LineString","coordinates":[[1802.89,341.31],[1801.92,341.19],[1800.96,341.07],[1799.99,340.95],[1799.03,340.82],[1798.07,340.68],[1797.1,340.54],[1796.14,340.39],[1795.18,340.24],[1794.22,340.08],[1793.26,339.91],[1792.3,339.73],[1791.35,339.57],[1790.39,339.39],[1789.43,339.21],[1788.48,339.03],[1787.52,338.85]]}},{"type":"Feature","properties":{"id":"TV_RD_2988_X1","road":"TV_RD_2988","road_type":"ramp","name":"SR 60 Expressway southbound exit to Riverfront Parkway","kind":"viaduct","structure":"concrete girder viaduct","length_m":144.9,"deck_width_m":8.0,"deck_z_m":[308.07,310.34,310.31],"water_level_m":null,"clearance_m":16.1,"waterway_class":null,"piers":0},"geometry":{"type":"LineString","coordinates":[[1802.89,341.31],[1803.04,340.32],[1803.2,339.34],[1803.4,338.36],[1803.61,337.38],[1803.87,336.42],[1804.16,335.46],[1804.48,334.51],[1804.85,333.58],[1805.26,332.68],[1805.71,331.78],[1806.2,330.91],[1806.74,330.07],[1807.32,329.26],[1807.92,328.46],[1808.55,327.68],[1809.21,326.93],[1809.86,326.18],[1810.52,325.43],[1811.18,324.68],[1811.83,323.91],[1812.45,323.13],[1813.05,322.34],[1813.62,321.52],[1814.16,320.68],[1814.67,319.82],[1815.14,318.94],[1815.58,318.04],[1815.98,317.12],[1816.35,316.19],[1816.69,315.25],[1817.0,314.3],[1817.28,313.35],[1817.54,312.38],[1817.78,311.41],[1818.04,310.45],[1818.32,309.49],[1818.63,308.54],[1818.96,307.59],[1819.3,306.65],[1819.66,305.72],[1820.03,304.8],[1820.42,303.87],[1820.8,302.95],[1821.2,302.04],[1821.61,301.12],[1822.02,300.21],[1822.42,299.3],[1822.83,298.39],[1823.23,297.47],[1823.63,296.55],[1824.02,295.64],[1824.4,294.71],[1824.76,293.78],[1825.12,292.85],[1825.45,291.91],[1825.76,290.96],[1826.06,290.0],[1826.33,289.04]]}},{"type":"Feature","properties":{"id":"TV_RD_2607_X1","road":"TV_RD_2607","road_type":"arterial","name":"Riverfront Parkway","kind":"viaduct","structure":"concrete girder viaduct","length_m":76.3,"deck_width_m":14.0,"deck_z_m":[308.07,309.47,306.27],"water_level_m":null,"clearance_m":17.5,"waterway_class":null,"piers":0},"geometry":{"type":"LineString","coordinates":[[1802.89,341.31],[1803.87,341.42],[1804.85,341.53],[1805.82,341.64],[1806.8,341.74],[1807.78,341.84],[1808.76,341.94],[1809.74,342.04],[1810.72,342.14],[1811.7,342.24],[1812.68,342.33],[1813.66,342.42],[1814.64,342.52],[1815.62,342.62],[1816.6,342.72],[1817.57,342.82],[1818.55,342.92],[1819.53,343.02],[1820.51,343.12],[1821.49,343.23],[1822.47,343.35],[1823.44,343.47],[1824.42,343.59],[1825.4,343.72],[1826.37,343.83],[1827.35,343.95],[1828.33,344.07],[1829.3,344.18],[1830.28,344.29],[1831.26,344.39],[1832.24,344.49],[1833.22,344.59]]}},{"type":"Feature","properties":{"id":"TV_RD_2995_X1","road":"TV_RD_2995","road_type":"ramp","name":"SR 60 Expressway northbound entrance from Riverfront Parkway","kind":"viaduct","structure":"concrete girder viaduct","length_m":139.6,"deck_width_m":8.0,"deck_z_m":[306.27,310.25,310.25],"water_level_m":null,"clearance_m":16.47,"waterway_class":null,"piers":0},"geometry":{"type":"LineString","coordinates":[[1833.22,344.59],[1833.32,343.6],[1833.41,342.6],[1833.46,341.61],[1833.5,340.61],[1833.51,339.61],[1833.48,338.62],[1833.41,337.62],[1833.32,336.63],[1833.18,335.64],[1833.01,334.66],[1832.8,333.68],[1832.56,332.72],[1832.3,331.76],[1832.01,330.8],[1831.7,329.85],[1831.39,328.9],[1831.1,327.95],[1830.81,327.0],[1830.56,326.03],[1830.33,325.06],[1830.16,324.08],[1830.03,323.09],[1829.95,322.1],[1829.91,321.1],[1829.91,320.1],[1829.96,319.11],[1830.04,318.11],[1830.17,317.12],[1830.31,316.14],[1830.5,315.16],[1830.7,314.18],[1830.93,313.21],[1831.15,312.24],[1831.34,311.26],[1831.51,310.28],[1831.66,309.29],[1831.8,308.3],[1831.92,307.31],[1832.03,306.32],[1832.12,305.33],[1832.21,304.33],[1832.3,303.34],[1832.38,302.35],[1832.46,301.35],[1832.54,300.36],[1832.63,299.36],[1832.72,298.37],[1832.81,297.38],[1832.91,296.39],[1833.03,295.4],[1833.17,294.41],[1833.32,293.42],[1833.49,292.44],[1833.68,291.46],[1833.9,290.49],[1834.14,289.52]]}},{"type":"Feature","properties":{"id":"TV_RD_2999_X1","road":"TV_RD_2999","road_type":"freeway","name":"SR 60 Expressway","kind":"bridge","structure":"concrete girder","length_m":42.1,"deck_width_m":22.0,"deck_z_m":[320.27,320.27,320.27],"water_level_m":312.77,"clearance_m":7.5,"waterway_class":"river","piers":1},"geometry":{"type":"LineString","coordinates":[[1854.9,211.17],[1854.53,212.08],[1854.15,213.0],[1853.78,213.92],[1853.41,214.84],[1853.04,215.76],[1852.68,216.68],[1852.32,217.6],[1851.95,218.52],[1851.6,219.44],[1851.24,220.37],[1850.9,221.3],[1850.55,222.22],[1850.2,223.15],[1849.86,224.08],[1849.51,225.01],[1849.17,225.94],[1848.84,226.87]]}},{"type":"Feature","properties":{"id":"TV_RD_2999_X2","road":"TV_RD_2999","road_type":"freeway","name":"SR 60 Expressway","kind":"viaduct","structure":"concrete girder viaduct","length_m":89.1,"deck_width_m":22.0,"deck_z_m":[315.92,315.92,310.52],"water_level_m":null,"clearance_m":4.61,"waterway_class":null,"piers":0},"geometry":{"type":"LineString","coordinates":[[1839.98,254.19],[1839.7,255.14],[1839.43,256.09],[1839.15,257.04],[1838.87,257.99],[1838.59,258.94],[1838.32,259.9],[1838.05,260.85],[1837.77,261.8],[1837.5,262.75],[1837.23,263.7],[1836.97,264.66],[1836.69,265.61],[1836.42,266.56],[1836.15,267.52],[1835.89,268.47],[1835.63,269.43],[1835.36,270.38],[1835.09,271.33],[1834.83,272.29],[1834.57,273.24],[1834.31,274.2],[1834.04,275.15],[1833.78,276.11],[1833.52,277.06],[1833.26,278.02],[1833.0,278.97],[1832.74,279.93],[1832.48,280.89],[1832.22,281.84],[1831.97,282.8],[1831.71,283.76],[1831.45,284.71],[1831.19,285.67],[1830.94,286.62],[1830.68,287.58],[1830.43,288.54]]}},{"type":"Feature","properties":{"id":"TV_RD_3001_X1","road":"TV_RD_3001","road_type":"freeway","name":"SR 60 Expressway","kind":"bridge","structure":"concrete girder","length_m":114.9,"deck_width_m":22.0,"deck_z_m":[294.62,301.52,301.52],"water_level_m":286.59,"clearance_m":8.03,"waterway_class":"river","piers":3},"geometry":{"type":"LineString","coordinates":[[1815.99,392.36],[1815.91,391.37],[1815.82,390.37],[1815.75,389.38],[1815.67,388.38],[1815.61,387.38],[1815.55,386.39],[1815.5,385.39],[1815.45,384.39],[1815.4,383.39],[1815.36,382.39],[1815.33,381.4],[1815.3,380.4],[1815.28,379.4],[1815.27,378.4],[1815.26,377.4],[1815.26,376.4],[1815.26,375.4],[1815.27,374.41],[1815.28,373.41],[1815.3,372.41],[1815.32,371.41],[1815.35,370.41],[1815.38,369.41],[1815.42,368.41],[1815.47,367.42],[1815.51,366.42],[1815.57,365.42],[1815.63,364.42],[1815.69,363.43],[1815.76,362.43],[1815.84,361.44],[1815.92,360.44],[1816.0,359.44],[1816.09,358.45],[1816.19,357.46],[1816.28,356.46],[1816.39,355.47],[1816.5,354.47],[1816.61,353.48],[1816.72,352.49],[1816.84,351.5],[1816.97,350.51],[1817.09,349.52],[1817.22,348.53],[1817.36,347.54],[1817.5,346.55]]}},{"type":"Feature","properties":{"id":"TV_RD_3001_X2","road":"TV_RD_3001","road_type":"freeway","name":"SR 60 Expressway","kind":"viaduct","structure":"concrete girder viaduct","length_m":249.7,"deck_width_m":22.0,"deck_z_m":[295.22,310.22,310.22],"water_level_m":null,"clearance_m":6.74,"waterway_class":null,"piers":0},"geometry":{"type":"LineString","coordinates":[[1815.67,388.38],[1815.61,387.38],[1815.55,386.39],[1815.5,385.39],[1815.45,384.39],[1815.4,383.39],[1815.36,382.39],[1815.33,381.4],[1815.3,380.4],[1815.28,379.4],[1815.27,378.4],[1815.26,377.4],[1815.26,376.4],[1815.26,375.4],[1815.27,374.41],[1815.28,373.41],[1815.3,372.41],[1815.32,371.41],[1815.35,370.41],[1815.38,369.41],[1815.42,368.41],[1815.47,367.42],[1815.51,366.42],[1815.57,365.42],[1815.63,364.42],[1815.69,363.43],[1815.76,362.43],[1815.84,361.44],[1815.92,360.44],[1816.0,359.44],[1816.09,358.45],[1816.19,357.46],[1816.28,356.46],[1816.39,355.47],[1816.5,354.47],[1816.61,353.48],[1816.72,352.49],[1816.84,351.5],[1816.97,350.51],[1817.09,349.52],[1817.22,348.53],[1817.36,347.54],[1817.5,346.55],[1817.65,345.56],[1817.8,344.57],[1817.95,343.59],[1818.1,342.6],[1818.27,341.61],[1818.43,340.63],[1818.6,339.64],[1818.76,338.66],[1818.94,337.67],[1819.11,336.69],[1819.3,335.71],[1819.48,334.73],[1819.67,333.75],[1819.85,332.76],[1820.04,331.78],[1820.24,330.8],[1820.43,329.82],[1820.63,328.85],[1820.83,327.87],[1821.03,326.89],[1821.24,325.91],[1821.45,324.94],[1821.67,323.96],[1821.88,322.98],[1822.1,322.01],[1822.31,321.03],[1822.54,320.06],[1822.76,319.09],[1822.98,318.11],[1823.21,317.14],[1823.44,316.17],[1823.67,315.2],[1823.9,314.22],[1824.13,313.25],[1824.36,312.28],[1824.6,311.31],[1824.84,310.34],[1825.07,309.37],[1825.31,308.4],[1825.55,307.43],[1825.8,306.46],[1826.04,305.49],[1826.28,304.52],[1826.53,303.56],[1826.77,302.59],[1827.02,301.62],[1827.27,300.65],[1827.52,299.68],[1827.76,298.72],[1828.01,297.75],[1828.27,296.78],[1828.51,295.82],[1828.76,294.85],[1829.02,293.88],[1829.27,292.92],[1829.52,291.95],[1829.78,290.99],[1830.04,290.02]]}},{"type":"Feature","properties":{"id":"TV_RD_1178_X1","road":"TV_RD_1178","road_type":"arterial","name":"Riverfront Parkway","kind":"viaduct","structure":"concrete girder viaduct","length_m":86.0,"deck_width_m":14.0,"deck_z_m":[306.27,306.27,299.27],"water_level_m":null,"clearance_m":11.23,"waterway_class":null,"piers":0},"geometry":{"type":"LineString","coordinates":[[1833.22,344.59],[1834.2,344.68],[1835.18,344.78],[1836.15,344.88],[1837.13,344.97],[1838.11,345.07],[1839.09,345.17],[1840.07,345.27],[1841.04,345.38],[1842.02,345.49],[1843.0,345.59],[1843.97,345.7],[1844.95,345.81],[1845.93,345.93],[1846.9,346.04],[1847.88,346.15],[1848.85,346.26],[1849.83,346.38],[1850.81,346.5],[1851.78,346.62],[1852.76,346.74],[1853.73,346.86],[1854.71,346.99],[1855.68,347.13],[1856.65,347.26],[1857.63,347.39],[1858.6,347.54],[1859.57,347.68],[1860.54,347.82],[1861.52,347.96],[1862.49,348.11],[1863.46,348.26],[1864.43,348.42],[1865.4,348.57],[1866.37,348.73],[1867.34,348.89]]}},{"type":"Feature","properties":{"id":"TV_RD_2776_X1","road":"TV_RD_2776","road_type":"collector","name":"Arena Boulevard","kind":"viaduct","structure":"steel trestle","length_m":22.5,"deck_width_m":9.0,"deck_z_m":[299.27,300.39,300.39],"water_level_m":null,"clearance_m":9.29,"waterway_class":null,"piers":0},"geometry":{"type":"LineString","coordinates":[[1867.34,348.89],[1867.45,347.9],[1867.56,346.9],[1867.65,345.91],[1867.74,344.91],[1867.8,343.92],[1867.87,342.92],[1867.92,341.92],[1867.97,340.93],[1868.03,339.93]]}},{"type":"Feature","properties":{"id":"TV_RD_2779_X1","road":"TV_RD_2779","road_type":"collector","name":"Arena Boulevard","kind":"viaduct","structure":"steel trestle","length_m":27.1,"deck_width_m":9.0,"deck_z_m":[301.2,301.7,301.7],"water_level_m":null,"clearance_m":9.75,"waterway_class":null,"piers":0},"geometry":{"type":"LineString","coordinates":[[1873.31,328.51],[1874.03,327.84],[1874.76,327.18],[1875.49,326.51],[1876.21,325.84],[1876.91,325.15],[1877.61,324.46],[1878.27,323.72],[1878.92,322.98],[1879.52,322.19],[1880.11,321.41],[1880.64,320.57]]}},{"type":"Feature","properties":{"id":"TV_RD_3008_X1","road":"TV_RD_3008","road_type":"ramp","name":"SR 60 Expressway northbound exit to US 76","kind":"bridge","structure":"concrete girder","length_m":47.1,"deck_width_m":8.0,"deck_z_m":[322.44,322.44,321.78],"water_level_m":314.76,"clearance_m":7.02,"waterway_class":"river","piers":1},"geometry":{"type":"LineString","coordinates":[[1903.43,158.86],[1903.09,159.79],[1902.72,160.71],[1902.3,161.61],[1901.85,162.49],[1901.35,163.35],[1900.8,164.18],[1900.21,164.98],[1899.59,165.75],[1898.93,166.49],[1898.22,167.18],[1897.48,167.84],[1896.72,168.48],[1895.92,169.07],[1895.11,169.64],[1894.27,170.17],[1893.42,170.68],[1892.56,171.18],[1891.69,171.65],[1890.81,172.11]]}},{"type":"Feature","properties":{"id":"TV_RD_3012_X1","road":"TV_RD_3012","road_type":"highway","name":"US 76","kind":"bridge","structure":"concrete girder","length_m":16.6,"deck_width_m":18.0,"deck_z_m":[322.44,322.44,322.44],"water_level_m":314.76,"clearance_m":7.68,"waterway_class":"river","piers":0},"geometry":{"type":"LineString","coordinates":[[1896.99,157.17],[1897.91,157.41],[1898.83,157.65],[1899.75,157.89],[1900.67,158.13],[1901.59,158.37],[1902.51,158.61],[1903.43,158.86]]}},{"type":"Feature","properties":{"id":"TV_RD_2108_X1","road":"TV_RD_2108","road_type":"arterial","name":"Riverfront Parkway","kind":"bridge","structure":"concrete girder","length_m":69.0,"deck_width_m":14.0,"deck_z_m":[294.47,294.47,293.83],"water_level_m":287.83,"clearance_m":6.0,"waterway_class":"river","piers":2},"geometry":{"type":"LineString","coordinates":[[1890.35,352.83],[1891.32,352.99],[1892.29,353.16],[1893.26,353.34],[1894.23,353.53],[1895.19,353.72],[1896.16,353.93],[1897.12,354.14],[1898.08,354.36],[1899.04,354.58],[1900.0,354.81],[1900.96,355.05],[1901.91,355.29],[1902.87,355.53],[1903.82,355.77],[1904.78,356.02],[1905.73,356.27],[1906.68,356.53],[1907.63,356.79],[1908.58,357.05],[1909.53,357.32],[1910.48,357.59],[1911.43,357.86],[1912.37,358.13],[1913.32,358.41],[1914.27,358.68],[1915.21,358.96],[1916.16,359.23],[1917.11,359.5]]}},{"type":"Feature","properties":{"id":"TV_RD_3013_X1","road":"TV_RD_3013","road_type":"ramp","name":"SR 60 Expressway northbound entrance from US 76","kind":"bridge","structure":"concrete girder","length_m":67.3,"deck_width_m":8.0,"deck_z_m":[322.44,323.97,323.97],"water_level_m":315.58,"clearance_m":6.86,"waterway_class":"river","piers":2},"geometry":{"type":"LineString","coordinates":[[1903.74,157.91],[1904.04,156.96],[1904.34,156.01],[1904.62,155.06],[1904.9,154.1],[1905.16,153.14],[1905.41,152.17],[1905.66,151.2],[1905.89,150.24],[1906.12,149.26],[1906.33,148.29],[1906.53,147.31],[1906.73,146.34],[1906.91,145.36],[1907.09,144.38],[1907.26,143.39],[1907.41,142.41],[1907.56,141.42],[1907.71,140.44],[1907.84,139.45],[1907.97,138.46],[1908.09,137.47],[1908.21,136.48],[1908.32,135.49],[1908.43,134.5],[1908.53,133.51],[1908.63,132.52],[1908.72,131.52]]}},{"type":"Feature","properties":{"id":"TV_RD_3013_X2","road":"TV_RD_3013","road_type":"ramp","name":"SR 60 Expressway northbound entrance from US 76","kind":"bridge","structure":"concrete girder","length_m":57.3,"deck_width_m":8.0,"deck_z_m":[325.73,325.73,324.85],"water_level_m":316.85,"clearance_m":7.99,"waterway_class":"river","piers":1},"geometry":{"type":"LineString","coordinates":[[1915.19,102.5],[1915.61,101.6],[1916.06,100.71],[1916.51,99.82],[1916.99,98.94],[1917.47,98.07],[1917.96,97.21],[1918.47,96.35],[1918.99,95.5],[1919.53,94.66],[1920.07,93.82],[1920.62,92.99],[1921.12,92.12],[1921.55,91.22],[1921.9,90.29],[1922.21,89.35],[1922.51,88.39],[1922.79,87.44],[1923.08,86.48],[1923.38,85.54],[1923.73,84.6],[1924.13,83.69],[1924.6,82.81],[1925.17,81.99]]}},{"type":"Feature","properties":{"id":"TV_RD_3015_X1","road":"TV_RD_3015","road_type":"freeway","name":"SR 60 Expressway","kind":"bridge","structure":"concrete girder","length_m":22.6,"deck_width_m":22.0,"deck_z_m":[324.74,324.74,324.74],"water_level_m":316.88,"clearance_m":7.87,"waterway_class":"river","piers":0},"geometry":{"type":"LineString","coordinates":[[1916.78,86.92],[1917.3,86.18],[1917.82,85.44],[1918.35,84.71],[1918.87,83.98],[1919.4,83.25],[1919.95,82.53],[1920.49,81.8],[1921.03,81.08],[1921.57,80.36],[1922.13,79.65]]}},{"type":"Feature","properties":{"id":"TV_RD_3016_X1","road":"TV_RD_3016","road_type":"ramp","name":"merge link","kind":"bridge","structure":"concrete girder","length_m":9.6,"deck_width_m":8.0,"deck_z_m":[324.85,324.85,324.74],"water_level_m":316.88,"clearance_m":7.87,"waterway_class":"river","piers":0},"geometry":{"type":"LineString","coordinates":[[1925.17,81.99],[1924.41,81.41],[1923.65,80.82],[1922.89,80.23],[1922.13,79.65]]}},{"type":"Feature","properties":{"id":"TV_RD_2616_X1","road":"TV_RD_2616","road_type":"highway","name":"US 76","kind":"bridge","structure":"concrete girder","length_m":32.0,"deck_width_m":18.0,"deck_z_m":[322.44,322.44,322.44],"water_level_m":314.94,"clearance_m":7.5,"waterway_class":"river","piers":1},"geometry":{"type":"LineString","coordinates":[[1903.43,158.86],[1904.38,159.12],[1905.33,159.38],[1906.28,159.63],[1907.23,159.89],[1908.18,160.15],[1909.14,160.4],[1910.09,160.66],[1911.04,160.91],[1911.99,161.16],[1912.94,161.41],[1913.9,161.66],[1914.85,161.91],[1915.8,162.17]]}},{"type":"Feature","properties":{"id":"TV_RD_3017_X1","road":"TV_RD_3017","road_type":"freeway","name":"SR 60 Expressway","kind":"bridge","structure":"concrete girder","length_m":32.2,"deck_width_m":22.0,"deck_z_m":[325.0,325.0,325.0],"water_level_m":317.5,"clearance_m":7.5,"waterway_class":"river","piers":1},"geometry":{"type":"LineString","coordinates":[[1950.12,51.71],[1949.34,52.32],[1948.56,52.93],[1947.79,53.55],[1947.01,54.17],[1946.25,54.8],[1945.48,55.43],[1944.72,56.07],[1943.97,56.71],[1943.22,57.36],[1942.47,58.01],[1941.72,58.66],[1940.99,59.33],[1940.25,59.99]]}},{"type":"Feature","properties":{"id":"TV_RD_3017_X2","road":"TV_RD_3017","road_type":"freeway","name":"SR 60 Expressway","kind":"bridge","structure":"concrete girder","length_m":59.5,"deck_width_m":22.0,"deck_z_m":[324.74,324.74,324.74],"water_level_m":317.24,"clearance_m":7.5,"waterway_class":"river","piers":1},"geometry":{"type":"LineString","coordinates":[[1938.07,62.01],[1937.36,62.7],[1936.64,63.39],[1935.93,64.08],[1935.23,64.78],[1934.53,65.48],[1933.83,66.19],[1933.14,66.9],[1932.46,67.62],[1931.78,68.34],[1931.1,69.06],[1930.43,69.79],[1929.76,70.53],[1929.1,71.27],[1928.44,72.01],[1927.79,72.75],[1927.14,73.5],[1926.5,74.26],[1925.86,75.02],[1925.22,75.78],[1924.6,76.54],[1923.97,77.32],[1923.35,78.09],[1922.74,78.87],[1922.13,79.65]]}},{"type":"Feature","properties":{"id":"LC_RD_2700_OP50","road":"LC_RD_2700","road_type":"highway","kind":"overpass","structure":"concrete girder overpass","over":"LC_RD_2701","length_m":37.0,"deck_width_m":18.0,"clearance_m":6.0,"lower_z_m":323.39},"geometry":{"type":"LineString","coordinates":[[300.98,418.88],[301.33,418.69],[302.22,418.23],[303.1,417.75],[303.98,417.28],[304.85,416.8],[305.73,416.32],[306.6,415.83],[307.47,415.33],[308.33,414.83],[309.19,414.32],[310.04,413.8],[310.89,413.27],[311.74,412.73],[312.57,412.19],[313.41,411.64],[313.75,411.41]]}},{"type":"Feature","properties":{"id":"TV_RD_3006_OP51","road":"TV_RD_3006","road_type":"highway","kind":"overpass","structure":"concrete girder overpass","over":"TV_RD_3009","length_m":37.0,"deck_width_m":18.0,"clearance_m":6.0,"lower_z_m":316.55},"geometry":{"type":"LineString","coordinates":[[1874.5,151.31],[1874.93,151.42],[1875.9,151.66],[1876.86,151.9],[1877.83,152.15],[1878.79,152.41],[1879.76,152.66],[1880.72,152.92],[1881.69,153.18],[1882.65,153.44],[1883.61,153.7],[1884.58,153.96],[1885.54,154.22],[1886.51,154.48],[1887.47,154.74],[1888.44,154.99],[1888.81,155.09]]}},{"type":"Feature","properties":{"id":"LC_RD_2610_OP52","road":"LC_RD_2610","road_type":"arterial","kind":"overpass","structure":"concrete girder overpass","over":"LC_RD_0047","length_m":37.0,"deck_width_m":14.0,"clearance_m":6.0,"lower_z_m":331.87},"geometry":{"type":"LineString","coordinates":[[100.01,78.11],[99.99,78.61],[99.94,79.6],[99.86,80.6],[99.77,81.59],[99.66,82.58],[99.54,83.57],[99.41,84.56],[99.26,85.55],[99.11,86.53],[98.94,87.52],[98.76,88.5],[98.56,89.47],[98.35,90.45],[98.12,91.42],[97.88,92.39],[97.8,92.72]]}},{"type":"Feature","properties":{"id":"LC_RD_2610_OP53","road":"LC_RD_2610","road_type":"arterial","kind":"overpass","structure":"concrete girder overpass","over":"LC_RD_0080","length_m":37.0,"deck_width_m":14.0,"clearance_m":6.0,"lower_z_m":331.22},"geometry":{"type":"LineString","coordinates":[[95.97,62.07],[96.07,62.32],[96.46,63.24],[96.86,64.15],[97.25,65.07],[97.64,65.99],[98.01,66.91],[98.37,67.84],[98.7,68.78],[98.99,69.74],[99.26,70.7],[99.49,71.67],[99.68,72.65],[99.83,73.63],[99.93,74.62],[100.0,75.62],[100.02,76.19]]}},{"type":"Feature","properties":{"id":"LC_RD_2432_OP54","road":"LC_RD_2432","road_type":"arterial","kind":"overpass","structure":"concrete girder overpass","over":"LC_RD_2724","length_m":37.0,"deck_width_m":14.0,"clearance_m":6.0,"lower_z_m":314.87},"geometry":{"type":"LineString","coordinates":[[403.86,516.5],[403.84,516.57],[403.53,517.51],[403.22,518.46],[402.9,519.41],[402.58,520.36],[402.26,521.3],[401.93,522.24],[401.6,523.18],[401.26,524.12],[400.91,525.06],[400.55,525.99],[400.19,526.92],[399.82,527.85],[399.44,528.77],[399.06,529.69],[398.76,530.39]]}},{"type":"Feature","properties":{"id":"TV_RD_2607_OP55","road":"TV_RD_2607","road_type":"arterial","kind":"overpass","structure":"concrete girder overpass","over":"TV_RD_3001","length_m":37.0,"deck_width_m":14.0,"clearance_m":6.0,"lower_z_m":301.97},"geometry":{"type":"LineString","coordinates":[[1810.7,342.14],[1811.52,342.22],[1812.51,342.31],[1813.51,342.41],[1814.5,342.51],[1815.49,342.61],[1816.49,342.71],[1817.48,342.81],[1818.48,342.91],[1819.47,343.01],[1820.47,343.12],[1821.46,343.23],[1822.45,343.35],[1823.44,343.47],[1824.44,343.59],[1825.41,343.72]]}}]}
