{"type":"FeatureCollection","name":"rail_crossings","crs_note":"coordinates are source-image pixels of assets/maps/source/base_map.webp (x right, y down); see docs/COORDINATES.md","features":[{"type":"Feature","properties":{"road":"HR_RD_0318","rail":"RR_VALLEY","at":[969.42,415.76],"z":354.99,"angle_deg":48.0,"road_type":"collector","tracks":1},"geometry":{"type":"Point","coordinates":[969.42,415.76]}},{"type":"Feature","properties":{"road":"HR_RD_0604","rail":"RR_VALLEY","at":[1134.49,399.67],"z":358.99,"angle_deg":10.0,"road_type":"rural","tracks":1},"geometry":{"type":"Point","coordinates":[1134.49,399.67]}},{"type":"Feature","properties":{"road":"LC_RD_2785","rail":"RR_LC_YARD","at":[126.3,430.42],"z":329.36,"angle_deg":82.1,"road_type":"urban_street","tracks":6},"geometry":{"type":"Point","coordinates":[126.3,430.42]}},{"type":"Feature","properties":{"road":"HR_RD_0640","rail":"RR_VALLEY","at":[1150.98,403.22],"z":359.56,"angle_deg":65.1,"road_type":"residential","tracks":1},"geometry":{"type":"Point","coordinates":[1150.98,403.22]}}]}
