{"type":"FeatureCollection","name":"walls","crs_note":"coordinates are source-image pixels of assets/maps/source/base_map.webp (x right, y down); see docs/COORDINATES.md","features":[{"type":"Feature","properties":{"id":"LC_RD_0047_C1","road":"LC_RD_0047","kind":"rock_cut","side":"right","height_m":6.7,"retains":"cut","top_z_m":[344.43,344.66,344.19,343.6,342.93,342.43],"base_z_m":337.77},"geometry":{"type":"LineString","coordinates":[[78.83,85.6],[79.76,85.86],[80.69,86.12],[81.64,86.4],[82.6,86.67],[83.51,86.94]]}},{"type":"Feature","properties":{"id":"LC_RD_0047_C2","road":"LC_RD_0047","kind":"rock_cut","side":"right","height_m":6.0,"retains":"cut","top_z_m":[342.2,342.38,342.62,342.62,342.53,342.37,342.04,341.45],"base_z_m":336.58},"geometry":{"type":"LineString","coordinates":[[85.4,87.5],[86.34,87.79],[87.29,88.08],[88.27,88.38],[89.23,88.66],[90.18,88.95],[91.14,89.23],[92.09,89.52]]}},{"type":"Feature","properties":{"id":"LC_RD_0047_C3","road":"LC_RD_0047","kind":"rock_cut","side":"right","height_m":8.7,"retains":"cut","top_z_m":[341.18,342.46,342.77,342.62,342.28,341.84,341.08,340.17,339.12],"base_z_m":333.8},"geometry":{"type":"LineString","coordinates":[[102.78,92.47],[103.73,92.74],[104.69,93.0],[105.65,93.27],[106.59,93.52],[107.51,93.79],[108.49,94.07],[109.44,94.34],[110.36,94.61]]}},{"type":"Feature","properties":{"id":"LC_RD_2681_C4","road":"LC_RD_2681","kind":"rock_cut","side":"left","height_m":7.0,"retains":"cut","top_z_m":[341.52,341.62,341.71,342.07,342.69,343.13,343.34,343.35,343.27,343.09,342.76,342.41,342.1,341.96,341.92,341.84,341.74,341.64,341.52,341.36,341.17,340.99],"base_z_m":336.24},"geometry":{"type":"LineString","coordinates":[[165.72,325.31],[166.71,325.43],[167.7,325.54],[168.73,325.66],[169.75,325.79],[170.73,325.92],[171.73,326.04],[172.75,326.17],[173.74,326.3],[174.73,326.43],[175.75,326.56],[176.74,326.7],[177.76,326.84],[178.78,326.99],[179.74,327.13],[180.76,327.27],[181.78,327.43],[182.77,327.58],[183.76,327.73],[184.78,327.88],[185.79,328.05],[186.78,328.21]]}},{"type":"Feature","properties":{"id":"LC_RD_2363_C5","road":"LC_RD_2363","kind":"rock_cut","side":"right","height_m":9.7,"retains":"cut","top_z_m":[337.67,339.35,340.76,341.52,341.59,340.86,337.8,338.03,337.88,337.64,337.4,337.15,336.92],"base_z_m":331.92},"geometry":{"type":"LineString","coordinates":[[183.65,161.07],[184.17,161.84],[184.73,162.68],[185.31,163.54],[185.85,164.33],[186.37,165.13],[186.95,166.0],[187.5,166.82],[188.04,167.64],[188.61,168.49],[189.17,169.32],[189.72,170.15],[190.28,170.98],[190.83,171.81],[191.41,172.67],[191.97,173.49],[192.54,174.34],[193.14,175.2],[193.71,176.02],[194.29,176.85],[194.89,177.7],[195.48,178.53],[196.1,179.39],[196.71,180.21],[197.31,181.03]]}},{"type":"Feature","properties":{"id":"LC_RD_0484_C6","road":"LC_RD_0484","kind":"rock_cut","side":"left","height_m":5.7,"retains":"cut","top_z_m":[334.08,334.22,334.39,334.54,334.65,334.53,334.38,334.2,334.05,333.9],"base_z_m":328.9},"geometry":{"type":"LineString","coordinates":[[191.62,614.65],[190.99,615.48],[190.35,616.33],[189.69,617.17],[189.02,618.0],[188.34,618.81],[187.65,619.63],[186.93,620.43],[186.24,621.19],[185.51,621.97]]}},{"type":"Feature","properties":{"id":"LC_RD_0484_C7","road":"LC_RD_0484","kind":"rock_cut","side":"right","height_m":5.7,"retains":"cut","top_z_m":[334.05,334.21,334.36,334.53,334.61,334.51,334.35,334.19,334.03,333.88],"base_z_m":328.9},"geometry":{"type":"LineString","coordinates":[[183.94,609.02],[183.37,609.78],[182.81,610.52],[182.25,611.23],[181.67,611.95],[181.06,612.67],[180.47,613.37],[179.86,614.05],[179.22,614.76],[178.59,615.44]]}},{"type":"Feature","properties":{"id":"LC_RD_2572_W8","road":"LC_RD_2572","kind":"retaining_wall","side":"left","height_m":4.4,"retains":"fill","top_z_m":[338.44,338.61,338.79,338.99,339.28,339.58,339.88,340.18,340.48],"base_z_m":339.28},"geometry":{"type":"LineString","coordinates":[[215.48,293.84],[215.42,294.83],[215.36,295.82],[215.3,296.82],[215.24,297.81],[215.18,298.79],[215.12,299.77],[215.06,300.76],[214.63,303.08]]}},{"type":"Feature","properties":{"id":"LC_RD_1809_W9","road":"LC_RD_1809","kind":"retaining_wall","side":"left","height_m":3.4,"retains":"fill","top_z_m":[336.71,336.87,337.02,337.17,337.31,337.46,337.59,337.72,337.85,337.98,338.1,338.21,338.33,338.44],"base_z_m":337.66},"geometry":{"type":"LineString","coordinates":[[216.26,281.09],[216.21,282.07],[216.15,283.05],[216.09,284.03],[216.03,285.03],[215.96,286.01],[215.9,286.98],[215.84,287.95],[215.78,288.94],[215.72,289.92],[215.66,290.9],[215.6,291.88],[215.54,292.86],[215.48,293.84]]}},{"type":"Feature","properties":{"id":"LC_RD_2549_W10","road":"LC_RD_2549","kind":"retaining_wall","side":"left","height_m":4.5,"retains":"cut","top_z_m":[339.05,339.36,339.58,339.82,340.05,340.29,340.55,341.96,343.04,342.9,342.41],"base_z_m":337.69},"geometry":{"type":"LineString","coordinates":[[220.91,316.31],[219.94,316.05],[219.02,315.79],[218.09,315.53],[217.16,315.28],[216.24,315.02],[215.31,314.76],[214.38,314.51],[213.46,314.25],[212.53,313.99],[211.6,313.74]]}},{"type":"Feature","properties":{"id":"LC_RD_2701_C11","road":"LC_RD_2701","kind":"rock_cut","side":"right","height_m":6.5,"retains":"cut","top_z_m":[329.74,330.22,330.53,329.41,329.45,329.57,329.2],"base_z_m":324.02},"geometry":{"type":"LineString","coordinates":[[321.38,452.39],[321.87,453.26],[322.36,454.13],[322.87,455.02],[323.38,455.91],[323.87,456.77],[324.38,457.65]]}},{"type":"Feature","properties":{"id":"LC_RD_2724_C12","road":"LC_RD_2724","kind":"rock_cut","side":"left","height_m":5.6,"retains":"cut","top_z_m":[316.27,316.39,316.5,316.63,316.75,316.87,316.99,317.11,317.22,317.3,317.22,317.11,316.98,316.87],"base_z_m":311.54},"geometry":{"type":"LineString","coordinates":[[518.06,616.04],[517.56,615.2],[517.08,614.37],[516.6,613.57],[516.08,612.72],[515.58,611.9],[515.09,611.1],[514.57,610.3],[514.03,609.46],[513.5,608.64],[513.0,607.87],[512.46,607.08],[511.92,606.27],[511.38,605.5]]}},{"type":"Feature","properties":{"id":"LC_RD_2724_C13","road":"LC_RD_2724","kind":"rock_cut","side":"right","height_m":5.7,"retains":"cut","top_z_m":[316.28,316.38,316.52,316.63,316.75,316.87,317.0,317.12,317.23,317.32,317.24,317.11,316.99,316.85],"base_z_m":311.54},"geometry":{"type":"LineString","coordinates":[[528.17,610.2],[527.65,609.31],[527.13,608.41],[526.58,607.51],[526.06,606.65],[525.52,605.76],[524.96,604.86],[524.4,603.99],[523.86,603.14],[523.3,602.28],[522.71,601.38],[522.13,600.52],[521.55,599.67],[520.95,598.8]]}},{"type":"Feature","properties":{"id":"RU_RD_0180_C14","road":"RU_RD_0180","kind":"rock_cut","side":"left","height_m":6.7,"retains":"cut","top_z_m":[359.81,359.96,360.12,360.28,360.45,360.61,360.76,360.92,361.08,361.23,361.39,361.56,361.71,361.86,362.03,362.18,362.34,362.42,362.29,362.13,361.98,361.82,361.66],"base_z_m":355.51},"geometry":{"type":"LineString","coordinates":[[795.86,370.87],[796.79,371.16],[797.73,371.44],[798.67,371.72],[799.6,371.99],[800.55,372.26],[801.5,372.54],[802.44,372.8],[803.39,373.07],[804.34,373.32],[805.3,373.59],[806.24,373.85],[807.2,374.11],[808.14,374.36],[809.1,374.61],[810.05,374.86],[810.98,375.09],[811.92,375.33],[812.87,375.55],[813.82,375.78],[814.77,376.0],[815.71,376.21],[816.65,376.4]]}},{"type":"Feature","properties":{"id":"RU_RD_0180_C15","road":"RU_RD_0180","kind":"rock_cut","side":"right","height_m":6.7,"retains":"cut","top_z_m":[359.66,359.81,359.97,360.13,360.3,360.45,360.6,360.77,360.93,361.09,361.24,361.41,361.56,361.71,361.88,362.03,362.2,362.34,362.42,362.31,362.15,361.99,361.83,361.67],"base_z_m":355.49},"geometry":{"type":"LineString","coordinates":[[792.93,376.92],[793.9,377.21],[794.86,377.51],[795.83,377.8],[796.78,378.09],[797.77,378.37],[798.72,378.64],[799.68,378.92],[800.65,379.19],[801.62,379.47],[802.58,379.73],[803.54,379.99],[804.51,380.26],[805.47,380.52],[806.45,380.78],[807.41,381.03],[808.38,381.29],[809.37,381.54],[810.35,381.78],[811.34,382.02],[812.32,382.25],[813.31,382.47],[814.31,382.7],[815.31,382.9]]}},{"type":"Feature","properties":{"id":"RU_RD_0248_C16","road":"RU_RD_0248","kind":"rock_cut","side":"left","height_m":6.7,"retains":"cut","top_z_m":[364.16,364.32,364.49,364.65,364.81,364.97,365.13,365.29,365.44,365.6,365.76,365.9,366.03,366.15,366.39,366.57,366.27,365.71,365.22],"base_z_m":359.64},"geometry":{"type":"LineString","coordinates":[[911.82,372.63],[912.78,372.38],[913.75,372.13],[914.7,371.88],[915.64,371.63],[916.59,371.37],[917.55,371.11],[918.51,370.84],[919.46,370.58],[920.41,370.31],[921.37,370.03],[922.33,369.76],[923.28,369.49],[924.23,369.21],[925.19,368.93],[926.15,368.65],[927.11,368.37],[928.05,368.09],[928.99,367.81]]}},{"type":"Feature","properties":{"id":"RU_RD_0248_C17","road":"RU_RD_0248","kind":"rock_cut","side":"right","height_m":6.3,"retains":"cut","top_z_m":[364.01,364.17,364.32,364.48,364.65,364.81,364.96,365.12,365.29,365.44,365.6,365.75,365.91,366.02,366.08,366.05,365.91,365.54],"base_z_m":359.56},"geometry":{"type":"LineString","coordinates":[[912.48,379.31],[913.47,379.06],[914.44,378.81],[915.41,378.56],[916.39,378.31],[917.38,378.04],[918.35,377.77],[919.32,377.51],[920.29,377.24],[921.25,376.97],[922.23,376.7],[923.19,376.42],[924.15,376.14],[925.12,375.86],[926.09,375.58],[927.05,375.3],[928.01,375.02],[928.96,374.74]]}},{"type":"Feature","properties":{"id":"TV_RD_1432_W18","road":"TV_RD_1432","kind":"retaining_wall","side":"left","height_m":6.3,"retains":"fill","top_z_m":[319.05,318.87,318.69,318.51,318.32,318.13,317.93,317.73,317.53,317.32,317.11,316.9,316.68,316.46,316.25,316.02,315.8,315.57],"base_z_m":317.37},"geometry":{"type":"LineString","coordinates":[[1458.41,287.77],[1458.81,288.47],[1459.23,289.09],[1459.77,289.82],[1460.33,290.57],[1460.9,291.32],[1461.48,292.05],[1462.05,292.75],[1462.63,293.43],[1463.21,294.08],[1463.82,294.71],[1464.43,295.32],[1465.04,295.89],[1465.69,296.45],[1466.35,296.97],[1467.02,297.47],[1467.72,297.96],[1468.45,298.42],[1469.2,298.87],[1469.96,299.3],[1470.74,299.71],[1471.57,300.13],[1472.42,300.54],[1473.26,300.93],[1474.13,301.32],[1475.03,301.73],[1475.92,302.13],[1476.83,302.54],[1477.74,302.95],[1478.66,303.37],[1479.58,303.8],[1480.5,304.24],[1481.42,304.7],[1482.34,305.16],[1483.26,305.63],[1484.16,306.11]]}},{"type":"Feature","properties":{"id":"TV_RD_1432_W19","road":"TV_RD_1432","kind":"retaining_wall","side":"left","height_m":3.8,"retains":"fill","top_z_m":[315.11,314.99,314.87,314.74,314.62,314.49,314.37,314.24,314.1,313.97,313.84,313.7,313.56],"base_z_m":314.37},"geometry":{"type":"LineString","coordinates":[[1486.85,307.61],[1487.72,308.11],[1488.57,308.61],[1489.43,309.11],[1490.28,309.61],[1491.13,310.11],[1491.97,310.6],[1492.81,311.08],[1493.64,311.56],[1494.48,312.03],[1495.33,312.5],[1496.18,312.97],[1497.03,313.43]]}},{"type":"Feature","properties":{"id":"TV_RD_0103_W20","road":"TV_RD_0103","kind":"retaining_wall","side":"left","height_m":3.8,"retains":"fill","top_z_m":[313.28,313.14,313.0,312.85,312.71,312.56,312.42,312.28,312.13,311.99,311.85,311.71,311.57,311.43,311.3,311.16],"base_z_m":312.2},"geometry":{"type":"LineString","coordinates":[[1498.73,314.35],[1499.57,314.8],[1500.42,315.25],[1501.25,315.71],[1502.08,316.16],[1502.91,316.61],[1503.74,317.07],[1504.59,317.55],[1505.43,318.03],[1506.25,318.51],[1507.08,319.0],[1507.9,319.48],[1508.73,319.98],[1509.54,320.48],[1510.33,320.96],[1511.12,321.44]]}},{"type":"Feature","properties":{"id":"TV_RD_2860_W21","road":"TV_RD_2860","kind":"retaining_wall","side":"left","height_m":4.0,"retains":"fill","top_z_m":[311.16,310.91,310.66,310.43,310.21,310.01,309.83,309.67,309.52,309.39,309.28,309.19,309.11,309.04],"base_z_m":309.75},"geometry":{"type":"LineString","coordinates":[[1511.1,321.43],[1511.97,321.95],[1512.83,322.47],[1513.66,322.97],[1514.51,323.48],[1515.35,323.97],[1516.18,324.45],[1517.04,324.93],[1517.91,325.42],[1518.78,325.91],[1519.65,326.4],[1520.53,326.9],[1521.4,327.39],[1522.28,327.9],[1523.17,328.41],[1524.06,328.93],[1524.96,329.47],[1525.84,330.01],[1526.73,330.57],[1527.63,331.16],[1528.5,331.76],[1529.38,332.37],[1530.25,333.01],[1531.12,333.67],[1531.97,334.36],[1532.81,335.06],[1533.59,335.76]]}},{"type":"Feature","properties":{"id":"TV_RD_2862_W22","road":"TV_RD_2862","kind":"retaining_wall","side":"left","height_m":3.8,"retains":"fill","top_z_m":[309.04,309.01,308.99,308.96,308.94,308.92,308.9,308.88,308.87,308.85,308.84,308.82,308.81,308.79,308.77],"base_z_m":308.88},"geometry":{"type":"LineString","coordinates":[[1533.64,335.8],[1534.39,336.49],[1535.13,337.2],[1535.86,337.91],[1536.57,338.62],[1537.25,339.3],[1537.93,339.97],[1538.58,340.6],[1539.24,341.21],[1539.9,341.81],[1540.56,342.38],[1541.23,342.92],[1541.92,343.44],[1542.64,343.97],[1543.4,344.49]]}},{"type":"Feature","properties":{"id":"TV_RD_3121_W23","road":"TV_RD_3121","kind":"retaining_wall","side":"left","height_m":3.2,"retains":"fill","top_z_m":[308.77,308.76,308.74,308.72,308.7,308.68,308.65,308.63,308.6,308.57,308.54,308.51,308.47,308.44,308.4,308.36,308.32,308.28,308.24,308.2,308.15,308.11],"base_z_m":308.52},"geometry":{"type":"LineString","coordinates":[[1543.35,344.45],[1544.1,344.96],[1544.87,345.43],[1545.68,345.92],[1546.48,346.4],[1547.31,346.89],[1548.14,347.37],[1548.97,347.83],[1549.81,348.31],[1550.66,348.78],[1551.52,349.26],[1552.35,349.72],[1553.21,350.19],[1554.04,350.65],[1554.86,351.08],[1555.71,351.52],[1556.55,351.95],[1557.37,352.36],[1558.2,352.75],[1559.05,353.14],[1559.9,353.51],[1560.78,353.89]]}},{"type":"Feature","properties":{"id":"TV_RD_3064_W24","road":"TV_RD_3064","kind":"retaining_wall","side":"left","height_m":3.3,"retains":"fill","top_z_m":[308.11,308.02,307.93,307.84,307.75,307.66,307.58,307.49,307.41,307.33,307.25,307.17,307.09],"base_z_m":307.55},"geometry":{"type":"LineString","coordinates":[[1560.77,353.89],[1561.66,354.27],[1562.56,354.64],[1563.46,355.03],[1564.38,355.43],[1565.3,355.84],[1566.25,356.27],[1567.2,356.73],[1568.14,357.21],[1569.07,357.71],[1569.99,358.24],[1570.9,358.78],[1571.8,359.35],[1572.69,359.94],[1573.56,360.55],[1574.41,361.17],[1575.25,361.81],[1576.06,362.47],[1576.84,363.12],[1577.62,363.76],[1578.38,364.42],[1579.12,365.07],[1579.84,365.7],[1580.55,366.3],[1581.25,366.9],[1581.98,367.48]]}},{"type":"Feature","properties":{"id":"TV_RD_3066_W25","road":"TV_RD_3066","kind":"retaining_wall","side":"left","height_m":2.7,"retains":"fill","top_z_m":[307.05,307.01,306.97,306.93,306.89,306.85,306.81,306.77,306.73,306.68],"base_z_m":306.87},"geometry":{"type":"LineString","coordinates":[[1581.92,367.44],[1582.65,368.01],[1583.33,368.53],[1584.02,369.01],[1584.72,369.47],[1585.44,369.91],[1586.17,370.33],[1586.91,370.72],[1587.68,371.11],[1588.45,371.47]]}},{"type":"Feature","properties":{"id":"TV_RD_3066_W26","road":"TV_RD_3066","kind":"retaining_wall","side":"left","height_m":2.8,"retains":"fill","top_z_m":[306.56,306.52,306.47,306.43,306.39,306.35,306.31,306.27,306.22,306.18],"base_z_m":306.37},"geometry":{"type":"LineString","coordinates":[[1590.91,372.48],[1591.77,372.8],[1592.64,373.12],[1593.53,373.44],[1594.44,373.76],[1595.34,374.08],[1596.26,374.41],[1597.2,374.75],[1598.11,375.09],[1599.01,375.43]]}},{"type":"Feature","properties":{"id":"TV_RD_3072_W27","road":"TV_RD_3072","kind":"retaining_wall","side":"right","height_m":3.0,"retains":"fill","top_z_m":[305.83,305.86,305.89,305.93,305.96,306.0,306.03,306.07,306.11,306.14,306.18],"base_z_m":306.0},"geometry":{"type":"LineString","coordinates":[[1608.52,380.1],[1607.64,379.53],[1606.7,378.98],[1605.76,378.44],[1604.8,377.94],[1603.82,377.46],[1602.85,377.01],[1601.91,376.6],[1600.95,376.19],[1599.98,375.81],[1599.05,375.45]]}},{"type":"Feature","properties":{"id":"TV_RD_3076_W28","road":"TV_RD_3076","kind":"retaining_wall","side":"right","height_m":2.9,"retains":"fill","top_z_m":[305.62,305.64,305.66,305.68,305.7,305.73,305.75,305.78,305.8,305.83],"base_z_m":305.72},"geometry":{"type":"LineString","coordinates":[[1615.47,385.51],[1614.76,384.92],[1614.05,384.33],[1613.32,383.73],[1612.59,383.12],[1611.82,382.51],[1611.05,381.91],[1610.25,381.31],[1609.41,380.71],[1608.61,380.16]]}},{"type":"Feature","properties":{"id":"TV_RD_3163_W29","road":"TV_RD_3163","kind":"retaining_wall","side":"left","height_m":6.8,"retains":"fill","top_z_m":[303.92,303.71,303.49,303.28,303.06,302.84,302.62,302.39,302.15,301.9,301.65,301.38,301.11,300.82,300.52,300.22,299.92],"base_z_m":302.15},"geometry":{"type":"LineString","coordinates":[[1641.46,354.75],[1640.53,354.55],[1639.63,354.37],[1640.41,354.07],[1641.15,353.88],[1640.49,354.59],[1639.84,355.31],[1639.18,356.04],[1638.53,356.74],[1637.88,357.47],[1637.23,358.18],[1636.58,358.9],[1635.92,359.62],[1635.28,360.33],[1634.62,361.06],[1633.96,361.77],[1633.31,362.49]]}},{"type":"Feature","properties":{"id":"TV_RD_3163_W30","road":"TV_RD_3163","kind":"retaining_wall","side":"right","height_m":9.3,"retains":"fill","top_z_m":[303.92,303.71,303.49,303.28,303.06,302.84,302.62,302.39,302.15,301.9,301.65,301.38,301.11,300.82,300.52,300.22,299.92],"base_z_m":302.15},"geometry":{"type":"LineString","coordinates":[[1642.86,348.17],[1641.89,347.97],[1640.89,347.77],[1638.22,347.72],[1636.18,349.36],[1635.52,350.07],[1634.87,350.79],[1634.22,351.5],[1633.56,352.22],[1632.91,352.94],[1632.26,353.66],[1631.6,354.38],[1630.95,355.1],[1630.29,355.82],[1629.65,356.54],[1628.99,357.25],[1628.34,357.97]]}},{"type":"Feature","properties":{"id":"TV_RD_3166_W31","road":"TV_RD_3166","kind":"retaining_wall","side":"left","height_m":12.0,"retains":"fill","top_z_m":[307.12,307.18,306.97,306.37,305.77,305.17,304.57,303.97,303.37,302.77,302.17,301.57,300.97,300.37,299.77],"base_z_m":303.82},"geometry":{"type":"LineString","coordinates":[[1642.54,363.73],[1643.52,363.66],[1644.5,363.6],[1644.71,363.67],[1644.11,364.01],[1644.25,363.7],[1644.81,362.89],[1645.37,362.1],[1645.92,361.3],[1646.48,360.5],[1647.04,359.69],[1647.6,358.89],[1648.16,358.09],[1648.72,357.29],[1649.28,356.48],[1649.84,355.67],[1650.4,354.88],[1650.96,354.08],[1651.51,353.28],[1652.07,352.48],[1652.63,351.68],[1653.19,350.87],[1653.75,350.07],[1654.31,349.26],[1654.88,348.45],[1655.44,347.66],[1655.99,346.87],[1656.55,346.07],[1657.1,345.26],[1657.66,344.46]]}},{"type":"Feature","properties":{"id":"TV_RD_3166_W32","road":"TV_RD_3166","kind":"retaining_wall","side":"right","height_m":10.5,"retains":"fill","top_z_m":[307.12,307.18,306.97,306.37,305.77,305.17,304.57,303.97,303.37,302.77,302.17,301.57,300.97,300.37,299.77],"base_z_m":303.82},"geometry":{"type":"LineString","coordinates":[[1643.0,370.43],[1643.97,370.36],[1644.94,370.3],[1646.68,370.1],[1648.78,368.84],[1649.76,367.54],[1650.31,366.75],[1650.88,365.94],[1651.44,365.14],[1652.0,364.33],[1652.55,363.53],[1653.11,362.74],[1653.67,361.93],[1654.23,361.13],[1654.79,360.33],[1655.34,359.53],[1655.91,358.73],[1656.47,357.92],[1657.03,357.12],[1657.59,356.32],[1658.15,355.51],[1658.7,354.71],[1659.26,353.91],[1659.81,353.11],[1660.37,352.32],[1660.94,351.52],[1661.51,350.71],[1662.06,349.9],[1662.62,349.1],[1663.18,348.3]]}},{"type":"Feature","properties":{"id":"TV_RD_3105_W33","road":"TV_RD_3105","kind":"retaining_wall","side":"left","height_m":7.0,"retains":"fill","top_z_m":[301.65,302.05,302.45,302.85,303.25,303.65,304.05,304.25,304.25,304.25,304.25,304.25,304.25],"base_z_m":304.05},"geometry":{"type":"LineString","coordinates":[[1714.65,421.11],[1715.58,421.42],[1716.5,421.71],[1717.39,421.99],[1718.27,422.24],[1719.15,422.47],[1719.99,422.68],[1720.84,422.84],[1721.7,422.99],[1722.53,423.11],[1723.36,423.18],[1724.21,423.23],[1725.05,423.25],[1725.9,423.23],[1726.74,423.19],[1727.59,423.09],[1728.43,422.99],[1729.31,422.84],[1730.19,422.69],[1731.06,422.49],[1731.96,422.28],[1732.85,422.04],[1733.76,421.8],[1734.67,421.53],[1735.61,421.25]]}},{"type":"Feature","properties":{"id":"TV_RD_3105_W34","road":"TV_RD_3105","kind":"retaining_wall","side":"right","height_m":5.3,"retains":"fill","top_z_m":[303.25,303.45,303.65,303.85,304.05,304.25,304.25,304.25,304.25,304.25,304.25,304.25,304.25,304.25,304.25,304.25,304.25],"base_z_m":304.25},"geometry":{"type":"LineString","coordinates":[[1720.49,430.82],[1721.63,430.97],[1722.78,431.08],[1723.91,431.14],[1725.06,431.17],[1726.2,431.14],[1727.35,431.08],[1728.48,430.96],[1729.6,430.83],[1730.68,430.64],[1731.76,430.45],[1732.83,430.21],[1733.86,429.97],[1734.9,429.69],[1735.9,429.42],[1736.9,429.13],[1737.87,428.85]]}},{"type":"Feature","properties":{"id":"TV_RD_2418_W35","road":"TV_RD_2418","kind":"retaining_wall","side":"right","height_m":3.1,"retains":"fill","top_z_m":[307.67,307.87,308.07,308.27,308.47,308.67,308.87,309.07,309.27,309.47,309.67],"base_z_m":308.67},"geometry":{"type":"LineString","coordinates":[[1721.42,183.93],[1722.51,183.81],[1723.59,183.66],[1724.64,183.47],[1725.69,183.27],[1726.72,183.01],[1727.71,182.77],[1728.7,182.49],[1729.68,182.2],[1730.63,181.9],[1731.55,181.61]]}},{"type":"Feature","properties":{"id":"TV_RD_3107_W36","road":"TV_RD_3107","kind":"retaining_wall","side":"left","height_m":6.0,"retains":"fill","top_z_m":[304.25,304.22,304.2,304.17,304.15,304.12,304.09,304.07,304.04,304.02,303.99,303.96,303.94,303.91,303.88,303.85,303.83,303.8],"base_z_m":304.03},"geometry":{"type":"LineString","coordinates":[[1739.64,426.75],[1739.14,427.61],[1738.63,428.47],[1738.13,429.33],[1737.63,430.19],[1737.13,431.05],[1736.62,431.9],[1736.12,432.76],[1735.62,433.62],[1735.11,434.48],[1734.61,435.34],[1734.11,436.2],[1733.6,437.06],[1733.1,437.92],[1732.6,438.78],[1732.1,439.64],[1731.59,440.5],[1731.09,441.36]]}},{"type":"Feature","properties":{"id":"TV_RD_3107_W37","road":"TV_RD_3107","kind":"retaining_wall","side":"right","height_m":6.1,"retains":"fill","top_z_m":[304.25,304.22,304.2,304.17,304.15,304.12,304.09,304.07,304.04,304.02,303.99,303.96,303.94,303.91,303.88,303.85,303.83,303.8],"base_z_m":304.03},"geometry":{"type":"LineString","coordinates":[[1733.84,423.35],[1733.34,424.21],[1732.83,425.07],[1732.33,425.93],[1731.83,426.79],[1731.32,427.65],[1730.82,428.51],[1730.32,429.37],[1729.82,430.23],[1729.31,431.09],[1728.81,431.95],[1728.31,432.81],[1727.8,433.67],[1727.3,434.53],[1726.8,435.39],[1726.29,436.25],[1725.79,437.11],[1725.29,437.97]]}},{"type":"Feature","properties":{"id":"TV_RD_1810_W38","road":"TV_RD_1810","kind":"retaining_wall","side":"right","height_m":4.1,"retains":"fill","top_z_m":[306.87,306.64,306.4,306.17,305.94,305.71,305.48,305.26],"base_z_m":306.06},"geometry":{"type":"LineString","coordinates":[[1735.81,455.54],[1734.98,455.03],[1734.15,454.52],[1733.32,454.02],[1732.5,453.51],[1731.67,453.01],[1730.85,452.5],[1730.0,451.99]]}},{"type":"Feature","properties":{"id":"TV_RD_2742_W39","road":"TV_RD_2742","kind":"retaining_wall","side":"left","height_m":3.8,"retains":"fill","top_z_m":[309.67,309.73,309.8,309.86,309.91,309.96,310.0,310.03,310.05,310.07,310.08,310.08,310.07,310.07],"base_z_m":310.01},"geometry":{"type":"LineString","coordinates":[[1726.99,177.93],[1726.97,176.93],[1726.94,175.94],[1726.91,174.94],[1726.89,173.95],[1726.86,172.95],[1726.83,171.96],[1726.81,170.96],[1726.78,169.97],[1726.76,168.97],[1726.73,167.98],[1726.7,166.98],[1726.68,165.99],[1726.65,164.99]]}},{"type":"Feature","properties":{"id":"TV_RD_2423_W40","road":"TV_RD_2423","kind":"retaining_wall","side":"left","height_m":3.7,"retains":"fill","top_z_m":[309.67,309.37,309.07,308.77,308.47,308.17],"base_z_m":308.92},"geometry":{"type":"LineString","coordinates":[[1729.39,181.06],[1728.45,180.78],[1727.5,180.5],[1726.55,180.22],[1725.61,179.93],[1724.66,179.65]]}},{"type":"Feature","properties":{"id":"TV_RD_0761_W41","road":"TV_RD_0761","kind":"retaining_wall","side":"right","height_m":3.8,"retains":"fill","top_z_m":[309.67,309.38,309.09,308.81,308.53,308.26],"base_z_m":308.95},"geometry":{"type":"LineString","coordinates":[[1726.99,177.93],[1727.02,178.91],[1727.04,179.89],[1727.07,180.87],[1727.09,181.85],[1727.12,182.83]]}},{"type":"Feature","properties":{"id":"TV_RD_3169_W42","road":"TV_RD_3169","kind":"retaining_wall","side":"left","height_m":4.1,"retains":"fill","top_z_m":[306.87,306.65,306.42,306.2,305.98,305.76,305.54],"base_z_m":306.2},"geometry":{"type":"LineString","coordinates":[[1735.79,455.53],[1736.59,456.01],[1737.4,456.5],[1738.2,456.99],[1739.0,457.48],[1739.8,457.97],[1740.6,458.45]]}},{"type":"Feature","properties":{"id":"TV_RD_2963_W43","road":"TV_RD_2963","kind":"retaining_wall","side":"left","height_m":3.4,"retains":"fill","top_z_m":[308.53,308.74,308.94,309.12,309.29,309.44,309.58],"base_z_m":309.12},"geometry":{"type":"LineString","coordinates":[[1745.3,156.37],[1745.27,157.34],[1745.25,158.31],[1745.22,159.28],[1745.19,160.25],[1745.17,161.22],[1745.14,162.19]]}},{"type":"Feature","properties":{"id":"TV_RD_3170_W44","road":"TV_RD_3170","kind":"retaining_wall","side":"left","height_m":8.0,"retains":"fill","top_z_m":[304.25,304.25,304.25,304.25,304.25,304.25,304.25,304.25,304.25,304.25,304.25,304.25,304.25,304.25,304.25,304.25,304.25,304.25],"base_z_m":304.25},"geometry":{"type":"LineString","coordinates":[[1753.23,423.76],[1752.33,424.06],[1751.44,424.35],[1750.54,424.65],[1749.65,424.94],[1748.76,425.23],[1747.86,425.53],[1746.98,425.83],[1746.09,426.13],[1745.2,426.43],[1744.3,426.74],[1743.4,427.04],[1742.5,427.35],[1741.57,427.65],[1740.65,427.95],[1739.75,428.24],[1738.85,428.53],[1737.95,428.82]]}},{"type":"Feature","properties":{"id":"TV_RD_3170_W45","road":"TV_RD_3170","kind":"retaining_wall","side":"right","height_m":8.8,"retains":"fill","top_z_m":[304.25,304.25,304.25,304.25,304.25,304.25,304.25,304.25,304.25,304.25,304.25,304.25,304.25,304.25,304.25,304.25,304.25,304.25],"base_z_m":304.25},"geometry":{"type":"LineString","coordinates":[[1750.77,416.24],[1749.87,416.53],[1748.97,416.82],[1748.07,417.12],[1747.16,417.42],[1746.26,417.72],[1745.36,418.02],[1744.45,418.32],[1743.55,418.63],[1742.65,418.93],[1741.76,419.23],[1740.86,419.54],[1739.98,419.84],[1739.11,420.13],[1738.23,420.41],[1737.33,420.7],[1736.43,420.99],[1735.53,421.28]]}},{"type":"Feature","properties":{"id":"TV_RD_1848_W46","road":"TV_RD_1848","kind":"retaining_wall","side":"left","height_m":7.3,"retains":"fill","top_z_m":[312.47,312.67,312.87,313.07,313.27,313.47,313.67,313.87,314.07,314.27,314.47],"base_z_m":313.47},"geometry":{"type":"LineString","coordinates":[[1742.28,169.87],[1743.23,169.63],[1744.18,169.4],[1745.14,169.18],[1746.09,168.96],[1747.03,168.76],[1747.96,168.56],[1748.9,168.36],[1749.84,168.17],[1750.75,167.98],[1751.65,167.79]]}},{"type":"Feature","properties":{"id":"TV_RD_1848_W47","road":"TV_RD_1848","kind":"retaining_wall","side":"right","height_m":4.9,"retains":"fill","top_z_m":[312.47,312.67,312.87,313.07,313.27,313.47,313.67,313.87,314.07,314.27,314.47],"base_z_m":313.47},"geometry":{"type":"LineString","coordinates":[[1744.26,177.54],[1745.14,177.32],[1746.02,177.1],[1746.91,176.9],[1747.79,176.7],[1748.7,176.5],[1749.61,176.31],[1750.52,176.11],[1751.43,175.92],[1752.37,175.73],[1753.31,175.53]]}},{"type":"Feature","properties":{"id":"TV_RD_3110_W48","road":"TV_RD_3110","kind":"retaining_wall","side":"left","height_m":7.6,"retains":"fill","top_z_m":[301.81,301.21,300.61,300.01,299.41,298.85,298.42,298.04,297.69,297.32,296.92,296.36,295.76,295.16],"base_z_m":298.23},"geometry":{"type":"LineString","coordinates":[[1746.22,405.41],[1746.73,404.57],[1747.24,403.73],[1747.76,402.89],[1748.27,402.05],[1748.79,401.21],[1749.3,400.37],[1749.82,399.53],[1750.33,398.69],[1750.85,397.85],[1751.36,397.01],[1751.88,396.17],[1752.39,395.33],[1752.91,394.49],[1753.42,393.65],[1753.94,392.81],[1754.45,391.97],[1754.97,391.13],[1755.48,390.29],[1755.99,389.45],[1756.51,388.61],[1757.02,387.77],[1757.54,386.93],[1758.05,386.09],[1758.57,385.25],[1759.08,384.41],[1759.6,383.57]]}},{"type":"Feature","properties":{"id":"TV_RD_3110_W49","road":"TV_RD_3110","kind":"retaining_wall","side":"right","height_m":7.4,"retains":"fill","top_z_m":[301.81,301.21,300.61,300.01,299.41,298.85,298.42,298.04,297.69,297.32,296.92,296.36,295.76,295.16],"base_z_m":298.23},"geometry":{"type":"LineString","coordinates":[[1751.94,408.93],[1752.46,408.09],[1752.97,407.25],[1753.49,406.41],[1754.0,405.57],[1754.52,404.73],[1755.03,403.89],[1755.55,403.05],[1756.06,402.21],[1756.58,401.37],[1757.09,400.53],[1757.61,399.69],[1758.12,398.85],[1758.64,398.01],[1759.15,397.17],[1759.67,396.33],[1760.18,395.49],[1760.69,394.65],[1761.21,393.81],[1761.72,392.97],[1762.24,392.13],[1762.75,391.29],[1763.27,390.45],[1763.78,389.61],[1764.3,388.77],[1764.81,387.93],[1765.33,387.09]]}},{"type":"Feature","properties":{"id":"TV_RD_2889_W50","road":"TV_RD_2889","kind":"retaining_wall","side":"left","height_m":8.6,"retains":"fill","top_z_m":[301.81,301.98,302.14,302.32,302.49,302.66,302.83,303.01,303.18,303.36,303.54,303.71,303.89,304.07,304.25],"base_z_m":303.01},"geometry":{"type":"LineString","coordinates":[[1751.61,406.43],[1751.88,407.33],[1752.14,408.22],[1752.41,409.13],[1752.69,410.06],[1752.95,411.0],[1753.19,411.95],[1753.43,412.91],[1753.65,413.88],[1753.84,414.85],[1754.02,415.82],[1754.18,416.78],[1754.33,417.73],[1754.48,418.68],[1754.61,419.63]]}},{"type":"Feature","properties":{"id":"TV_RD_2889_W51","road":"TV_RD_2889","kind":"retaining_wall","side":"right","height_m":7.7,"retains":"fill","top_z_m":[301.81,301.98,302.14,302.32,302.49,302.66,302.83,303.01,303.18,303.36,303.54,303.71,303.89,304.07,304.25],"base_z_m":303.01},"geometry":{"type":"LineString","coordinates":[[1746.55,407.91],[1746.81,408.82],[1747.08,409.73],[1747.35,410.63],[1747.61,411.5],[1747.85,412.37],[1748.07,413.24],[1748.29,414.12],[1748.48,414.98],[1748.66,415.86],[1748.82,416.73],[1748.97,417.63],[1749.12,418.55],[1749.26,419.45],[1749.39,420.37]]}},{"type":"Feature","properties":{"id":"TV_RD_2845_W52","road":"TV_RD_2845","kind":"retaining_wall","side":"left","height_m":4.9,"retains":"fill","top_z_m":[312.42,312.62,312.83,313.03,313.22,313.4,313.57,313.73,313.87,313.99,314.1,314.18,314.26,314.31,314.36,314.39,314.42,314.44,314.45,314.46,314.47],"base_z_m":314.1},"geometry":{"type":"LineString","coordinates":[[1745.39,175.88],[1746.35,176.07],[1747.31,176.27],[1748.27,176.46],[1749.23,176.66],[1750.2,176.85],[1751.16,177.05],[1752.12,177.25],[1753.08,177.44],[1754.05,177.64],[1752.45,178.35],[1750.96,180.79],[1750.8,180.04],[1750.59,179.07],[1750.39,178.11],[1750.19,177.15],[1749.99,176.19],[1749.79,175.23],[1749.59,174.27],[1749.39,173.31],[1749.19,172.35]]}},{"type":"Feature","properties":{"id":"TV_RD_2845_W53","road":"TV_RD_2845","kind":"retaining_wall","side":"right","height_m":7.3,"retains":"fill","top_z_m":[312.42,312.62,312.83,313.03,313.22,313.4,313.57,313.73,313.87,313.99,314.1,314.18,314.26,314.31,314.36,314.39,314.42,314.44,314.45,314.46,314.47],"base_z_m":314.1},"geometry":{"type":"LineString","coordinates":[[1744.05,182.46],[1745.01,182.66],[1745.97,182.85],[1746.93,183.05],[1747.9,183.24],[1748.86,183.44],[1749.82,183.64],[1750.78,183.83],[1751.74,184.03],[1752.71,184.22],[1756.23,183.9],[1757.61,179.84],[1757.37,178.66],[1757.17,177.7],[1756.97,176.74],[1756.77,175.78],[1756.57,174.82],[1756.37,173.86],[1756.17,172.9],[1755.97,171.93],[1755.77,170.97]]}},{"type":"Feature","properties":{"id":"TV_RD_3112_W54","road":"TV_RD_3112","kind":"retaining_wall","side":"left","height_m":9.4,"retains":"fill","top_z_m":[301.81,301.31,300.81,300.33,299.83,299.33,298.82,298.29,297.74,297.17,296.58,295.99,295.41,294.85],"base_z_m":298.56},"geometry":{"type":"LineString","coordinates":[[1746.54,407.89],[1746.26,406.91],[1745.99,405.88],[1745.75,404.84],[1745.53,403.77],[1745.36,402.69],[1745.22,401.6],[1745.14,400.5],[1745.09,399.39],[1745.11,398.27],[1745.16,397.16],[1745.27,396.08],[1745.4,395.0],[1745.58,393.93],[1745.78,392.88],[1746.03,391.84],[1746.27,390.82],[1746.55,389.82],[1746.83,388.83],[1747.13,387.84],[1747.43,386.86],[1747.75,385.89],[1748.07,384.92],[1748.4,383.97],[1748.73,383.03],[1749.06,382.08],[1749.4,381.13],[1749.73,380.19],[1750.07,379.25],[1750.41,378.31],[1750.75,377.37],[1751.08,376.44],[1751.42,375.51],[1751.75,374.57],[1752.07,373.66],[1752.39,372.72],[1752.72,371.78],[1753.03,370.86],[1753.34,369.92],[1753.64,368.99]]}},{"type":"Feature","properties":{"id":"TV_RD_3112_W55","road":"TV_RD_3112","kind":"retaining_wall","side":"left","height_m":6.5,"retains":"fill","top_z_m":[293.88,293.68,293.48,293.28,293.08,292.88,292.69,292.71,292.74,292.78,292.82,292.86,292.91],"base_z_m":292.88},"geometry":{"type":"LineString","coordinates":[[1758.41,350.89],[1758.64,349.93],[1758.87,348.98],[1759.08,348.05],[1759.28,347.12],[1759.46,346.19],[1759.62,345.27],[1759.75,344.33],[1759.88,343.39],[1759.98,342.45],[1760.07,341.48],[1760.16,340.51],[1760.24,339.54]]}},{"type":"Feature","properties":{"id":"TV_RD_3112_W56","road":"TV_RD_3112","kind":"retaining_wall","side":"right","height_m":9.6,"retains":"fill","top_z_m":[301.81,301.31,300.81,300.33,299.83,299.33,298.82,298.29,297.74,297.17,296.58,295.99,295.41,294.85],"base_z_m":298.56},"geometry":{"type":"LineString","coordinates":[[1751.62,406.45],[1751.36,405.52],[1751.12,404.62],[1750.91,403.72],[1750.73,402.84],[1750.59,401.95],[1750.48,401.07],[1750.41,400.18],[1750.37,399.31],[1750.39,398.43],[1750.43,397.55],[1750.52,396.66],[1750.62,395.76],[1750.78,394.87],[1750.95,393.97],[1751.16,393.06],[1751.38,392.15],[1751.64,391.24],[1751.9,390.31],[1752.18,389.39],[1752.46,388.47],[1752.76,387.55],[1753.07,386.62],[1753.39,385.7],[1753.71,384.76],[1754.04,383.83],[1754.37,382.9],[1754.7,381.97],[1755.04,381.03],[1755.37,380.1],[1755.71,379.17],[1756.06,378.22],[1756.39,377.28],[1756.73,376.34],[1757.06,375.38],[1757.38,374.44],[1757.71,373.49],[1758.04,372.53],[1758.35,371.57],[1758.67,370.61]]}},{"type":"Feature","properties":{"id":"TV_RD_3112_W57","road":"TV_RD_3112","kind":"retaining_wall","side":"right","height_m":6.4,"retains":"fill","top_z_m":[293.88,293.68,293.48,293.28,293.08,292.88,292.69,292.71,292.74,292.78,292.82,292.86,292.91,292.97,293.03,293.08,293.15,293.21],"base_z_m":293.0},"geometry":{"type":"LineString","coordinates":[[1763.54,352.15],[1763.77,351.17],[1764.01,350.18],[1764.24,349.17],[1764.45,348.16],[1764.65,347.13],[1764.83,346.09],[1764.98,345.06],[1765.12,344.03],[1765.23,342.99],[1765.33,341.97],[1765.42,340.96],[1765.5,339.95],[1765.57,339.02],[1765.65,338.32],[1765.89,337.59],[1766.18,336.63],[1766.47,335.68]]}},{"type":"Feature","properties":{"id":"TV_RD_2468_W58","road":"TV_RD_2468","kind":"retaining_wall","side":"left","height_m":3.3,"retains":"fill","top_z_m":[309.87,309.85,309.83,309.8,309.77,309.73,309.68,309.62],"base_z_m":309.78},"geometry":{"type":"LineString","coordinates":[[1759.77,216.37],[1759.78,217.35],[1759.79,218.34],[1759.8,219.32],[1759.8,220.3],[1759.81,221.28],[1759.82,222.27],[1759.83,223.25]]}},{"type":"Feature","properties":{"id":"TV_RD_3142_W59","road":"TV_RD_3142","kind":"retaining_wall","side":"right","height_m":4.0,"retains":"cut","top_z_m":[310.21,310.5,310.76,311.02,311.26,311.43,311.56,311.7,311.36,310.0],"base_z_m":307.74},"geometry":{"type":"LineString","coordinates":[[1750.1,486.3],[1751.0,486.69],[1751.91,487.08],[1752.81,487.46],[1753.72,487.85],[1754.62,488.24],[1755.52,488.62],[1756.81,489.15],[1760.17,488.98],[1761.94,486.95]]}},{"type":"Feature","properties":{"id":"TV_RD_3009_C60","road":"TV_RD_3009","kind":"rock_cut","side":"right","height_m":6.6,"retains":"cut","top_z_m":[324.79,324.95,325.04,325.11,325.11,325.19,325.2,324.88,324.59,323.9,323.16,323.69,323.07],"base_z_m":318.61},"geometry":{"type":"LineString","coordinates":[[1893.85,114.39],[1893.39,115.28],[1892.93,116.18],[1892.47,117.1],[1892.02,118.0],[1891.57,118.9],[1891.12,119.81],[1890.67,120.71],[1890.22,121.62],[1889.77,122.53],[1889.34,123.43],[1888.9,124.32],[1888.45,125.24]]}}]}
