{"type":"FeatureCollection","name":"railways","crs_note":"coordinates are source-image pixels of assets/maps/source/base_map.webp (x right, y down); see docs/COORDINATES.md","features":[{"type":"Feature","properties":{"id":"RR_LC_YARD","name":"Laurel City Yard","type":"rail","gauge_mm":1435,"tracks":6,"length_m":491.0,"bridge_spans":[],"width_m":24.5,"material":"RAIL_BALLAST","max_grade_pct":1.12},"geometry":{"type":"LineString","coordinates":[[0.5,375.0,331.45],[4.28,376.28,331.35],[8.05,377.56,331.25],[11.83,378.84,331.15],[15.61,380.13,331.05],[19.38,381.41,330.95],[23.14,382.75,330.86],[26.88,384.14,330.77],[30.61,385.54,330.68],[34.35,386.93,330.6],[38.08,388.33,330.52],[41.82,389.73,330.45],[45.68,390.72,330.38],[49.54,391.71,330.31],[53.41,392.7,330.25],[57.27,393.7,330.19],[61.1,394.78,330.13],[64.86,396.13,330.08],[68.3,398.15,330.03],[71.74,400.16,329.98],[74.92,402.57,329.94],[78.1,404.98,329.89],[81.28,407.38,329.85],[84.46,409.79,329.81],[87.64,412.19,329.76],[91.11,414.15,329.72],[94.59,416.11,329.67],[98.06,418.07,329.62],[101.7,419.71,329.57],[105.34,421.34,329.52],[108.98,422.97,329.47],[112.62,424.6,329.41],[116.26,426.23,329.34],[119.9,427.86,329.28],[123.54,429.49,329.21],[127.18,431.12,329.13],[130.81,432.75,329.05],[134.51,434.26,328.97],[138.21,435.73,328.88],[141.92,437.2,328.79],[145.63,438.66,328.7],[149.29,440.25,328.6],[152.93,441.87,328.5],[156.58,443.5,328.4],[160.27,444.98,328.3],[164.03,446.32,328.19],[167.79,447.65,328.08],[171.55,448.99,327.97],[175.3,450.33,327.86],[179.06,451.67,327.75],[180.0,452.0,327.72]]}},{"type":"Feature","properties":{"id":"RR_VALLEY","name":"Georgia Northern Mainline","type":"rail","gauge_mm":1435,"tracks":1,"length_m":1811.3,"bridge_spans":[[57.98,73.7],[78.49,86.47],[168.8,182.1],[449.54,460.53]],"width_m":4.5,"material":"RAIL_BALLAST","max_grade_pct":2.2},"geometry":{"type":"LineString","coordinates":[[850.0,381.0,357.56],[852.47,384.15,357.34],[855.89,385.91,357.12],[859.89,386.0,356.9],[863.88,386.08,356.68],[867.88,386.16,356.46],[871.88,386.25,356.24],[875.86,386.49,356.02],[879.8,387.17,355.8],[883.57,388.49,355.58],[887.08,390.4,355.36],[890.47,392.51,355.14],[893.75,394.79,354.92],[897.04,397.07,354.7],[900.32,399.35,354.48],[903.6,401.63,354.26],[906.92,403.86,354.04],[910.32,405.96,353.82],[913.83,407.86,353.6],[917.44,409.58,353.38],[921.04,411.31,353.16],[924.65,413.04,352.94],[928.12,415.02,352.72],[931.59,417.0,352.5],[935.06,418.99,352.28],[938.61,420.8,352.06],[942.36,422.17,351.85],[946.3,422.84,352.07],[950.3,422.82,352.29],[954.24,422.23,352.51],[958.12,421.32,352.73],[961.89,420.0,352.95],[965.67,418.68,353.17],[969.44,417.36,353.39],[973.21,416.04,353.61],[976.98,414.7,353.83],[980.57,412.95,354.05],[984.09,411.07,354.27],[987.46,408.92,354.49],[990.83,406.77,354.71],[994.2,404.62,354.93],[997.8,402.93,355.15],[1001.56,401.58,355.37],[1005.32,400.23,355.59],[1009.09,398.88,355.81],[1012.74,397.27,356.03],[1016.23,395.33,356.25],[1019.6,393.19,356.47],[1022.98,391.05,356.69],[1026.36,388.92,356.91],[1030.06,387.43,357.13],[1033.93,386.52,357.35],[1037.9,386.15,357.57],[1041.9,386.22,357.79],[1045.89,386.29,358.01],[1049.89,386.36,358.23],[1053.89,386.43,358.45],[1057.88,386.49,358.67],[1061.86,386.75,358.89],[1065.81,387.39,359.11],[1069.7,388.32,359.33],[1073.59,389.24,359.55],[1077.51,389.98,359.77],[1081.48,390.38,359.99],[1085.46,390.78,360.21],[1089.44,391.18,360.43],[1093.41,391.64,360.65],[1097.28,392.61,360.87],[1101.16,393.58,361.09],[1105.04,394.55,361.31],[1108.92,395.52,361.53],[1112.8,396.49,361.73],[1116.74,397.13,361.93],[1120.69,397.72,362.12],[1124.65,398.31,362.3],[1128.6,398.89,362.46],[1132.55,399.48,362.62],[1136.51,400.07,362.77],[1140.44,400.79,362.9],[1144.37,401.53,363.03],[1148.3,402.27,363.15],[1152.21,403.06,363.26],[1156.05,404.17,363.36],[1159.89,405.28,363.45],[1163.68,406.55,363.54],[1167.36,408.09,363.61],[1171.05,409.63,363.68],[1174.6,411.46,363.74],[1178.07,413.45,363.8],[1181.34,415.73,363.84],[1184.49,418.19,363.88],[1187.64,420.65,363.92],[1190.9,422.96,363.94],[1194.26,425.12,363.96],[1197.83,426.91,363.98],[1201.46,428.59,363.99],[1205.16,430.1,364.0],[1208.86,431.61,364.0],[1212.56,433.12,364.0],[1215.99,435.17,364.0],[1219.38,437.29,364.0],[1222.35,439.95,363.99],[1225.14,442.8,363.99],[1227.74,445.84,363.99],[1230.34,448.87,363.99],[1232.94,451.91,364.13],[1235.72,454.78,364.35],[1238.56,457.59,364.57],[1241.62,460.16,364.79],[1244.69,462.72,365.01],[1247.88,465.13,365.23],[1251.09,467.51,365.45],[1254.3,469.9,365.67],[1257.5,472.29,365.73],[1260.52,474.9,365.73],[1263.45,477.62,365.73],[1266.2,480.51,365.51],[1268.7,483.63,365.29],[1271.2,486.74,365.07],[1273.35,490.11,364.85],[1275.47,493.5,364.64],[1277.58,496.89,364.71],[1279.7,500.28,364.77],[1282.05,503.5,364.83],[1284.73,506.46,364.89],[1287.5,509.34,364.94],[1290.66,511.78,364.99],[1293.99,513.98,365.03],[1297.41,516.06,365.06],[1300.92,517.97,365.08],[1304.48,519.79,365.09],[1308.04,521.61,365.1],[1311.59,523.43,365.1],[1315.15,525.25,365.08],[1318.71,527.07,365.06],[1322.27,528.89,365.03],[1325.83,530.71,364.99],[1329.2,532.85,364.94],[1332.47,535.14,364.88],[1335.5,537.75,364.81],[1338.46,540.43,364.74],[1341.2,543.34,364.65],[1343.94,546.25,364.56],[1346.47,549.34,364.46],[1348.91,552.51,364.35],[1351.21,555.77,364.24],[1353.35,559.15,364.11],[1355.46,562.54,363.98],[1357.44,566.02,363.84],[1359.42,569.49,363.69],[1361.39,572.96,363.54],[1363.37,576.44,363.38],[1365.43,579.86,363.21],[1367.8,583.08,363.03],[1370.17,586.29,362.84],[1372.74,589.35,362.65],[1375.53,592.21,362.46],[1378.32,595.07,362.26],[1381.34,597.69,362.05],[1384.38,600.29,361.85],[1387.41,602.89,361.64],[1390.44,605.5,361.43],[1393.4,608.19,361.23],[1396.35,610.88,361.03],[1399.31,613.57,360.83],[1402.26,616.27,360.64],[1405.22,618.96,360.46],[1408.17,621.65,360.3],[1411.02,624.45,360.14],[1413.74,627.38,360.0],[1416.46,630.31,359.87],[1419.0,633.39,359.76],[1421.32,636.64,359.66],[1423.65,639.89,359.58],[1425.65,643.35,359.51],[1427.64,646.82,359.45],[1429.33,650.43,359.41],[1430.91,654.11,359.38],[1432.08,657.93,359.37],[1433.24,661.75,359.35],[1435.34,664.94,359.35],[1439.03,666.27,359.34],[1440.0,666.5,359.34]]}},{"type":"Feature","properties":{"id":"RR_TV_YARD","name":"Tannersville Yard","type":"rail","gauge_mm":1435,"tracks":8,"length_m":1315.1,"bridge_spans":[],"width_m":32.5,"material":"RAIL_BALLAST","max_grade_pct":2.2},"geometry":{"type":"LineString","coordinates":[[1540.0,330.0,308.42],[1543.58,331.78,308.2],[1546.94,333.9,307.98],[1550.08,336.35,307.76],[1553.23,338.8,307.54],[1556.38,341.26,307.32],[1559.65,343.54,307.1],[1563.04,345.66,306.88],[1566.63,347.39,306.66],[1570.29,348.99,306.44],[1574.05,350.33,306.22],[1577.81,351.67,306.0],[1581.57,353.01,305.78],[1585.33,354.35,305.56],[1589.09,355.69,305.34],[1592.85,357.03,305.12],[1596.61,358.37,304.9],[1600.35,359.76,304.68],[1604.03,361.31,304.46],[1607.67,362.95,304.24],[1611.2,364.82,304.02],[1614.72,366.7,303.8],[1618.25,368.57,303.58],[1621.81,370.38,303.36],[1625.4,372.12,303.14],[1628.99,373.86,302.92],[1632.59,375.6,302.7],[1636.06,377.55,302.48],[1639.37,379.78,302.26],[1642.53,382.22,302.04],[1645.69,384.66,301.82],[1648.85,387.11,301.64],[1652.34,389.04,301.54],[1655.91,390.79,301.46],[1659.71,392.0,301.38],[1663.56,393.05,301.3],[1667.51,393.62,301.23],[1671.46,394.19,301.16],[1675.41,394.76,301.1],[1679.36,395.33,301.05],[1683.19,396.47,301.0],[1687.02,397.6,300.95],[1690.61,399.34,300.9],[1694.21,401.08,300.86],[1697.8,402.82,300.83],[1701.4,404.56,300.79],[1705.05,406.17,300.77],[1708.72,407.74,300.74],[1712.43,409.21,300.72],[1716.18,410.58,300.69],[1719.93,411.94,300.67],[1723.75,413.1,300.66],[1727.57,414.25,300.64],[1731.4,415.41,300.62],[1735.19,416.65,300.61],[1738.89,418.13,300.59],[1742.44,419.96,300.58],[1745.93,421.9,300.56],[1749.35,423.95,300.54],[1752.7,426.13,300.51],[1756.05,428.3,300.48],[1759.4,430.47,300.45],[1762.75,432.64,300.42],[1766.19,434.66,300.38],[1769.72,436.53,300.33],[1773.42,438.0,300.28],[1777.21,439.23,300.22],[1781.1,440.15,300.15],[1784.99,441.06,300.08],[1788.86,442.04,300.0],[1792.67,443.22,299.91],[1796.34,444.78,299.82],[1799.95,446.48,299.71],[1803.57,448.17,299.6],[1807.18,449.87,299.48],[1810.8,451.57,299.35],[1814.41,453.26,299.22],[1817.84,455.31,299.07],[1821.03,457.69,298.92],[1823.76,460.59,298.75],[1826.37,463.61,298.58],[1828.98,466.64,298.4],[1831.71,469.54,298.21],[1834.67,472.2,298.02],[1837.96,474.47,297.81],[1841.25,476.74,297.59],[1844.53,479.0,297.37],[1847.82,481.27,297.15],[1850.92,483.78,296.93],[1854.02,486.3,296.71],[1857.13,488.81,296.49],[1860.4,491.07,296.27],[1863.86,493.06,296.05],[1867.53,494.64,295.83],[1871.2,496.21,295.61],[1874.87,497.77,295.39],[1878.54,499.34,295.17],[1882.06,501.22,294.95],[1885.53,503.2,294.73],[1888.99,505.19,294.51],[1892.46,507.17,294.29],[1895.93,509.15,294.07],[1899.17,511.47,293.85],[1902.42,513.79,293.63],[1905.6,516.21,293.41],[1908.75,518.67,293.19],[1911.9,521.12,292.97],[1915.05,523.57,292.75],[1918.2,526.03,292.53],[1921.35,528.48,292.31],[1924.54,530.87,292.09],[1927.87,533.07,291.87],[1931.2,535.28,291.65],[1934.53,537.48,291.43],[1937.86,539.68,291.21],[1941.19,541.88,290.99],[1944.52,544.09,290.77],[1947.78,546.39,290.55],[1950.81,548.99,290.33],[1953.84,551.59,290.11],[1956.86,554.19,289.89],[1959.99,556.67,289.67],[1963.21,559.03,289.45],[1966.76,560.86,289.23],[1970.31,562.69,289.01],[1973.97,564.26,288.79],[1977.68,565.74,288.57],[1981.39,567.21,288.35],[1985.1,568.69,288.13],[1988.81,570.16,287.91],[1992.52,571.64,287.69],[1996.51,571.85,287.47],[1999.5,572.0,287.31]]}}]}
